{
"type": "FeatureCollection",
"name": "optimized_shades_MILP_Inglewood_20_150",
"crs": { "type": "name", "properties": { "name": "urn:ogc:def:crs:EPSG::3857" } },
"features": [
{ "type": "Feature", "properties": { "id": "823", "STOPNUM": 1422, "STOPNAME": "Florence / Hillcrest", "LAT": 33.968814, "LONG": -118.348925, "LINE_DIR1": "40-N", "LINE_DIR2": "111-E", "LINE_DIR3": 0, "LINE_DIR4": 0, "LINE_DIR5": 0, "LINE_DIR6": 0, "LINE_DIR7": 0, "LINE_DIR8": 0, "LINE_DIR9": 0, "LINE_DIR10": 0, "LINE_DIR11": 0, "LINE_DIR12": 0, "LINE_DIR13": 0, "LINE_DIR14": 0, "layer_id": "bus_stops", "feature_name": "Bus Stop", "heat_layer": 1.4764639707108742, "socioeconomic_layer": 3.2436968182108092, "heat_socio_layer": 4.7201607889216834, "heat_socio_public_layer": 1.2031665300637318 }, "geometry": { "type": "Point", "coordinates": [ -13174542.066931322216988, 4024615.276571693364531 ] } },
{ "type": "Feature", "properties": { "id": "876", "STOPNUM": 1520, "STOPNAME": "La Brea / Market", "LAT": 33.957338, "LONG": -118.352418, "LINE_DIR1": "40-N", "LINE_DIR2": "111-E", "LINE_DIR3": 0, "LINE_DIR4": 0, "LINE_DIR5": 0, "LINE_DIR6": 0, "LINE_DIR7": 0, "LINE_DIR8": 0, "LINE_DIR9": 0, "LINE_DIR10": 0, "LINE_DIR11": 0, "LINE_DIR12": 0, "LINE_DIR13": 0, "LINE_DIR14": 0, "layer_id": "bus_stops", "feature_name": "Bus Stop", "heat_layer": 4.1518062046381408, "socioeconomic_layer": 3.5916211714596891, "heat_socio_layer": 7.7434273760978298, "heat_socio_public_layer": 1.1600486474930478 }, "geometry": { "type": "Point", "coordinates": [ -13174930.905912665650249, 4023074.999364355579019 ] } },
{ "type": "Feature", "properties": { "id": "2180", "STOPNUM": 3650, "STOPNAME": "La Brea / Hyde Park", "LAT": 33.971585, "LONG": -118.35735, "LINE_DIR1": "212-N", "LINE_DIR2": null, "LINE_DIR3": 0, "LINE_DIR4": 0, "LINE_DIR5": 0, "LINE_DIR6": 0, "LINE_DIR7": 0, "LINE_DIR8": 0, "LINE_DIR9": 0, "LINE_DIR10": 0, "LINE_DIR11": 0, "LINE_DIR12": 0, "LINE_DIR13": 0, "LINE_DIR14": 0, "layer_id": "bus_stops", "feature_name": "Bus Stop", "heat_layer": 4.1798954771991328, "socioeconomic_layer": 3.5718423551340841, "heat_socio_layer": 7.7517378323332169, "heat_socio_public_layer": 0.92808567338485926 }, "geometry": { "type": "Point", "coordinates": [ -13175479.933641256764531, 4024987.223732779733837 ] } },
{ "type": "Feature", "properties": { "id": "2979", "STOPNUM": 4953, "STOPNAME": "Eucalyptus / Manchester", "LAT": 33.961425, "LONG": -118.359615, "LINE_DIR1": "211-N", "LINE_DIR2": null, "LINE_DIR3": 0, "LINE_DIR4": 0, "LINE_DIR5": 0, "LINE_DIR6": 0, "LINE_DIR7": 0, "LINE_DIR8": 0, "LINE_DIR9": 0, "LINE_DIR10": 0, "LINE_DIR11": 0, "LINE_DIR12": 0, "LINE_DIR13": 0, "LINE_DIR14": 0, "layer_id": "bus_stops", "feature_name": "Bus Stop", "heat_layer": 3.0777307745132774, "socioeconomic_layer": 3.7261355884789249, "heat_socio_layer": 6.8038663629922027, "heat_socio_public_layer": 1.0975193665133731 }, "geometry": { "type": "Point", "coordinates": [ -13175732.07228790409863, 4023623.521457437891513 ] } },
{ "type": "Feature", "properties": { "id": "3096", "STOPNUM": 5122, "STOPNAME": "Hawthorne / 104th", "LAT": 33.942104, "LONG": -118.352486, "LINE_DIR1": "40-N", "LINE_DIR2": null, "LINE_DIR3": 0, "LINE_DIR4": 0, "LINE_DIR5": 0, "LINE_DIR6": 0, "LINE_DIR7": 0, "LINE_DIR8": 0, "LINE_DIR9": 0, "LINE_DIR10": 0, "LINE_DIR11": 0, "LINE_DIR12": 0, "LINE_DIR13": 0, "LINE_DIR14": 0, "layer_id": "bus_stops", "feature_name": "Bus Stop", "heat_layer": 4.360133973924067, "socioeconomic_layer": 3.6427446892143034, "heat_socio_layer": 8.0028786631383699, "heat_socio_public_layer": 0.94479407990708586 }, "geometry": { "type": "Point", "coordinates": [ -13174938.475638039410114, 4021030.654621789231896 ] } },
{ "type": "Feature", "properties": { "id": "3136", "STOPNUM": 5176, "STOPNAME": "La Brea / Hardy", "LAT": 33.948952, "LONG": -118.352489, "LINE_DIR1": "40-N", "LINE_DIR2": null, "LINE_DIR3": 0, "LINE_DIR4": 0, "LINE_DIR5": 0, "LINE_DIR6": 0, "LINE_DIR7": 0, "LINE_DIR8": 0, "LINE_DIR9": 0, "LINE_DIR10": 0, "LINE_DIR11": 0, "LINE_DIR12": 0, "LINE_DIR13": 0, "LINE_DIR14": 0, "layer_id": "bus_stops", "feature_name": "Bus Stop", "heat_layer": 4.7475935966327576, "socioeconomic_layer": 3.6258469898951424, "heat_socio_layer": 8.3734405865279005, "heat_socio_public_layer": 0.98071222727737328 }, "geometry": { "type": "Point", "coordinates": [ -13174938.809596512466669, 4021949.584848005790263 ] } },
{ "type": "Feature", "properties": { "id": "4692", "STOPNUM": 7558, "STOPNAME": "Century / Firmona", "LAT": 33.945327, "LONG": -118.357139, "LINE_DIR1": "117-E", "LINE_DIR2": null, "LINE_DIR3": 0, "LINE_DIR4": 0, "LINE_DIR5": 0, "LINE_DIR6": 0, "LINE_DIR7": 0, "LINE_DIR8": 0, "LINE_DIR9": 0, "LINE_DIR10": 0, "LINE_DIR11": 0, "LINE_DIR12": 0, "LINE_DIR13": 0, "LINE_DIR14": 0, "layer_id": "bus_stops", "feature_name": "Bus Stop", "heat_layer": 3.6674163130810684, "socioeconomic_layer": 3.7087102689771041, "heat_socio_layer": 7.3761265820581725, "heat_socio_public_layer": 0.8805780079091361 }, "geometry": { "type": "Point", "coordinates": [ -13175456.445228699594736, 4021463.138420474715531 ] } },
{ "type": "Feature", "properties": { "id": "4695", "STOPNUM": 7561, "STOPNAME": "Century / La Brea", "LAT": 33.945355, "LONG": -118.352279, "LINE_DIR1": "117-E", "LINE_DIR2": null, "LINE_DIR3": 0, "LINE_DIR4": 0, "LINE_DIR5": 0, "LINE_DIR6": 0, "LINE_DIR7": 0, "LINE_DIR8": 0, "LINE_DIR9": 0, "LINE_DIR10": 0, "LINE_DIR11": 0, "LINE_DIR12": 0, "LINE_DIR13": 0, "LINE_DIR14": 0, "layer_id": "bus_stops", "feature_name": "Bus Stop", "heat_layer": 4.3854364591994477, "socioeconomic_layer": 3.8116363056486837, "heat_socio_layer": 8.1970727648481319, "heat_socio_public_layer": 0.94713966210892175 }, "geometry": { "type": "Point", "coordinates": [ -13174915.432503445073962, 4021466.895720382686704 ] } },
{ "type": "Feature", "properties": { "id": "6107", "STOPNUM": 10100, "STOPNAME": "Manchester / Spruce", "LAT": 33.960914, "LONG": -118.347282, "LINE_DIR1": "115-W", "LINE_DIR2": "212-N", "LINE_DIR3": 0, "LINE_DIR4": 0, "LINE_DIR5": 0, "LINE_DIR6": 0, "LINE_DIR7": 0, "LINE_DIR8": 0, "LINE_DIR9": 0, "LINE_DIR10": 0, "LINE_DIR11": 0, "LINE_DIR12": 0, "LINE_DIR13": 0, "LINE_DIR14": 0, "layer_id": "bus_stops", "feature_name": "Bus Stop", "heat_layer": 3.084194748086039, "socioeconomic_layer": 3.6692158817710765, "heat_socio_layer": 6.7534106298571155, "heat_socio_public_layer": 0.82651240495785516 }, "geometry": { "type": "Point", "coordinates": [ -13174359.169007951393723, 4023554.937977958470583 ] } },
{ "type": "Feature", "properties": { "id": "6719", "STOPNUM": 11261, "STOPNAME": "La Brea / Arbor Vitae", "LAT": 33.952855, "LONG": -118.352789, "LINE_DIR1": "40-S", "LINE_DIR2": "111-W", "LINE_DIR3": 0, "LINE_DIR4": 0, "LINE_DIR5": 0, "LINE_DIR6": 0, "LINE_DIR7": 0, "LINE_DIR8": 0, "LINE_DIR9": 0, "LINE_DIR10": 0, "LINE_DIR11": 0, "LINE_DIR12": 0, "LINE_DIR13": 0, "LINE_DIR14": 0, "layer_id": "bus_stops", "feature_name": "Bus Stop", "heat_layer": 4.9033820782532329, "socioeconomic_layer": 3.4190588290351012, "heat_socio_layer": 8.3224409072883336, "heat_socio_public_layer": 1.2563758843043282 }, "geometry": { "type": "Point", "coordinates": [ -13174972.205443749204278, 4022473.359848470427096 ] } },
{ "type": "Feature", "properties": { "id": "6840", "STOPNUM": 11449, "STOPNAME": "Prairie / Lennox", "LAT": 33.938356, "LONG": -118.344057, "LINE_DIR1": "211-S", "LINE_DIR2": "212-S", "LINE_DIR3": 0, "LINE_DIR4": 0, "LINE_DIR5": 0, "LINE_DIR6": 0, "LINE_DIR7": 0, "LINE_DIR8": 0, "LINE_DIR9": 0, "LINE_DIR10": 0, "LINE_DIR11": 0, "LINE_DIR12": 0, "LINE_DIR13": 0, "LINE_DIR14": 0, "layer_id": "bus_stops", "feature_name": "Bus Stop", "heat_layer": 3.0630207331567294, "socioeconomic_layer": 3.6446221513434245, "heat_socio_layer": 6.7076428845001539, "heat_socio_public_layer": 0.82454953878012338 }, "geometry": { "type": "Point", "coordinates": [ -13174000.163650142028928, 4020527.743386207148433 ] } },
{ "type": "Feature", "properties": { "id": "7249", "STOPNUM": 12316, "STOPNAME": "Grace / Prairie", "LAT": 33.968568, "LONG": -118.345068, "LINE_DIR1": "211-N", "LINE_DIR2": null, "LINE_DIR3": 0, "LINE_DIR4": 0, "LINE_DIR5": 0, "LINE_DIR6": 0, "LINE_DIR7": 0, "LINE_DIR8": 0, "LINE_DIR9": 0, "LINE_DIR10": 0, "LINE_DIR11": 0, "LINE_DIR12": 0, "LINE_DIR13": 0, "LINE_DIR14": 0, "layer_id": "bus_stops", "feature_name": "Bus Stop", "heat_layer": -1.9553582591873262, "socioeconomic_layer": 3.0526690862844705, "heat_socio_layer": 1.0973108270971443, "heat_socio_public_layer": 0.89776057587870239 }, "geometry": { "type": "Point", "coordinates": [ -13174112.707655334845185, 4024582.256947516463697 ] } },
{ "type": "Feature", "properties": { "id": "8014", "STOPNUM": 13682, "STOPNAME": "Locust / Manchester", "LAT": 33.962019, "LONG": -118.350281, "LINE_DIR1": "211-S", "LINE_DIR2": null, "LINE_DIR3": 0, "LINE_DIR4": 0, "LINE_DIR5": 0, "LINE_DIR6": 0, "LINE_DIR7": 0, "LINE_DIR8": 0, "LINE_DIR9": 0, "LINE_DIR10": 0, "LINE_DIR11": 0, "LINE_DIR12": 0, "LINE_DIR13": 0, "LINE_DIR14": 0, "layer_id": "bus_stops", "feature_name": "Bus Stop", "heat_layer": 2.6048040739194693, "socioeconomic_layer": 4.1857460478731978, "heat_socio_layer": 6.7905501217926671, "heat_socio_public_layer": 0.78207209718518633 }, "geometry": { "type": "Point", "coordinates": [ -13174693.016160840168595, 4023703.245237088762224 ] } },
{ "type": "Feature", "properties": { "id": "8096", "STOPNUM": 13826, "STOPNAME": "Prairie / 104th", "LAT": 33.941562, "LONG": -118.34406, "LINE_DIR1": "212-S", "LINE_DIR2": "211-S", "LINE_DIR3": 0, "LINE_DIR4": 0, "LINE_DIR5": 0, "LINE_DIR6": 0, "LINE_DIR7": 0, "LINE_DIR8": 0, "LINE_DIR9": 0, "LINE_DIR10": 0, "LINE_DIR11": 0, "LINE_DIR12": 0, "LINE_DIR13": 0, "LINE_DIR14": 0, "layer_id": "bus_stops", "feature_name": "Bus Stop", "heat_layer": 3.1278030687173479, "socioeconomic_layer": 3.6884171116924045, "heat_socio_layer": 6.8162201804097524, "heat_socio_public_layer": 0.83055496835079934 }, "geometry": { "type": "Point", "coordinates": [ -13174000.497608613222837, 4020957.927027848083526 ] } },
{ "type": "Feature", "properties": { "id": "9398", "STOPNUM": 15907, "STOPNAME": "Century / Freeman", "LAT": 33.945595, "LONG": -118.348102, "LINE_DIR1": "117-W", "LINE_DIR2": null, "LINE_DIR3": 0, "LINE_DIR4": 0, "LINE_DIR5": 0, "LINE_DIR6": 0, "LINE_DIR7": 0, "LINE_DIR8": 0, "LINE_DIR9": 0, "LINE_DIR10": 0, "LINE_DIR11": 0, "LINE_DIR12": 0, "LINE_DIR13": 0, "LINE_DIR14": 0, "layer_id": "bus_stops", "feature_name": "Bus Stop", "heat_layer": 4.8023676700336821, "socioeconomic_layer": 3.871960329888573, "heat_socio_layer": 8.6743279999222551, "heat_socio_public_layer": 0.98578987440543164 }, "geometry": { "type": "Point", "coordinates": [ -13174450.450990401208401, 4021499.10119887534529 ] } },
{ "type": "Feature", "properties": { "id": "11087", "STOPNUM": 30004, "STOPNAME": "Inglewood Transit Center", "LAT": 33.959841, "LONG": -118.352686, "LINE_DIR1": "111-W", "LINE_DIR2": "111-E", "LINE_DIR3": 0, "LINE_DIR4": 0, "LINE_DIR5": 0, "LINE_DIR6": 0, "LINE_DIR7": 0, "LINE_DIR8": 0, "LINE_DIR9": 0, "LINE_DIR10": 0, "LINE_DIR11": 0, "LINE_DIR12": 0, "LINE_DIR13": 0, "LINE_DIR14": 0, "layer_id": "bus_stops", "feature_name": "Bus Stop", "heat_layer": 2.99787685542216, "socioeconomic_layer": 3.9690333312622688, "heat_socio_layer": 6.9669101866844283, "heat_socio_public_layer": 0.81851059365241008 }, "geometry": { "type": "Point", "coordinates": [ -13174960.739536197856069, 4023410.927433213219047 ] } },
{ "type": "Feature", "properties": { "id": "11370", "STOPNUM": 140974, "STOPNAME": "La Brea / Plymouth", "LAT": 33.974401, "LONG": -118.357487, "LINE_DIR1": "212-N", "LINE_DIR2": null, "LINE_DIR3": 0, "LINE_DIR4": 0, "LINE_DIR5": 0, "LINE_DIR6": 0, "LINE_DIR7": 0, "LINE_DIR8": 0, "LINE_DIR9": 0, "LINE_DIR10": 0, "LINE_DIR11": 0, "LINE_DIR12": 0, "LINE_DIR13": 0, "LINE_DIR14": 0, "layer_id": "bus_stops", "feature_name": "Bus Stop", "heat_layer": 4.5804614979386766, "socioeconomic_layer": 3.6028996789167058, "heat_socio_layer": 8.1833611768553816, "heat_socio_public_layer": 1.5386805926179119 }, "geometry": { "type": "Point", "coordinates": [ -13175495.184411495923996, 4025365.22359364759177 ] } },
{ "type": "Feature", "properties": { "id": "11414", "STOPNUM": 141076, "STOPNAME": "Eucalyptus / Spruce", "LAT": 33.955111, "LONG": -118.35936, "LINE_DIR1": "211-S", "LINE_DIR2": null, "LINE_DIR3": 0, "LINE_DIR4": 0, "LINE_DIR5": 0, "LINE_DIR6": 0, "LINE_DIR7": 0, "LINE_DIR8": 0, "LINE_DIR9": 0, "LINE_DIR10": 0, "LINE_DIR11": 0, "LINE_DIR12": 0, "LINE_DIR13": 0, "LINE_DIR14": 0, "layer_id": "bus_stops", "feature_name": "Bus Stop", "heat_layer": 4.5809446080902605, "socioeconomic_layer": 3.6636996183407144, "heat_socio_layer": 8.2446442264309745, "heat_socio_public_layer": 1.2000094121393314 }, "geometry": { "type": "Point", "coordinates": [ -13175703.685817752033472, 4022776.121611945796758 ] } },
{ "type": "Feature", "properties": { "id": "11415", "STOPNUM": 141077, "STOPNAME": "Eucalyptus / Kelso", "LAT": 33.958667, "LONG": -118.359408, "LINE_DIR1": "211-S", "LINE_DIR2": null, "LINE_DIR3": 0, "LINE_DIR4": 0, "LINE_DIR5": 0, "LINE_DIR6": 0, "LINE_DIR7": 0, "LINE_DIR8": 0, "LINE_DIR9": 0, "LINE_DIR10": 0, "LINE_DIR11": 0, "LINE_DIR12": 0, "LINE_DIR13": 0, "LINE_DIR14": 0, "layer_id": "bus_stops", "feature_name": "Bus Stop", "heat_layer": 3.6504270833363139, "socioeconomic_layer": 3.7310466724914022, "heat_socio_layer": 7.3814737558277166, "heat_socio_public_layer": 0.87900307823410628 }, "geometry": { "type": "Point", "coordinates": [ -13175709.029153309762478, 4023253.363456716760993 ] } },
{ "type": "Feature", "properties": { "id": "11794", "STOPNUM": 25400175, "STOPNAME": "La Brea / Manchester", "LAT": 33.962323, "LONG": -118.353185, "LINE_DIR1": "40-N", "LINE_DIR2": "111-E", "LINE_DIR3": 0, "LINE_DIR4": 0, "LINE_DIR5": 0, "LINE_DIR6": 0, "LINE_DIR7": 0, "LINE_DIR8": 0, "LINE_DIR9": 0, "LINE_DIR10": 0, "LINE_DIR11": 0, "LINE_DIR12": 0, "LINE_DIR13": 0, "LINE_DIR14": 0, "layer_id": "bus_stops", "feature_name": "Bus Stop", "heat_layer": 2.232160728201392, "socioeconomic_layer": 3.9175250477764827, "heat_socio_layer": 6.1496857759778747, "heat_socio_public_layer": 1.0235342339621627 }, "geometry": { "type": "Point", "coordinates": [ -13175016.287962103262544, 4023744.046848093159497 ] } }
]
}
