{
"type": "FeatureCollection",
"name": "optimized_shades_Greedy_DTLA_20_150",
"crs": { "type": "name", "properties": { "name": "urn:ogc:def:crs:EPSG::3857" } },
"features": [
{ "type": "Feature", "properties": { "OBJECTID": 1153, "stop_id": 19406, "route_count": 2, "route_stop": "DAPIC, MT016", "lat": 34.058301360493999, "lon": -118.26163510700999, "heat_layer": 0.4788397719817778, "socioeconomic_layer": 3.7557974804095342, "heat_socio_layer": 4.2346372523913116, "heat_socio_public_layer": 1.436659042453746 }, "geometry": { "type": "Point", "coordinates": [ -13164825.000492276623845, 4036633.163515490014106 ] } },
{ "type": "Feature", "properties": { "OBJECTID": 1764, "stop_id": 20290, "route_count": 2, "route_stop": "MT053, MT018", "lat": 34.043033939588, "lon": -118.24200956897, "heat_layer": 5.5944507212349075, "socioeconomic_layer": 4.3251716862074963, "heat_socio_layer": 9.9196224074424038, "heat_socio_public_layer": 1.3874224084391833 }, "geometry": { "type": "Point", "coordinates": [ -13162640.295591123402119, 4034581.897552561946213 ] } },
{ "type": "Feature", "properties": { "OBJECTID": 1484, "stop_id": 20215, "route_count": 3, "route_stop": "MT720, MT053, MT018", "lat": 34.044203443980003, "lon": -118.24391431181, "heat_layer": 4.8984751726274967, "socioeconomic_layer": 4.1790219296419897, "heat_socio_layer": 9.0774971022694864, "heat_socio_public_layer": 1.8358321313915531 }, "geometry": { "type": "Point", "coordinates": [ -13162852.330594163388014, 4034739.014143196865916 ] } },
{ "type": "Feature", "properties": { "OBJECTID": 1718, "stop_id": 20167, "route_count": 3, "route_stop": "MT016, MT053, MT018", "lat": 34.044897494036, "lon": -118.24584081819, "heat_layer": 4.5371057452734931, "socioeconomic_layer": 4.1054353855032595, "heat_socio_layer": 8.6425411307767526, "heat_socio_public_layer": 1.4790250535238068 }, "geometry": { "type": "Point", "coordinates": [ -13163066.788303393870592, 4034832.257039438933134 ] } },
{ "type": "Feature", "properties": { "OBJECTID": 1144, "stop_id": 18815, "route_count": 2, "route_stop": "DAPIC, MT030", "lat": 34.044635145834, "lon": -118.27690897756, "heat_layer": 3.6613185813181306, "socioeconomic_layer": 4.1296216334431586, "heat_socio_layer": 7.7909402147612887, "heat_socio_public_layer": 1.280932957685061 }, "geometry": { "type": "Point", "coordinates": [ -13166525.279984347522259, 4034797.011500256601721 ] } },
{ "type": "Feature", "properties": { "OBJECTID": 1483, "stop_id": 20355, "route_count": 3, "route_stop": "MT720, MT053, MT018", "lat": 34.039026084268002, "lon": -118.23999441142, "heat_layer": 7.2614, "socioeconomic_layer": 4.5922241777298698, "heat_socio_layer": 11.85362417772987, "heat_socio_public_layer": 0.98123215456013579 }, "geometry": { "type": "Point", "coordinates": [ -13162415.969278786331415, 4034043.480298414360732 ] } },
{ "type": "Feature", "properties": { "OBJECTID": 1740, "stop_id": 20227, "route_count": 2, "route_stop": "MT018, MT053", "lat": 34.041252817627999, "lon": -118.24362843895, "heat_layer": 7.2614, "socioeconomic_layer": 4.5922241777298698, "heat_socio_layer": 11.85362417772987, "heat_socio_public_layer": 1.4540101895923998 }, "geometry": { "type": "Point", "coordinates": [ -13162820.50737295486033, 4034342.617611710913479 ] } },
{ "type": "Feature", "properties": { "OBJECTID": 1820, "stop_id": 19572, "route_count": 2, "route_stop": "MT051, DA  E", "lat": 34.027627705863999, "lon": -118.25745671823999, "heat_layer": 7.4568, "socioeconomic_layer": 4.4925893809188828, "heat_socio_layer": 11.949389380918884, "heat_socio_public_layer": 1.1571037384396821 }, "geometry": { "type": "Point", "coordinates": [ -13164359.86438206396997, 4032512.355584840290248 ] } },
{ "type": "Feature", "properties": { "OBJECTID": 1039, "stop_id": 18997, "route_count": 2, "route_stop": "MT040, MT045", "lat": 34.022265491713, "lon": -118.27176599806, "heat_layer": 7.0072783506245013, "socioeconomic_layer": 4.0008813245214387, "heat_socio_layer": 11.00815967514594, "heat_socio_public_layer": 1.1457649454034176 }, "geometry": { "type": "Point", "coordinates": [ -13165952.766125245019794, 4031792.129649397451431 ] } },
{ "type": "Feature", "properties": { "OBJECTID": 1763, "stop_id": 20359, "route_count": 2, "route_stop": "MT053, MT018", "lat": 34.041724809575001, "lon": -118.23983050619999, "heat_layer": 6.7057620889781404, "socioeconomic_layer": 4.5032085787473974, "heat_socio_layer": 11.208970667725538, "heat_socio_public_layer": 1.0977164961632113 }, "geometry": { "type": "Point", "coordinates": [ -13162397.723433157429099, 4034406.025584911927581 ] } },
{ "type": "Feature", "properties": { "OBJECTID": 1810, "stop_id": 18965, "route_count": 2, "route_stop": "MT051, DA  E", "lat": 34.054928241178999, "lon": -118.27346997431, "heat_layer": 4.7986370339754671, "socioeconomic_layer": 4.2535486344378839, "heat_socio_layer": 9.052185668413351, "heat_socio_public_layer": 1.5066681868018499 }, "geometry": { "type": "Point", "coordinates": [ -13166142.451893720775843, 4036179.933708895463496 ] } },
{ "type": "Feature", "properties": { "OBJECTID": 1166, "stop_id": 19012, "route_count": 2, "route_stop": "DAPIC, MT018", "lat": 34.057879187034999, "lon": -118.27114875093, "heat_layer": 5.9840968612042635, "socioeconomic_layer": 4.47977935232805, "heat_socio_layer": 10.463876213532313, "heat_socio_public_layer": 1.2057315222456071 }, "geometry": { "type": "Point", "coordinates": [ -13165884.05448904260993, 4036576.437112408224493 ] } },
{ "type": "Feature", "properties": { "OBJECTID": 1762, "stop_id": 20327, "route_count": 2, "route_stop": "MT053, MT060", "lat": 34.036770450637, "lon": -118.24119269033, "heat_layer": 7.417116417169126, "socioeconomic_layer": 4.2311888338832935, "heat_socio_layer": 11.64830525105242, "heat_socio_public_layer": 0.99081399572099216 }, "geometry": { "type": "Point", "coordinates": [ -13162549.361076878383756, 4033740.468555814120919 ] } },
{ "type": "Feature", "properties": { "OBJECTID": 1821, "stop_id": 19515, "route_count": 2, "route_stop": "MT051, DA  E", "lat": 34.025836405854001, "lon": -118.25859969463001, "heat_layer": 6.928956940513527, "socioeconomic_layer": 4.2913271396105586, "heat_socio_layer": 11.220284080124085, "heat_socio_public_layer": 0.9607756307783899 }, "geometry": { "type": "Point", "coordinates": [ -13164487.099931791424751, 4032271.752014653291553 ] } },
{ "type": "Feature", "properties": { "OBJECTID": 1125, "stop_id": 20468, "route_count": 4, "route_stop": "MT081, MT090, MT094, DA  B", "lat": 34.064440876143998, "lon": -118.23870369244, "heat_layer": 3.9104268489980392, "socioeconomic_layer": 4.2600394224323423, "heat_socio_layer": 8.1704662714303815, "heat_socio_public_layer": 0.94659353984692296 }, "geometry": { "type": "Point", "coordinates": [ -13162272.287099175155163, 4037458.146977577358484 ] } },
{ "type": "Feature", "properties": { "OBJECTID": 1178, "stop_id": 18867, "route_count": 2, "route_stop": "MT603, DA  E", "lat": 34.055926228243997, "lon": -118.27566208983001, "heat_layer": 5.0410479530216881, "socioeconomic_layer": 4.5371516948003912, "heat_socio_layer": 9.5781996478220783, "heat_socio_public_layer": 1.0035466626561869 }, "geometry": { "type": "Point", "coordinates": [ -13166386.477077167481184, 4036314.026548541150987 ] } },
{ "type": "Feature", "properties": { "OBJECTID": 1112, "stop_id": 18907, "route_count": 4, "route_stop": "MT081, MT603, MT910, DA  F", "lat": 34.030750490658001, "lon": -118.27437119947, "heat_layer": 1.1035879015471171, "socioeconomic_layer": 4.1106819219297526, "heat_socio_layer": 5.2142698234768696, "heat_socio_public_layer": 0.95070978523441663 }, "geometry": { "type": "Point", "coordinates": [ -13166242.775819620117545, 4032931.813477199990302 ] } },
{ "type": "Feature", "properties": { "OBJECTID": 1148, "stop_id": 18987, "route_count": 2, "route_stop": "DAPIC, MT018", "lat": 34.058477933428001, "lon": -118.27249771919, "heat_layer": 4.8800564338038495, "socioeconomic_layer": 4.5057179343239966, "heat_socio_layer": 9.385774368127846, "heat_socio_public_layer": 0.83469875611997035 }, "geometry": { "type": "Point", "coordinates": [ -13166034.220948839560151, 4036656.889267528429627 ] } },
{ "type": "Feature", "properties": { "OBJECTID": 1138, "stop_id": 19103, "route_count": 5, "route_stop": "DAPIC, MT603, MT035, DA  D, MT055", "lat": 34.032632605640998, "lon": -118.26833412038999, "heat_layer": 2.8998, "socioeconomic_layer": 3.7749837642375317, "heat_socio_layer": 6.6747837642375316, "heat_socio_public_layer": 1.0599924015405282 }, "geometry": { "type": "Point", "coordinates": [ -13165570.731250556185842, 4033184.629896038211882 ] } },
{ "type": "Feature", "properties": { "OBJECTID": 1041, "stop_id": 19133, "route_count": 2, "route_stop": "MT040, MT045", "lat": 34.029412087349002, "lon": -118.26710594991, "heat_layer": 6.4288171924802722, "socioeconomic_layer": 4.1654616277203846, "heat_socio_layer": 10.594278820200657, "heat_socio_public_layer": 0.93000007280571728 }, "geometry": { "type": "Point", "coordinates": [ -13165434.011938117444515, 4032752.034923374187201 ] } }
]
}
