{
"type": "FeatureCollection",
"name": "optimized_shades_MILP_Inglewood_20_300",
"crs": { "type": "name", "properties": { "name": "urn:ogc:def:crs:EPSG::3857" } },
"features": [
{ "type": "Feature", "properties": { "id": "824", "STOPNUM": 1423, "STOPNAME": "Florence / Market", "LAT": 33.966224, "LONG": -118.351757, "LINE_DIR1": "40-N", "LINE_DIR2": "212-S", "LINE_DIR3": 0, "LINE_DIR4": 0, "LINE_DIR5": 0, "LINE_DIR6": 0, "LINE_DIR7": 0, "LINE_DIR8": 0, "LINE_DIR9": 0, "LINE_DIR10": 0, "LINE_DIR11": 0, "LINE_DIR12": 0, "LINE_DIR13": 0, "LINE_DIR14": 0, "layer_id": "bus_stops", "feature_name": "Bus Stop", "heat_layer": 1.9299812993197736, "socioeconomic_layer": 3.4879705124118523, "heat_socio_layer": 5.4179518117316263, "heat_socio_public_layer": 0.92444921497231991 }, "geometry": { "type": "Point", "coordinates": [ -13174857.323729252442718, 4024267.635725740343332 ] } },
{ "type": "Feature", "properties": { "id": "876", "STOPNUM": 1520, "STOPNAME": "La Brea / Market", "LAT": 33.957338, "LONG": -118.352418, "LINE_DIR1": "40-N", "LINE_DIR2": "111-E", "LINE_DIR3": 0, "LINE_DIR4": 0, "LINE_DIR5": 0, "LINE_DIR6": 0, "LINE_DIR7": 0, "LINE_DIR8": 0, "LINE_DIR9": 0, "LINE_DIR10": 0, "LINE_DIR11": 0, "LINE_DIR12": 0, "LINE_DIR13": 0, "LINE_DIR14": 0, "layer_id": "bus_stops", "feature_name": "Bus Stop", "heat_layer": 4.2037288242326341, "socioeconomic_layer": 3.6172299868484781, "heat_socio_layer": 7.8209588110811126, "heat_socio_public_layer": 1.144556251821824 }, "geometry": { "type": "Point", "coordinates": [ -13174930.905912665650249, 4023074.999364355579019 ] } },
{ "type": "Feature", "properties": { "id": "902", "STOPNUM": 1559, "STOPNAME": "Manchester / Hillcrest", "LAT": 33.961673, "LONG": -118.349083, "LINE_DIR1": "115-E", "LINE_DIR2": "212-S", "LINE_DIR3": 0, "LINE_DIR4": 0, "LINE_DIR5": 0, "LINE_DIR6": 0, "LINE_DIR7": 0, "LINE_DIR8": 0, "LINE_DIR9": 0, "LINE_DIR10": 0, "LINE_DIR11": 0, "LINE_DIR12": 0, "LINE_DIR13": 0, "LINE_DIR14": 0, "layer_id": "bus_stops", "feature_name": "Bus Stop", "heat_layer": 2.5226110489955595, "socioeconomic_layer": 3.7627816841447146, "heat_socio_layer": 6.2853927331402737, "heat_socio_public_layer": 0.73667944311227707 }, "geometry": { "type": "Point", "coordinates": [ -13174559.655410869047046, 4023656.806738825514913 ] } },
{ "type": "Feature", "properties": { "id": "1535", "STOPNUM": 2593, "STOPNAME": "Hyde Park / Hyde Park", "LAT": 33.975898, "LONG": -118.348308, "LINE_DIR1": "110-E", "LINE_DIR2": null, "LINE_DIR3": 0, "LINE_DIR4": 0, "LINE_DIR5": 0, "LINE_DIR6": 0, "LINE_DIR7": 0, "LINE_DIR8": 0, "LINE_DIR9": 0, "LINE_DIR10": 0, "LINE_DIR11": 0, "LINE_DIR12": 0, "LINE_DIR13": 0, "LINE_DIR14": 0, "layer_id": "bus_stops", "feature_name": "Bus Stop", "heat_layer": 0.80871931895527738, "socioeconomic_layer": 3.3421627731282926, "heat_socio_layer": 4.1508820920835703, "heat_socio_public_layer": 0.79236752695609214 }, "geometry": { "type": "Point", "coordinates": [ -13174473.382805503904819, 4025566.175349164288491 ] } },
{ "type": "Feature", "properties": { "id": "2957", "STOPNUM": 4911, "STOPNAME": "Crenshaw / 108th", "LAT": 33.938429, "LONG": -118.326333, "LINE_DIR1": "210-N", "LINE_DIR2": null, "LINE_DIR3": 0, "LINE_DIR4": 0, "LINE_DIR5": 0, "LINE_DIR6": 0, "LINE_DIR7": 0, "LINE_DIR8": 0, "LINE_DIR9": 0, "LINE_DIR10": 0, "LINE_DIR11": 0, "LINE_DIR12": 0, "LINE_DIR13": 0, "LINE_DIR14": 0, "layer_id": "bus_stops", "feature_name": "Bus Stop", "heat_layer": 0.81388998440740434, "socioeconomic_layer": 3.462318921311077, "heat_socio_layer": 4.2762089057184811, "heat_socio_public_layer": 0.79662118565115259 }, "geometry": { "type": "Point", "coordinates": [ -13172027.136995323002338, 4020537.538404308259487 ] } },
{ "type": "Feature", "properties": { "id": "2980", "STOPNUM": 4954, "STOPNAME": "Eucalyptus / Spruce", "LAT": 33.955493, "LONG": -118.359533, "LINE_DIR1": "211-N", "LINE_DIR2": null, "LINE_DIR3": 0, "LINE_DIR4": 0, "LINE_DIR5": 0, "LINE_DIR6": 0, "LINE_DIR7": 0, "LINE_DIR8": 0, "LINE_DIR9": 0, "LINE_DIR10": 0, "LINE_DIR11": 0, "LINE_DIR12": 0, "LINE_DIR13": 0, "LINE_DIR14": 0, "layer_id": "bus_stops", "feature_name": "Bus Stop", "heat_layer": 3.9846646493392353, "socioeconomic_layer": 3.5207510323563769, "heat_socio_layer": 7.5054156816956121, "heat_socio_public_layer": 0.88740557630934325 }, "geometry": { "type": "Point", "coordinates": [ -13175722.944089658558369, 4022827.387917995452881 ] } },
{ "type": "Feature", "properties": { "id": "3096", "STOPNUM": 5122, "STOPNAME": "Hawthorne / 104th", "LAT": 33.942104, "LONG": -118.352486, "LINE_DIR1": "40-N", "LINE_DIR2": null, "LINE_DIR3": 0, "LINE_DIR4": 0, "LINE_DIR5": 0, "LINE_DIR6": 0, "LINE_DIR7": 0, "LINE_DIR8": 0, "LINE_DIR9": 0, "LINE_DIR10": 0, "LINE_DIR11": 0, "LINE_DIR12": 0, "LINE_DIR13": 0, "LINE_DIR14": 0, "layer_id": "bus_stops", "feature_name": "Bus Stop", "heat_layer": 4.3328409753919432, "socioeconomic_layer": 3.6364864433393782, "heat_socio_layer": 7.9693274187313214, "heat_socio_public_layer": 0.92329979474589696 }, "geometry": { "type": "Point", "coordinates": [ -13174938.475638039410114, 4021030.654621789231896 ] } },
{ "type": "Feature", "properties": { "id": "3136", "STOPNUM": 5176, "STOPNAME": "La Brea / Hardy", "LAT": 33.948952, "LONG": -118.352489, "LINE_DIR1": "40-N", "LINE_DIR2": null, "LINE_DIR3": 0, "LINE_DIR4": 0, "LINE_DIR5": 0, "LINE_DIR6": 0, "LINE_DIR7": 0, "LINE_DIR8": 0, "LINE_DIR9": 0, "LINE_DIR10": 0, "LINE_DIR11": 0, "LINE_DIR12": 0, "LINE_DIR13": 0, "LINE_DIR14": 0, "layer_id": "bus_stops", "feature_name": "Bus Stop", "heat_layer": 4.7144020055481404, "socioeconomic_layer": 3.6009043900131794, "heat_socio_layer": 8.3153063955613202, "heat_socio_public_layer": 0.96263571145963001 }, "geometry": { "type": "Point", "coordinates": [ -13174938.809596512466669, 4021949.584848005790263 ] } },
{ "type": "Feature", "properties": { "id": "4692", "STOPNUM": 7558, "STOPNAME": "Century / Firmona", "LAT": 33.945327, "LONG": -118.357139, "LINE_DIR1": "117-E", "LINE_DIR2": null, "LINE_DIR3": 0, "LINE_DIR4": 0, "LINE_DIR5": 0, "LINE_DIR6": 0, "LINE_DIR7": 0, "LINE_DIR8": 0, "LINE_DIR9": 0, "LINE_DIR10": 0, "LINE_DIR11": 0, "LINE_DIR12": 0, "LINE_DIR13": 0, "LINE_DIR14": 0, "layer_id": "bus_stops", "feature_name": "Bus Stop", "heat_layer": 3.5688550818419147, "socioeconomic_layer": 3.629628913738757, "heat_socio_layer": 7.1984839955806716, "heat_socio_public_layer": 0.84453890696118583 }, "geometry": { "type": "Point", "coordinates": [ -13175456.445228699594736, 4021463.138420474715531 ] } },
{ "type": "Feature", "properties": { "id": "4697", "STOPNUM": 7563, "STOPNAME": "Century / La Cienega", "LAT": 33.945292, "LONG": -118.36972, "LINE_DIR1": "117-E", "LINE_DIR2": null, "LINE_DIR3": 0, "LINE_DIR4": 0, "LINE_DIR5": 0, "LINE_DIR6": 0, "LINE_DIR7": 0, "LINE_DIR8": 0, "LINE_DIR9": 0, "LINE_DIR10": 0, "LINE_DIR11": 0, "LINE_DIR12": 0, "LINE_DIR13": 0, "LINE_DIR14": 0, "layer_id": "bus_stops", "feature_name": "Bus Stop", "heat_layer": 0.52847265218178185, "socioeconomic_layer": 3.7144864939376832, "heat_socio_layer": 4.2429591461194649, "heat_socio_public_layer": 0.76847490098761584 }, "geometry": { "type": "Point", "coordinates": [ -13176856.955742370337248, 4021458.44179732631892 ] } },
{ "type": "Feature", "properties": { "id": "4860", "STOPNUM": 7835, "STOPNAME": "Manchester / Inglewood", "LAT": 33.961552, "LONG": -118.361396, "LINE_DIR1": "115-E", "LINE_DIR2": null, "LINE_DIR3": 0, "LINE_DIR4": 0, "LINE_DIR5": 0, "LINE_DIR6": 0, "LINE_DIR7": 0, "LINE_DIR8": 0, "LINE_DIR9": 0, "LINE_DIR10": 0, "LINE_DIR11": 0, "LINE_DIR12": 0, "LINE_DIR13": 0, "LINE_DIR14": 0, "layer_id": "bus_stops", "feature_name": "Bus Stop", "heat_layer": 3.1271489276189115, "socioeconomic_layer": 3.6337221725011606, "heat_socio_layer": 6.7608711001200721, "heat_socio_public_layer": 1.0647394782472559 }, "geometry": { "type": "Point", "coordinates": [ -13175930.332301005721092, 4023640.566730542108417 ] } },
{ "type": "Feature", "properties": { "id": "5956", "STOPNUM": 9805, "STOPNAME": "Arbor Vitae / Grevillea", "LAT": 33.952807, "LONG": -118.355288, "LINE_DIR1": "111-W", "LINE_DIR2": null, "LINE_DIR3": 0, "LINE_DIR4": 0, "LINE_DIR5": 0, "LINE_DIR6": 0, "LINE_DIR7": 0, "LINE_DIR8": 0, "LINE_DIR9": 0, "LINE_DIR10": 0, "LINE_DIR11": 0, "LINE_DIR12": 0, "LINE_DIR13": 0, "LINE_DIR14": 0, "layer_id": "bus_stops", "feature_name": "Bus Stop", "heat_layer": 4.6920121916276925, "socioeconomic_layer": 3.3992711086504954, "heat_socio_layer": 8.0912833002781888, "heat_socio_public_layer": 1.2203011400185981 }, "geometry": { "type": "Point", "coordinates": [ -13175250.392851242795587, 4022466.91819603042677 ] } },
{ "type": "Feature", "properties": { "id": "6029", "STOPNUM": 9939, "STOPNAME": "Florence / Centinela", "LAT": 33.96969, "LONG": -118.347672, "LINE_DIR1": "40-S", "LINE_DIR2": "111-W", "LINE_DIR3": 0, "LINE_DIR4": 0, "LINE_DIR5": 0, "LINE_DIR6": 0, "LINE_DIR7": 0, "LINE_DIR8": 0, "LINE_DIR9": 0, "LINE_DIR10": 0, "LINE_DIR11": 0, "LINE_DIR12": 0, "LINE_DIR13": 0, "LINE_DIR14": 0, "layer_id": "bus_stops", "feature_name": "Bus Stop", "heat_layer": 0.28877610342578913, "socioeconomic_layer": 3.2614875986321148, "heat_socio_layer": 3.550263702057904, "heat_socio_public_layer": 1.5063887699811778 }, "geometry": { "type": "Point", "coordinates": [ -13174402.58360935933888, 4024732.859423676505685 ] } },
{ "type": "Feature", "properties": { "id": "6108", "STOPNUM": 10102, "STOPNAME": "Manchester / Grevillea", "LAT": 33.96188, "LONG": -118.355366, "LINE_DIR1": "211-N", "LINE_DIR2": "115-W", "LINE_DIR3": 0, "LINE_DIR4": 0, "LINE_DIR5": 0, "LINE_DIR6": 0, "LINE_DIR7": 0, "LINE_DIR8": 0, "LINE_DIR9": 0, "LINE_DIR10": 0, "LINE_DIR11": 0, "LINE_DIR12": 0, "LINE_DIR13": 0, "LINE_DIR14": 0, "layer_id": "bus_stops", "feature_name": "Bus Stop", "heat_layer": 2.5053821934513381, "socioeconomic_layer": 3.7373967360560147, "heat_socio_layer": 6.2427789295073524, "heat_socio_public_layer": 1.4524616200566036 }, "geometry": { "type": "Point", "coordinates": [ -13175259.075771525502205, 4023684.589285897091031 ] } },
{ "type": "Feature", "properties": { "id": "7527", "STOPNUM": 12863, "STOPNAME": "Prairie / Hardy", "LAT": 33.949278, "LONG": -118.344075, "LINE_DIR1": "211-S", "LINE_DIR2": "212-S", "LINE_DIR3": 0, "LINE_DIR4": 0, "LINE_DIR5": 0, "LINE_DIR6": 0, "LINE_DIR7": 0, "LINE_DIR8": 0, "LINE_DIR9": 0, "LINE_DIR10": 0, "LINE_DIR11": 0, "LINE_DIR12": 0, "LINE_DIR13": 0, "LINE_DIR14": 0, "layer_id": "bus_stops", "feature_name": "Bus Stop", "heat_layer": 1.6055058415999579, "socioeconomic_layer": 3.5206627547560951, "heat_socio_layer": 5.1261685963560533, "heat_socio_public_layer": 0.64213316819243893 }, "geometry": { "type": "Point", "coordinates": [ -13174002.167400976642966, 4021993.332493854686618 ] } },
{ "type": "Feature", "properties": { "id": "7529", "STOPNUM": 12866, "STOPNAME": "Prairie / 111th", "LAT": 33.934712, "LONG": -118.344055, "LINE_DIR1": "212-S", "LINE_DIR2": "211-S", "LINE_DIR3": 0, "LINE_DIR4": 0, "LINE_DIR5": 0, "LINE_DIR6": 0, "LINE_DIR7": 0, "LINE_DIR8": 0, "LINE_DIR9": 0, "LINE_DIR10": 0, "LINE_DIR11": 0, "LINE_DIR12": 0, "LINE_DIR13": 0, "LINE_DIR14": 0, "layer_id": "bus_stops", "feature_name": "Bus Stop", "heat_layer": 2.0773415606253294, "socioeconomic_layer": 3.6343417010669277, "heat_socio_layer": 5.711683261692257, "heat_socio_public_layer": 0.69077568951739887 }, "geometry": { "type": "Point", "coordinates": [ -13173999.941011160612106, 4020038.808223242405802 ] } },
{ "type": "Feature", "properties": { "id": "8096", "STOPNUM": 13826, "STOPNAME": "Prairie / 104th", "LAT": 33.941562, "LONG": -118.34406, "LINE_DIR1": "212-S", "LINE_DIR2": "211-S", "LINE_DIR3": 0, "LINE_DIR4": 0, "LINE_DIR5": 0, "LINE_DIR6": 0, "LINE_DIR7": 0, "LINE_DIR8": 0, "LINE_DIR9": 0, "LINE_DIR10": 0, "LINE_DIR11": 0, "LINE_DIR12": 0, "LINE_DIR13": 0, "LINE_DIR14": 0, "layer_id": "bus_stops", "feature_name": "Bus Stop", "heat_layer": 2.908874542376481, "socioeconomic_layer": 3.6694917644886895, "heat_socio_layer": 6.5783663068651705, "heat_socio_public_layer": 0.77650014649744126 }, "geometry": { "type": "Point", "coordinates": [ -13174000.497608613222837, 4020957.927027848083526 ] } },
{ "type": "Feature", "properties": { "id": "8182", "STOPNUM": 13987, "STOPNAME": "Van Ness / Cullivan", "LAT": 33.935545, "LONG": -118.317886, "LINE_DIR1": "209-S", "LINE_DIR2": null, "LINE_DIR3": 0, "LINE_DIR4": 0, "LINE_DIR5": 0, "LINE_DIR6": 0, "LINE_DIR7": 0, "LINE_DIR8": 0, "LINE_DIR9": 0, "LINE_DIR10": 0, "LINE_DIR11": 0, "LINE_DIR12": 0, "LINE_DIR13": 0, "LINE_DIR14": 0, "layer_id": "bus_stops", "feature_name": "Bus Stop", "heat_layer": 2.2197886007904355, "socioeconomic_layer": 3.2996471578470516, "heat_socio_layer": 5.5194357586374867, "heat_socio_public_layer": 0.94693733383894696 }, "geometry": { "type": "Point", "coordinates": [ -13171086.821256592869759, 4020150.574487787205726 ] } },
{ "type": "Feature", "properties": { "id": "9398", "STOPNUM": 15907, "STOPNAME": "Century / Freeman", "LAT": 33.945595, "LONG": -118.348102, "LINE_DIR1": "117-W", "LINE_DIR2": null, "LINE_DIR3": 0, "LINE_DIR4": 0, "LINE_DIR5": 0, "LINE_DIR6": 0, "LINE_DIR7": 0, "LINE_DIR8": 0, "LINE_DIR9": 0, "LINE_DIR10": 0, "LINE_DIR11": 0, "LINE_DIR12": 0, "LINE_DIR13": 0, "LINE_DIR14": 0, "layer_id": "bus_stops", "feature_name": "Bus Stop", "heat_layer": 4.4258612417923091, "socioeconomic_layer": 3.8075842051299014, "heat_socio_layer": 8.2334454469222109, "heat_socio_public_layer": 0.93288944663020024 }, "geometry": { "type": "Point", "coordinates": [ -13174450.450990401208401, 4021499.10119887534529 ] } },
{ "type": "Feature", "properties": { "id": "11370", "STOPNUM": 140974, "STOPNAME": "La Brea / Plymouth", "LAT": 33.974401, "LONG": -118.357487, "LINE_DIR1": "212-N", "LINE_DIR2": null, "LINE_DIR3": 0, "LINE_DIR4": 0, "LINE_DIR5": 0, "LINE_DIR6": 0, "LINE_DIR7": 0, "LINE_DIR8": 0, "LINE_DIR9": 0, "LINE_DIR10": 0, "LINE_DIR11": 0, "LINE_DIR12": 0, "LINE_DIR13": 0, "LINE_DIR14": 0, "layer_id": "bus_stops", "feature_name": "Bus Stop", "heat_layer": 3.6769234969144136, "socioeconomic_layer": 3.3941201670474728, "heat_socio_layer": 7.0710436639618859, "heat_socio_public_layer": 1.429141690757628 }, "geometry": { "type": "Point", "coordinates": [ -13175495.184411495923996, 4025365.22359364759177 ] } }
]
}
