{
"type": "FeatureCollection",
"name": "optimized_shades_Greedy_DTLA_50_200",
"crs": { "type": "name", "properties": { "name": "urn:ogc:def:crs:EPSG::3857" } },
"features": [
{ "type": "Feature", "properties": { "OBJECTID": 1484, "stop_id": 20215, "route_count": 3, "route_stop": "MT720, MT053, MT018", "lat": 34.044203443980003, "lon": -118.24391431181, "heat_layer": 4.9395421215928765, "socioeconomic_layer": 4.1813777945633532, "heat_socio_layer": 9.1209199161562289, "heat_socio_public_layer": 1.8360274026330845 }, "geometry": { "type": "Point", "coordinates": [ -13162852.330594163388014, 4034739.014143196865916 ] } },
{ "type": "Feature", "properties": { "OBJECTID": 1810, "stop_id": 18965, "route_count": 2, "route_stop": "MT051, DA  E", "lat": 34.054928241178999, "lon": -118.27346997431, "heat_layer": 4.891364079053969, "socioeconomic_layer": 4.2735780387779521, "heat_socio_layer": 9.1649421178319201, "heat_socio_public_layer": 1.509999540736231 }, "geometry": { "type": "Point", "coordinates": [ -13166142.451893720775843, 4036179.933708895463496 ] } },
{ "type": "Feature", "properties": { "OBJECTID": 1153, "stop_id": 19406, "route_count": 2, "route_stop": "DAPIC, MT016", "lat": 34.058301360493999, "lon": -118.26163510700999, "heat_layer": 0.47323502181573596, "socioeconomic_layer": 3.7526101860379177, "heat_socio_layer": 4.2258452078536539, "heat_socio_public_layer": 1.4300178890912116 }, "geometry": { "type": "Point", "coordinates": [ -13164825.000492276623845, 4036633.163515490014106 ] } },
{ "type": "Feature", "properties": { "OBJECTID": 1764, "stop_id": 20290, "route_count": 2, "route_stop": "MT053, MT018", "lat": 34.043033939588, "lon": -118.24200956897, "heat_layer": 5.5892322278929845, "socioeconomic_layer": 4.3243356609806307, "heat_socio_layer": 9.9135678888736152, "heat_socio_public_layer": 1.3853462546445732 }, "geometry": { "type": "Point", "coordinates": [ -13162640.295591123402119, 4034581.897552561946213 ] } },
{ "type": "Feature", "properties": { "OBJECTID": 1740, "stop_id": 20227, "route_count": 2, "route_stop": "MT018, MT053", "lat": 34.041252817627999, "lon": -118.24362843895, "heat_layer": 7.2614, "socioeconomic_layer": 4.5922241777298698, "heat_socio_layer": 11.85362417772987, "heat_socio_public_layer": 1.4537394553347958 }, "geometry": { "type": "Point", "coordinates": [ -13162820.50737295486033, 4034342.617611710913479 ] } },
{ "type": "Feature", "properties": { "OBJECTID": 1144, "stop_id": 18815, "route_count": 2, "route_stop": "DAPIC, MT030", "lat": 34.044635145834, "lon": -118.27690897756, "heat_layer": 3.6803626946411057, "socioeconomic_layer": 4.1401205451773926, "heat_socio_layer": 7.8204832398184987, "heat_socio_public_layer": 1.2786553628344557 }, "geometry": { "type": "Point", "coordinates": [ -13166525.279984347522259, 4034797.011500256601721 ] } },
{ "type": "Feature", "properties": { "OBJECTID": 1820, "stop_id": 19572, "route_count": 2, "route_stop": "MT051, DA  E", "lat": 34.027627705863999, "lon": -118.25745671823999, "heat_layer": 7.4568, "socioeconomic_layer": 4.4925893809188828, "heat_socio_layer": 11.949389380918884, "heat_socio_public_layer": 1.1570064516319185 }, "geometry": { "type": "Point", "coordinates": [ -13164359.86438206396997, 4032512.355584840290248 ] } },
{ "type": "Feature", "properties": { "OBJECTID": 1718, "stop_id": 20167, "route_count": 3, "route_stop": "MT016, MT053, MT018", "lat": 34.044897494036, "lon": -118.24584081819, "heat_layer": 4.4941855379737108, "socioeconomic_layer": 4.1023176567666724, "heat_socio_layer": 8.5965031947403823, "heat_socio_public_layer": 1.4736569437944538 }, "geometry": { "type": "Point", "coordinates": [ -13163066.788303393870592, 4034832.257039438933134 ] } },
{ "type": "Feature", "properties": { "OBJECTID": 1741, "stop_id": 20346, "route_count": 2, "route_stop": "MT018, MT720", "lat": 34.039341029018999, "lon": -118.24052674039, "heat_layer": 7.2614, "socioeconomic_layer": 4.5922241777298698, "heat_socio_layer": 11.85362417772987, "heat_socio_public_layer": 1.1400411842676159 }, "geometry": { "type": "Point", "coordinates": [ -13162475.227868661284447, 4034085.789210012648255 ] } },
{ "type": "Feature", "properties": { "OBJECTID": 1145, "stop_id": 18925, "route_count": 2, "route_stop": "DAPIC, MT028", "lat": 34.049213795207002, "lon": -118.27419075956, "heat_layer": 2.0034655754290309, "socioeconomic_layer": 4.3366761349726843, "heat_socio_layer": 6.3401417104017153, "heat_socio_public_layer": 1.1572643097120197 }, "geometry": { "type": "Point", "coordinates": [ -13166222.689340719953179, 4035412.152263194322586 ] } },
{ "type": "Feature", "properties": { "OBJECTID": 1039, "stop_id": 18997, "route_count": 2, "route_stop": "MT040, MT045", "lat": 34.022265491713, "lon": -118.27176599806, "heat_layer": 7.156466740942597, "socioeconomic_layer": 3.9969522144358076, "heat_socio_layer": 11.153418955378404, "heat_socio_public_layer": 1.1545812128902504 }, "geometry": { "type": "Point", "coordinates": [ -13165952.766125245019794, 4031792.129649397451431 ] } },
{ "type": "Feature", "properties": { "OBJECTID": 1763, "stop_id": 20359, "route_count": 2, "route_stop": "MT053, MT018", "lat": 34.041724809575001, "lon": -118.23983050619999, "heat_layer": 6.6762064847947356, "socioeconomic_layer": 4.4621754463632417, "heat_socio_layer": 11.138381931157976, "heat_socio_public_layer": 1.0951076408573825 }, "geometry": { "type": "Point", "coordinates": [ -13162397.723433157429099, 4034406.025584911927581 ] } },
{ "type": "Feature", "properties": { "OBJECTID": 1166, "stop_id": 19012, "route_count": 2, "route_stop": "DAPIC, MT018", "lat": 34.057879187034999, "lon": -118.27114875093, "heat_layer": 5.8149789552518927, "socioeconomic_layer": 4.4848650700830044, "heat_socio_layer": 10.299844025334897, "heat_socio_public_layer": 1.193770380345851 }, "geometry": { "type": "Point", "coordinates": [ -13165884.05448904260993, 4036576.437112408224493 ] } },
{ "type": "Feature", "properties": { "OBJECTID": 1762, "stop_id": 20327, "route_count": 2, "route_stop": "MT053, MT060", "lat": 34.036770450637, "lon": -118.24119269033, "heat_layer": 7.4163093388078112, "socioeconomic_layer": 4.2330600804672134, "heat_socio_layer": 11.649369419275025, "heat_socio_public_layer": 0.99063110455196712 }, "geometry": { "type": "Point", "coordinates": [ -13162549.361076878383756, 4033740.468555814120919 ] } },
{ "type": "Feature", "properties": { "OBJECTID": 1821, "stop_id": 19515, "route_count": 2, "route_stop": "MT051, DA  E", "lat": 34.025836405854001, "lon": -118.25859969463001, "heat_layer": 6.9296323183809632, "socioeconomic_layer": 4.2925013812440183, "heat_socio_layer": 11.222133699624981, "heat_socio_public_layer": 0.96025196049776551 }, "geometry": { "type": "Point", "coordinates": [ -13164487.099931791424751, 4032271.752014653291553 ] } },
{ "type": "Feature", "properties": { "OBJECTID": 1125, "stop_id": 20468, "route_count": 4, "route_stop": "MT081, MT090, MT094, DA  B", "lat": 34.064440876143998, "lon": -118.23870369244, "heat_layer": 3.8206266543465692, "socioeconomic_layer": 4.2241380492419509, "heat_socio_layer": 8.0447647035885197, "heat_socio_public_layer": 0.93774283409683323 }, "geometry": { "type": "Point", "coordinates": [ -13162272.287099175155163, 4037458.146977577358484 ] } },
{ "type": "Feature", "properties": { "OBJECTID": 1112, "stop_id": 18907, "route_count": 4, "route_stop": "MT081, MT603, MT910, DA  F", "lat": 34.030750490658001, "lon": -118.27437119947, "heat_layer": 1.1140438738727492, "socioeconomic_layer": 4.1113344944578953, "heat_socio_layer": 5.2253783683306443, "heat_socio_public_layer": 0.94562572711985959 }, "geometry": { "type": "Point", "coordinates": [ -13166242.775819620117545, 4032931.813477199990302 ] } },
{ "type": "Feature", "properties": { "OBJECTID": 1178, "stop_id": 18867, "route_count": 2, "route_stop": "MT603, DA  E", "lat": 34.055926228243997, "lon": -118.27566208983001, "heat_layer": 4.8027167727214497, "socioeconomic_layer": 4.5004646789019453, "heat_socio_layer": 9.303181451623395, "heat_socio_public_layer": 0.98642801900475641 }, "geometry": { "type": "Point", "coordinates": [ -13166386.477077167481184, 4036314.026548541150987 ] } },
{ "type": "Feature", "properties": { "OBJECTID": 1146, "stop_id": 18991, "route_count": 2, "route_stop": "DAPIC, MT066", "lat": 34.052315186561003, "lon": -118.27218053071999, "heat_layer": 4.5980359715556256, "socioeconomic_layer": 4.0873527490026573, "heat_socio_layer": 8.6853887205582829, "heat_socio_public_layer": 0.98122645035238676 }, "geometry": { "type": "Point", "coordinates": [ -13165998.911689873784781, 4035828.842534158378839 ] } },
{ "type": "Feature", "properties": { "OBJECTID": 1124, "stop_id": 20385, "route_count": 3, "route_stop": "MT081, MT090, MT094", "lat": 34.062760247531003, "lon": -118.23955403843, "heat_layer": 2.911630029459146, "socioeconomic_layer": 4.2754654695040974, "heat_socio_layer": 7.1870954989632434, "heat_socio_public_layer": 0.87630431577526036 }, "geometry": { "type": "Point", "coordinates": [ -13162366.947181779891253, 4037232.310386332217604 ] } },
{ "type": "Feature", "properties": { "OBJECTID": 1138, "stop_id": 19103, "route_count": 5, "route_stop": "DAPIC, MT603, MT035, DA  D, MT055", "lat": 34.032632605640998, "lon": -118.26833412038999, "heat_layer": 2.9022101043311945, "socioeconomic_layer": 3.7752504368941633, "heat_socio_layer": 6.6774605412253578, "heat_socio_public_layer": 1.056000521258774 }, "geometry": { "type": "Point", "coordinates": [ -13165570.731250556185842, 4033184.629896038211882 ] } },
{ "type": "Feature", "properties": { "OBJECTID": 1695, "stop_id": 18723, "route_count": 2, "route_stop": "MT002, MT028", "lat": 34.051726106794, "lon": -118.27984747001, "heat_layer": 4.742281903033569, "socioeconomic_layer": 4.3889450795443601, "heat_socio_layer": 9.1312269825779282, "heat_socio_public_layer": 0.82371411183054166 }, "geometry": { "type": "Point", "coordinates": [ -13166852.391467580571771, 4035749.695010797586292 ] } },
{ "type": "Feature", "properties": { "OBJECTID": 1040, "stop_id": 19059, "route_count": 2, "route_stop": "MT040, MT045", "lat": 34.025342107740002, "lon": -118.26975624693, "heat_layer": 6.7600839897403322, "socioeconomic_layer": 4.0888365365184516, "heat_socio_layer": 10.848920526258784, "heat_socio_public_layer": 0.9496684875090361 }, "geometry": { "type": "Point", "coordinates": [ -13165729.041652832180262, 4032205.359847676474601 ] } },
{ "type": "Feature", "properties": { "OBJECTID": 1811, "stop_id": 19011, "route_count": 2, "route_stop": "MT051, DA  E", "lat": 34.053892026280998, "lon": -118.27115233569, "heat_layer": 4.4198455321761747, "socioeconomic_layer": 3.9671273954126556, "heat_socio_layer": 8.3869729275888307, "heat_socio_public_layer": 1.1329152655593202 }, "geometry": { "type": "Point", "coordinates": [ -13165884.45354270003736, 4036040.706121823750436 ] } },
{ "type": "Feature", "properties": { "OBJECTID": 1147, "stop_id": 18905, "route_count": 2, "route_stop": "DAPIC, MT066", "lat": 34.053378890112, "lon": -118.2744850233, "heat_layer": 4.7306379367388249, "socioeconomic_layer": 4.3466965345119002, "heat_socio_layer": 9.077334471250726, "heat_socio_public_layer": 0.82298727716487363 }, "geometry": { "type": "Point", "coordinates": [ -13166255.446630416437984, 4035971.76090792985633 ] } },
{ "type": "Feature", "properties": { "OBJECTID": 991, "stop_id": 20354, "route_count": 2, "route_stop": "MT078, MT070", "lat": 34.057609632750001, "lon": -118.24011705292, "heat_layer": 1.9144, "socioeconomic_layer": 4.2907955447235571, "heat_socio_layer": 6.2051955447235567, "heat_socio_public_layer": 0.81988569387886878 }, "geometry": { "type": "Point", "coordinates": [ -13162429.621668117120862, 4036540.217917898669839 ] } },
{ "type": "Feature", "properties": { "OBJECTID": 1155, "stop_id": 19221, "route_count": 2, "route_stop": "DAPIC, MT016", "lat": 34.059889341990001, "lon": -118.26554255668, "heat_layer": 2.1335347535132025, "socioeconomic_layer": 4.2789390186074741, "heat_socio_layer": 6.412473772120677, "heat_socio_public_layer": 0.82769900889620263 }, "geometry": { "type": "Point", "coordinates": [ -13165259.975799841806293, 4036846.539190154522657 ] } },
{ "type": "Feature", "properties": { "OBJECTID": 1041, "stop_id": 19133, "route_count": 2, "route_stop": "MT040, MT045", "lat": 34.029412087349002, "lon": -118.26710594991, "heat_layer": 6.1080404518613935, "socioeconomic_layer": 4.1299683984443263, "heat_socio_layer": 10.23800885030572, "heat_socio_public_layer": 0.90896690568899818 }, "geometry": { "type": "Point", "coordinates": [ -13165434.011938117444515, 4032752.034923374187201 ] } },
{ "type": "Feature", "properties": { "OBJECTID": 1822, "stop_id": 19412, "route_count": 2, "route_stop": "MT051, MT055", "lat": 34.021571381373001, "lon": -118.26131238422001, "heat_layer": 6.2730754391562105, "socioeconomic_layer": 4.0996522259458121, "heat_socio_layer": 10.372727665102023, "heat_socio_public_layer": 0.91926864882167236 }, "geometry": { "type": "Point", "coordinates": [ -13164789.075155628845096, 4031698.90352718019858 ] } },
{ "type": "Feature", "properties": { "OBJECTID": 1156, "stop_id": 19034, "route_count": 2, "route_stop": "DAPIC, MT016", "lat": 34.061868472157002, "lon": -118.27019759282, "heat_layer": 4.6127392545678436, "socioeconomic_layer": 4.3405424648140132, "heat_socio_layer": 8.9532817193818559, "heat_socio_public_layer": 0.815627856236531 }, "geometry": { "type": "Point", "coordinates": [ -13165778.172052573412657, 4037112.478763583116233 ] } },
{ "type": "Feature", "properties": { "OBJECTID": 1725, "stop_id": 20212, "route_count": 2, "route_stop": "MT066, MT053", "lat": 34.032029917416999, "lon": -118.24416267286, "heat_layer": 7.5664, "socioeconomic_layer": 3.8850682986319809, "heat_socio_layer": 11.45146829863198, "heat_socio_public_layer": 0.99999999937578421 }, "geometry": { "type": "Point", "coordinates": [ -13162879.978019781410694, 4033103.672766049392521 ] } },
{ "type": "Feature", "properties": { "OBJECTID": 1809, "stop_id": 18894, "route_count": 2, "route_stop": "MT051, DA  E", "lat": 34.057390323588997, "lon": -118.27468306826999, "heat_layer": 3.1390363492824451, "socioeconomic_layer": 4.3819606514432206, "heat_socio_layer": 7.5209970007256661, "heat_socio_public_layer": 0.87733869839787992 }, "geometry": { "type": "Point", "coordinates": [ -13166277.492895629256964, 4036510.750093805603683 ] } },
{ "type": "Feature", "properties": { "OBJECTID": 980, "stop_id": 19230, "route_count": 5, "route_stop": "MT078, MT014, MT076, MT033, MT070", "lat": 34.035211072109, "lon": -118.26540813718, "heat_layer": 5.3743308763548256, "socioeconomic_layer": 3.5598334912869949, "heat_socio_layer": 8.9341643676418201, "heat_socio_public_layer": 1.0408128496667968 }, "geometry": { "type": "Point", "coordinates": [ -13165245.012289550155401, 4033530.993323077447712 ] } },
{ "type": "Feature", "properties": { "OBJECTID": 1501, "stop_id": 18988, "route_count": 2, "route_stop": "MT014, MT055", "lat": 34.026474061038002, "lon": -118.27227800591, "heat_layer": 5.6980189827303178, "socioeconomic_layer": 3.9710990878652641, "heat_socio_layer": 9.6691180705955819, "heat_socio_public_layer": 0.88337272155200419 }, "geometry": { "type": "Point", "coordinates": [ -13166009.762578390538692, 4032357.399907297454774 ] } },
{ "type": "Feature", "properties": { "OBJECTID": 1819, "stop_id": 19798, "route_count": 2, "route_stop": "MT051, DA  E", "lat": 34.032767989219998, "lon": -118.25402018547, "heat_layer": 7.4758, "socioeconomic_layer": 2.8409808997107788, "heat_socio_layer": 10.316780899710778, "heat_socio_public_layer": 1.3278277417748374 }, "geometry": { "type": "Point", "coordinates": [ -13163977.31130401417613, 4033202.815606727730483 ] } },
{ "type": "Feature", "properties": { "OBJECTID": 1634, "stop_id": 19358, "route_count": 2, "route_stop": "MT004, MT094", "lat": 34.036080965380997, "lon": -118.26343710499, "heat_layer": 5.397, "socioeconomic_layer": 3.5578625043066285, "heat_socio_layer": 8.9548625043066288, "heat_socio_public_layer": 1.1862178275736524 }, "geometry": { "type": "Point", "coordinates": [ -13165025.597989823669195, 4033647.847795418463647 ] } },
{ "type": "Feature", "properties": { "OBJECTID": 1043, "stop_id": 19354, "route_count": 6, "route_stop": "MT040, MT035, MT004, MT033, DA  D, MT045", "lat": 34.034151669769003, "lon": -118.26357295643, "heat_layer": 5.3728125638879929, "socioeconomic_layer": 3.5599655023056425, "heat_socio_layer": 8.9327780661936345, "heat_socio_public_layer": 1.1890719485152175 }, "geometry": { "type": "Point", "coordinates": [ -13165040.720902945846319, 4033388.683343546465039 ] } },
{ "type": "Feature", "properties": { "OBJECTID": 1160, "stop_id": 19200, "route_count": 2, "route_stop": "DAPIC, MT014", "lat": 34.064612534508001, "lon": -118.26571933676, "heat_layer": 3.2630910449652322, "socioeconomic_layer": 3.786018330097936, "heat_socio_layer": 7.0491093750631677, "heat_socio_public_layer": 0.89819482309013043 }, "geometry": { "type": "Point", "coordinates": [ -13165279.654868330806494, 4037481.214039018377662 ] } },
{ "type": "Feature", "properties": { "OBJECTID": 1169, "stop_id": 19022, "route_count": 4, "route_stop": "MT603, MT014, DA  D, MT055", "lat": 34.029184558042999, "lon": -118.27056402459, "heat_layer": 2.9166093499068637, "socioeconomic_layer": 3.7768436812286295, "heat_socio_layer": 6.6934530311354932, "heat_socio_public_layer": 0.88846490735858297 }, "geometry": { "type": "Point", "coordinates": [ -13165818.963050618767738, 4032721.472751379944384 ] } },
{ "type": "Feature", "properties": { "OBJECTID": 1019, "stop_id": 19163, "route_count": 4, "route_stop": "MT078, MT603, MT076, MT070", "lat": 34.033743963375997, "lon": -118.26654217812001, "heat_layer": 3.7875536659744964, "socioeconomic_layer": 3.697797237541768, "heat_socio_layer": 7.4853509035162649, "heat_socio_public_layer": 0.92973133216313097 }, "geometry": { "type": "Point", "coordinates": [ -13165371.253149529919028, 4033333.916439078748226 ] } },
{ "type": "Feature", "properties": { "OBJECTID": 1739, "stop_id": 20119, "route_count": 2, "route_stop": "MT018, MT053", "lat": 34.043465959434002, "lon": -118.24713718417, "heat_layer": 3.0897841361388032, "socioeconomic_layer": 4.2254267543651762, "heat_socio_layer": 7.3152108905039794, "heat_socio_public_layer": 1.1884742866601548 }, "geometry": { "type": "Point", "coordinates": [ -13163211.099104167893529, 4034639.936830239370465 ] } },
{ "type": "Feature", "properties": { "OBJECTID": 1143, "stop_id": 18734, "route_count": 2, "route_stop": "DAPIC, MT033", "lat": 34.041544164891, "lon": -118.27913673907, "heat_layer": 3.8565934111572004, "socioeconomic_layer": 4.0800693580636, "heat_socio_layer": 7.9366627692208009, "heat_socio_public_layer": 0.76842804498838413 }, "geometry": { "type": "Point", "coordinates": [ -13166773.273261249065399, 4034381.757516295649111 ] } },
{ "type": "Feature", "properties": { "OBJECTID": 1666, "stop_id": 19014, "route_count": 2, "route_stop": "MT910, MT950", "lat": 34.033802903375999, "lon": -118.27092551569, "heat_layer": 2.8998, "socioeconomic_layer": 3.7749837642375321, "heat_socio_layer": 6.6747837642375316, "heat_socio_public_layer": 1.029119072978582 }, "geometry": { "type": "Point", "coordinates": [ -13165859.204055795446038, 4033341.833790314383805 ] } },
{ "type": "Feature", "properties": { "OBJECTID": 1042, "stop_id": 19187, "route_count": 3, "route_stop": "MT040, MT035, MT045", "lat": 34.031456756674999, "lon": -118.26574278011, "heat_layer": 4.5246774601794462, "socioeconomic_layer": 3.954772822909244, "heat_socio_layer": 8.4794502830886902, "heat_socio_public_layer": 0.81013090070933103 }, "geometry": { "type": "Point", "coordinates": [ -13165282.26457011513412, 4033026.682499269489199 ] } },
{ "type": "Feature", "properties": { "OBJECTID": 1150, "stop_id": 19129, "route_count": 2, "route_stop": "DAPIC, MT018", "lat": 34.056222574027998, "lon": -118.26729389211999, "heat_layer": 2.4357181533836796, "socioeconomic_layer": 4.2159775826362527, "heat_socio_layer": 6.6516957360199322, "heat_socio_public_layer": 0.67973477958396 }, "geometry": { "type": "Point", "coordinates": [ -13165454.933569232001901, 4036353.844851277302951 ] } },
{ "type": "Feature", "properties": { "OBJECTID": 1123, "stop_id": 20348, "route_count": 3, "route_stop": "MT081, MT090, MT094", "lat": 34.060733226433001, "lon": -118.24048259384, "heat_layer": 1.9144, "socioeconomic_layer": 4.2907955447235571, "heat_socio_layer": 6.2051955447235567, "heat_socio_public_layer": 0.64719328159865785 }, "geometry": { "type": "Point", "coordinates": [ -13162470.313497196882963, 4036959.932826130650938 ] } },
{ "type": "Feature", "properties": { "OBJECTID": 1818, "stop_id": 20125, "route_count": 2, "route_stop": "MT051, MT060", "lat": 34.040710579516997, "lon": -118.24678245859999, "heat_layer": 6.6586278256269997, "socioeconomic_layer": 3.516836116418558, "heat_socio_layer": 10.175463942045557, "heat_socio_public_layer": 1.1000199969843938 }, "geometry": { "type": "Point", "coordinates": [ -13163171.611234346404672, 4034269.773118810728192 ] } },
{ "type": "Feature", "properties": { "OBJECTID": 1154, "stop_id": 19359, "route_count": 2, "route_stop": "DAPIC, MT016", "lat": 34.059042050579002, "lon": -118.2634664876, "heat_layer": 1.8223294875107003, "socioeconomic_layer": 4.2104311441701334, "heat_socio_layer": 6.0327606316808335, "heat_socio_public_layer": 0.8039828474425238 }, "geometry": { "type": "Point", "coordinates": [ -13165028.868847006931901, 4036732.688892218284309 ] } },
{ "type": "Feature", "properties": { "OBJECTID": 1552, "stop_id": 20453, "route_count": 3, "route_stop": "MT076, MT030, DA  A", "lat": 34.049214091567997, "lon": -118.23914552319999, "heat_layer": 3.7977543470439179, "socioeconomic_layer": 3.8399498498689604, "heat_socio_layer": 7.6377041969128783, "heat_socio_public_layer": 0.76475521818603365 }, "geometry": { "type": "Point", "coordinates": [ -13162321.471474396064878, 4035412.192080318927765 ] } },
{ "type": "Feature", "properties": { "OBJECTID": 1157, "stop_id": 18986, "route_count": 3, "route_stop": "DAPIC, MT002, MT016", "lat": 34.062951053992997, "lon": -118.27267737562001, "heat_layer": 1.5215319764366604, "socioeconomic_layer": 4.1175132010742299, "heat_socio_layer": 5.6390451775108907, "heat_socio_public_layer": 0.62266984247746726 }, "geometry": { "type": "Point", "coordinates": [ -13166054.220211148262024, 4037257.950020125601441 ] } }
]
}
