{
"type": "FeatureCollection",
"name": "optimized_shades_Greedy_DTLA_20_300",
"crs": { "type": "name", "properties": { "name": "urn:ogc:def:crs:EPSG::3857" } },
"features": [
{ "type": "Feature", "properties": { "OBJECTID": 1484, "stop_id": 20215, "route_count": 3, "route_stop": "MT720, MT053, MT018", "lat": 34.044203443980003, "lon": -118.24391431181, "heat_layer": 4.9837706719557726, "socioeconomic_layer": 4.1857445814464169, "heat_socio_layer": 9.1695152534021886, "heat_socio_public_layer": 1.8365934375545665 }, "geometry": { "type": "Point", "coordinates": [ -13162852.330594163388014, 4034739.014143196865916 ] } },
{ "type": "Feature", "properties": { "OBJECTID": 1740, "stop_id": 20227, "route_count": 2, "route_stop": "MT018, MT053", "lat": 34.041252817627999, "lon": -118.24362843895, "heat_layer": 7.0349160902836969, "socioeconomic_layer": 4.527966837429874, "heat_socio_layer": 11.56288292771357, "heat_socio_public_layer": 1.4391503060988804 }, "geometry": { "type": "Point", "coordinates": [ -13162820.50737295486033, 4034342.617611710913479 ] } },
{ "type": "Feature", "properties": { "OBJECTID": 1810, "stop_id": 18965, "route_count": 2, "route_stop": "MT051, DA  E", "lat": 34.054928241178999, "lon": -118.27346997431, "heat_layer": 5.0052096658944238, "socioeconomic_layer": 4.3098389242764048, "heat_socio_layer": 9.3150485901708286, "heat_socio_public_layer": 1.5149293997981634 }, "geometry": { "type": "Point", "coordinates": [ -13166142.451893720775843, 4036179.933708895463496 ] } },
{ "type": "Feature", "properties": { "OBJECTID": 1149, "stop_id": 19003, "route_count": 2, "route_stop": "DAPIC, MT018", "lat": 34.058021355576003, "lon": -118.27146945918, "heat_layer": 5.4021975394761821, "socioeconomic_layer": 4.4863192948633079, "heat_socio_layer": 9.8885168343394909, "heat_socio_public_layer": 1.1655015957700865 }, "geometry": { "type": "Point", "coordinates": [ -13165919.755568122491241, 4036595.539915935602039 ] } },
{ "type": "Feature", "properties": { "OBJECTID": 1820, "stop_id": 19572, "route_count": 2, "route_stop": "MT051, DA  E", "lat": 34.027627705863999, "lon": -118.25745671823999, "heat_layer": 7.438742456123828, "socioeconomic_layer": 4.4817184971209656, "heat_socio_layer": 11.920460953244794, "heat_socio_public_layer": 1.1557707849132546 }, "geometry": { "type": "Point", "coordinates": [ -13164359.86438206396997, 4032512.355584840290248 ] } },
{ "type": "Feature", "properties": { "OBJECTID": 1741, "stop_id": 20346, "route_count": 2, "route_stop": "MT018, MT720", "lat": 34.039341029018999, "lon": -118.24052674039, "heat_layer": 7.1577374352771352, "socioeconomic_layer": 4.4733292260021242, "heat_socio_layer": 11.631066661279259, "heat_socio_public_layer": 1.1332231128450756 }, "geometry": { "type": "Point", "coordinates": [ -13162475.227868661284447, 4034085.789210012648255 ] } },
{ "type": "Feature", "properties": { "OBJECTID": 1144, "stop_id": 18815, "route_count": 2, "route_stop": "DAPIC, MT030", "lat": 34.044635145834, "lon": -118.27690897756, "heat_layer": 3.6942739538696725, "socioeconomic_layer": 4.1367392783406958, "heat_socio_layer": 7.8310132322103687, "heat_socio_public_layer": 1.2762330994298354 }, "geometry": { "type": "Point", "coordinates": [ -13166525.279984347522259, 4034797.011500256601721 ] } },
{ "type": "Feature", "properties": { "OBJECTID": 1153, "stop_id": 19406, "route_count": 2, "route_stop": "DAPIC, MT016", "lat": 34.058301360493999, "lon": -118.26163510700999, "heat_layer": 0.50003125401812454, "socioeconomic_layer": 3.7609566047129035, "heat_socio_layer": 4.2609878587310277, "heat_socio_public_layer": 1.4256853814978483 }, "geometry": { "type": "Point", "coordinates": [ -13164825.000492276623845, 4036633.163515490014106 ] } },
{ "type": "Feature", "properties": { "OBJECTID": 1145, "stop_id": 18925, "route_count": 2, "route_stop": "DAPIC, MT028", "lat": 34.049213795207002, "lon": -118.27419075956, "heat_layer": 2.1868575928610503, "socioeconomic_layer": 4.3109390309980737, "heat_socio_layer": 6.4977966238591236, "heat_socio_public_layer": 1.1641402626848387 }, "geometry": { "type": "Point", "coordinates": [ -13166222.689340719953179, 4035412.152263194322586 ] } },
{ "type": "Feature", "properties": { "OBJECTID": 1739, "stop_id": 20119, "route_count": 2, "route_stop": "MT018, MT053", "lat": 34.043465959434002, "lon": -118.24713718417, "heat_layer": 3.3809828479101878, "socioeconomic_layer": 4.0947231101127954, "heat_socio_layer": 7.4757059580229832, "heat_socio_public_layer": 1.203094499254088 }, "geometry": { "type": "Point", "coordinates": [ -13163211.099104167893529, 4034639.936830239370465 ] } },
{ "type": "Feature", "properties": { "OBJECTID": 1039, "stop_id": 18997, "route_count": 2, "route_stop": "MT040, MT045", "lat": 34.022265491713, "lon": -118.27176599806, "heat_layer": 7.3772579844284234, "socioeconomic_layer": 3.9911373309871041, "heat_socio_layer": 11.368395315415528, "heat_socio_public_layer": 1.1682026116600768 }, "geometry": { "type": "Point", "coordinates": [ -13165952.766125245019794, 4031792.129649397451431 ] } },
{ "type": "Feature", "properties": { "OBJECTID": 1763, "stop_id": 20359, "route_count": 2, "route_stop": "MT053, MT018", "lat": 34.041724809575001, "lon": -118.23983050619999, "heat_layer": 6.3396375056068957, "socioeconomic_layer": 4.1516571683317931, "heat_socio_layer": 10.49129467393869, "heat_socio_public_layer": 1.0730559441706078 }, "geometry": { "type": "Point", "coordinates": [ -13162397.723433157429099, 4034406.025584911927581 ] } },
{ "type": "Feature", "properties": { "OBJECTID": 1762, "stop_id": 20327, "route_count": 2, "route_stop": "MT053, MT060", "lat": 34.036770450637, "lon": -118.24119269033, "heat_layer": 7.4154276120467326, "socioeconomic_layer": 4.2347011836217749, "heat_socio_layer": 11.650128795668508, "heat_socio_public_layer": 0.99044776579975302 }, "geometry": { "type": "Point", "coordinates": [ -13162549.361076878383756, 4033740.468555814120919 ] } },
{ "type": "Feature", "properties": { "OBJECTID": 1170, "stop_id": 18973, "route_count": 3, "route_stop": "MT603, MT910, MT950", "lat": 34.030181932578003, "lon": -118.27304916654001, "heat_layer": 2.0880478531246487, "socioeconomic_layer": 3.9092292740796966, "heat_socio_layer": 5.9972771272043452, "heat_socio_public_layer": 1.1171713242148293 }, "geometry": { "type": "Point", "coordinates": [ -13166095.607787042856216, 4032855.442616184707731 ] } },
{ "type": "Feature", "properties": { "OBJECTID": 1165, "stop_id": 19435, "route_count": 2, "route_stop": "DAPIC, MT016", "lat": 34.055785933149998, "lon": -118.26088772, "heat_layer": -0.87375300440798309, "socioeconomic_layer": 3.5705459154859729, "heat_socio_layer": 2.6967929110779898, "heat_socio_public_layer": 1.2648580100474596 }, "geometry": { "type": "Point", "coordinates": [ -13164741.801750898361206, 4036295.175940775312483 ] } },
{ "type": "Feature", "properties": { "OBJECTID": 1257, "stop_id": 18866, "route_count": 2, "route_stop": "MT802, MT805", "lat": 34.056926391123, "lon": -118.27568849568, "heat_layer": 3.1359093643250473, "socioeconomic_layer": 4.3295227528719895, "heat_socio_layer": 7.4654321171970368, "heat_socio_public_layer": 0.87073113421575898 }, "geometry": { "type": "Point", "coordinates": [ -13166389.416562942788005, 4036448.413321658503264 ] } },
{ "type": "Feature", "properties": { "OBJECTID": 1146, "stop_id": 18991, "route_count": 2, "route_stop": "DAPIC, MT066", "lat": 34.052315186561003, "lon": -118.27218053071999, "heat_layer": 4.3964831028166387, "socioeconomic_layer": 4.0939077992624471, "heat_socio_layer": 8.4903909020790849, "heat_socio_public_layer": 0.96595133190451543 }, "geometry": { "type": "Point", "coordinates": [ -13165998.911689873784781, 4035828.842534158378839 ] } },
{ "type": "Feature", "properties": { "OBJECTID": 1124, "stop_id": 20385, "route_count": 3, "route_stop": "MT081, MT090, MT094", "lat": 34.062760247531003, "lon": -118.23955403843, "heat_layer": 2.9109223685128369, "socioeconomic_layer": 4.2749317009482937, "heat_socio_layer": 7.185854069461131, "heat_socio_public_layer": 0.87230380535171514 }, "geometry": { "type": "Point", "coordinates": [ -13162366.947181779891253, 4037232.310386332217604 ] } },
{ "type": "Feature", "properties": { "OBJECTID": 1695, "stop_id": 18723, "route_count": 2, "route_stop": "MT002, MT028", "lat": 34.051726106794, "lon": -118.27984747001, "heat_layer": 4.6623033674412104, "socioeconomic_layer": 4.398841625118906, "heat_socio_layer": 9.0611449925601164, "heat_socio_public_layer": 0.81625375468660566 }, "geometry": { "type": "Point", "coordinates": [ -13166852.391467580571771, 4035749.695010797586292 ] } },
{ "type": "Feature", "properties": { "OBJECTID": 1168, "stop_id": 19120, "route_count": 3, "route_stop": "DAPIC, MT014, MT035", "lat": 34.032296254597, "lon": -118.26759702925, "heat_layer": 3.4617035376385514, "socioeconomic_layer": 3.8292865207506788, "heat_socio_layer": 7.2909900583892302, "heat_socio_public_layer": 1.0649604676498809 }, "geometry": { "type": "Point", "coordinates": [ -13165488.678640183061361, 4033139.448893908411264 ] } }
]
}
