{
"type": "FeatureCollection",
"name": "optimized_shades_Greedy_DTLA_10_300",
"crs": { "type": "name", "properties": { "name": "urn:ogc:def:crs:EPSG::3857" } },
"features": [
{ "type": "Feature", "properties": { "OBJECTID": 1484, "stop_id": 20215, "route_count": 3, "route_stop": "MT720, MT053, MT018", "lat": 34.044203443980003, "lon": -118.24391431181, "heat_layer": 4.9837706719557726, "socioeconomic_layer": 4.1857445814464169, "heat_socio_layer": 9.1695152534021886 }, "geometry": { "type": "Point", "coordinates": [ -13162852.330594163388014, 4034739.014143196865916 ] } },
{ "type": "Feature", "properties": { "OBJECTID": 1740, "stop_id": 20227, "route_count": 2, "route_stop": "MT018, MT053", "lat": 34.041252817627999, "lon": -118.24362843895, "heat_layer": 7.0349160902836969, "socioeconomic_layer": 4.527966837429874, "heat_socio_layer": 11.56288292771357 }, "geometry": { "type": "Point", "coordinates": [ -13162820.50737295486033, 4034342.617611710913479 ] } },
{ "type": "Feature", "properties": { "OBJECTID": 1810, "stop_id": 18965, "route_count": 2, "route_stop": "MT051, DA  E", "lat": 34.054928241178999, "lon": -118.27346997431, "heat_layer": 5.0052096658944238, "socioeconomic_layer": 4.3098389242764048, "heat_socio_layer": 9.3150485901708286 }, "geometry": { "type": "Point", "coordinates": [ -13166142.451893720775843, 4036179.933708895463496 ] } },
{ "type": "Feature", "properties": { "OBJECTID": 1149, "stop_id": 19003, "route_count": 2, "route_stop": "DAPIC, MT018", "lat": 34.058021355576003, "lon": -118.27146945918, "heat_layer": 5.4021975394761821, "socioeconomic_layer": 4.4863192948633079, "heat_socio_layer": 9.8885168343394909 }, "geometry": { "type": "Point", "coordinates": [ -13165919.755568122491241, 4036595.539915935602039 ] } },
{ "type": "Feature", "properties": { "OBJECTID": 1820, "stop_id": 19572, "route_count": 2, "route_stop": "MT051, DA  E", "lat": 34.027627705863999, "lon": -118.25745671823999, "heat_layer": 7.438742456123828, "socioeconomic_layer": 4.4817184971209656, "heat_socio_layer": 11.920460953244794 }, "geometry": { "type": "Point", "coordinates": [ -13164359.86438206396997, 4032512.355584840290248 ] } },
{ "type": "Feature", "properties": { "OBJECTID": 1741, "stop_id": 20346, "route_count": 2, "route_stop": "MT018, MT720", "lat": 34.039341029018999, "lon": -118.24052674039, "heat_layer": 7.1577374352771352, "socioeconomic_layer": 4.4733292260021242, "heat_socio_layer": 11.631066661279259 }, "geometry": { "type": "Point", "coordinates": [ -13162475.227868661284447, 4034085.789210012648255 ] } },
{ "type": "Feature", "properties": { "OBJECTID": 1144, "stop_id": 18815, "route_count": 2, "route_stop": "DAPIC, MT030", "lat": 34.044635145834, "lon": -118.27690897756, "heat_layer": 3.6942739538696725, "socioeconomic_layer": 4.1367392783406958, "heat_socio_layer": 7.8310132322103687 }, "geometry": { "type": "Point", "coordinates": [ -13166525.279984347522259, 4034797.011500256601721 ] } },
{ "type": "Feature", "properties": { "OBJECTID": 1153, "stop_id": 19406, "route_count": 2, "route_stop": "DAPIC, MT016", "lat": 34.058301360493999, "lon": -118.26163510700999, "heat_layer": 0.50003125401812454, "socioeconomic_layer": 3.7609566047129035, "heat_socio_layer": 4.2609878587310277 }, "geometry": { "type": "Point", "coordinates": [ -13164825.000492276623845, 4036633.163515490014106 ] } },
{ "type": "Feature", "properties": { "OBJECTID": 1145, "stop_id": 18925, "route_count": 2, "route_stop": "DAPIC, MT028", "lat": 34.049213795207002, "lon": -118.27419075956, "heat_layer": 2.1868575928610503, "socioeconomic_layer": 4.3109390309980737, "heat_socio_layer": 6.4977966238591236 }, "geometry": { "type": "Point", "coordinates": [ -13166222.689340719953179, 4035412.152263194322586 ] } },
{ "type": "Feature", "properties": { "OBJECTID": 1739, "stop_id": 20119, "route_count": 2, "route_stop": "MT018, MT053", "lat": 34.043465959434002, "lon": -118.24713718417, "heat_layer": 3.3809828479101878, "socioeconomic_layer": 4.0947231101127954, "heat_socio_layer": 7.4757059580229832 }, "geometry": { "type": "Point", "coordinates": [ -13163211.099104167893529, 4034639.936830239370465 ] } }
]
}
