{
"type": "FeatureCollection",
"name": "optimized_shades_Greedy_DTLA_50_150",
"crs": { "type": "name", "properties": { "name": "urn:ogc:def:crs:EPSG::3857" } },
"features": [
{ "type": "Feature", "properties": { "OBJECTID": 1153, "stop_id": 19406, "route_count": 2, "route_stop": "DAPIC, MT016", "lat": 34.058301360493999, "lon": -118.26163510700999, "heat_layer": 0.4788397719817778, "socioeconomic_layer": 3.7557974804095342, "heat_socio_layer": 4.2346372523913116, "heat_socio_public_layer": 1.436659042453746 }, "geometry": { "type": "Point", "coordinates": [ -13164825.000492276623845, 4036633.163515490014106 ] } },
{ "type": "Feature", "properties": { "OBJECTID": 1764, "stop_id": 20290, "route_count": 2, "route_stop": "MT053, MT018", "lat": 34.043033939588, "lon": -118.24200956897, "heat_layer": 5.5944507212349075, "socioeconomic_layer": 4.3251716862074963, "heat_socio_layer": 9.9196224074424038, "heat_socio_public_layer": 1.3874224084391833 }, "geometry": { "type": "Point", "coordinates": [ -13162640.295591123402119, 4034581.897552561946213 ] } },
{ "type": "Feature", "properties": { "OBJECTID": 1484, "stop_id": 20215, "route_count": 3, "route_stop": "MT720, MT053, MT018", "lat": 34.044203443980003, "lon": -118.24391431181, "heat_layer": 4.8984751726274967, "socioeconomic_layer": 4.1790219296419897, "heat_socio_layer": 9.0774971022694864, "heat_socio_public_layer": 1.8358321313915531 }, "geometry": { "type": "Point", "coordinates": [ -13162852.330594163388014, 4034739.014143196865916 ] } },
{ "type": "Feature", "properties": { "OBJECTID": 1718, "stop_id": 20167, "route_count": 3, "route_stop": "MT016, MT053, MT018", "lat": 34.044897494036, "lon": -118.24584081819, "heat_layer": 4.5371057452734931, "socioeconomic_layer": 4.1054353855032595, "heat_socio_layer": 8.6425411307767526, "heat_socio_public_layer": 1.4790250535238068 }, "geometry": { "type": "Point", "coordinates": [ -13163066.788303393870592, 4034832.257039438933134 ] } },
{ "type": "Feature", "properties": { "OBJECTID": 1144, "stop_id": 18815, "route_count": 2, "route_stop": "DAPIC, MT030", "lat": 34.044635145834, "lon": -118.27690897756, "heat_layer": 3.6613185813181306, "socioeconomic_layer": 4.1296216334431586, "heat_socio_layer": 7.7909402147612887, "heat_socio_public_layer": 1.280932957685061 }, "geometry": { "type": "Point", "coordinates": [ -13166525.279984347522259, 4034797.011500256601721 ] } },
{ "type": "Feature", "properties": { "OBJECTID": 1483, "stop_id": 20355, "route_count": 3, "route_stop": "MT720, MT053, MT018", "lat": 34.039026084268002, "lon": -118.23999441142, "heat_layer": 7.2614, "socioeconomic_layer": 4.5922241777298698, "heat_socio_layer": 11.85362417772987, "heat_socio_public_layer": 0.98123215456013579 }, "geometry": { "type": "Point", "coordinates": [ -13162415.969278786331415, 4034043.480298414360732 ] } },
{ "type": "Feature", "properties": { "OBJECTID": 1740, "stop_id": 20227, "route_count": 2, "route_stop": "MT018, MT053", "lat": 34.041252817627999, "lon": -118.24362843895, "heat_layer": 7.2614, "socioeconomic_layer": 4.5922241777298698, "heat_socio_layer": 11.85362417772987, "heat_socio_public_layer": 1.4540101895923998 }, "geometry": { "type": "Point", "coordinates": [ -13162820.50737295486033, 4034342.617611710913479 ] } },
{ "type": "Feature", "properties": { "OBJECTID": 1820, "stop_id": 19572, "route_count": 2, "route_stop": "MT051, DA  E", "lat": 34.027627705863999, "lon": -118.25745671823999, "heat_layer": 7.4568, "socioeconomic_layer": 4.4925893809188828, "heat_socio_layer": 11.949389380918884, "heat_socio_public_layer": 1.1571037384396821 }, "geometry": { "type": "Point", "coordinates": [ -13164359.86438206396997, 4032512.355584840290248 ] } },
{ "type": "Feature", "properties": { "OBJECTID": 1039, "stop_id": 18997, "route_count": 2, "route_stop": "MT040, MT045", "lat": 34.022265491713, "lon": -118.27176599806, "heat_layer": 7.0072783506245013, "socioeconomic_layer": 4.0008813245214387, "heat_socio_layer": 11.00815967514594, "heat_socio_public_layer": 1.1457649454034176 }, "geometry": { "type": "Point", "coordinates": [ -13165952.766125245019794, 4031792.129649397451431 ] } },
{ "type": "Feature", "properties": { "OBJECTID": 1763, "stop_id": 20359, "route_count": 2, "route_stop": "MT053, MT018", "lat": 34.041724809575001, "lon": -118.23983050619999, "heat_layer": 6.7057620889781404, "socioeconomic_layer": 4.5032085787473974, "heat_socio_layer": 11.208970667725538, "heat_socio_public_layer": 1.0977164961632113 }, "geometry": { "type": "Point", "coordinates": [ -13162397.723433157429099, 4034406.025584911927581 ] } },
{ "type": "Feature", "properties": { "OBJECTID": 1810, "stop_id": 18965, "route_count": 2, "route_stop": "MT051, DA  E", "lat": 34.054928241178999, "lon": -118.27346997431, "heat_layer": 4.7986370339754671, "socioeconomic_layer": 4.2535486344378839, "heat_socio_layer": 9.052185668413351, "heat_socio_public_layer": 1.5066681868018499 }, "geometry": { "type": "Point", "coordinates": [ -13166142.451893720775843, 4036179.933708895463496 ] } },
{ "type": "Feature", "properties": { "OBJECTID": 1166, "stop_id": 19012, "route_count": 2, "route_stop": "DAPIC, MT018", "lat": 34.057879187034999, "lon": -118.27114875093, "heat_layer": 5.9840968612042635, "socioeconomic_layer": 4.47977935232805, "heat_socio_layer": 10.463876213532313, "heat_socio_public_layer": 1.2057315222456071 }, "geometry": { "type": "Point", "coordinates": [ -13165884.05448904260993, 4036576.437112408224493 ] } },
{ "type": "Feature", "properties": { "OBJECTID": 1762, "stop_id": 20327, "route_count": 2, "route_stop": "MT053, MT060", "lat": 34.036770450637, "lon": -118.24119269033, "heat_layer": 7.417116417169126, "socioeconomic_layer": 4.2311888338832935, "heat_socio_layer": 11.64830525105242, "heat_socio_public_layer": 0.99081399572099216 }, "geometry": { "type": "Point", "coordinates": [ -13162549.361076878383756, 4033740.468555814120919 ] } },
{ "type": "Feature", "properties": { "OBJECTID": 1821, "stop_id": 19515, "route_count": 2, "route_stop": "MT051, DA  E", "lat": 34.025836405854001, "lon": -118.25859969463001, "heat_layer": 6.928956940513527, "socioeconomic_layer": 4.2913271396105586, "heat_socio_layer": 11.220284080124085, "heat_socio_public_layer": 0.9607756307783899 }, "geometry": { "type": "Point", "coordinates": [ -13164487.099931791424751, 4032271.752014653291553 ] } },
{ "type": "Feature", "properties": { "OBJECTID": 1125, "stop_id": 20468, "route_count": 4, "route_stop": "MT081, MT090, MT094, DA  B", "lat": 34.064440876143998, "lon": -118.23870369244, "heat_layer": 3.9104268489980392, "socioeconomic_layer": 4.2600394224323423, "heat_socio_layer": 8.1704662714303815, "heat_socio_public_layer": 0.94659353984692296 }, "geometry": { "type": "Point", "coordinates": [ -13162272.287099175155163, 4037458.146977577358484 ] } },
{ "type": "Feature", "properties": { "OBJECTID": 1178, "stop_id": 18867, "route_count": 2, "route_stop": "MT603, DA  E", "lat": 34.055926228243997, "lon": -118.27566208983001, "heat_layer": 5.0410479530216881, "socioeconomic_layer": 4.5371516948003912, "heat_socio_layer": 9.5781996478220783, "heat_socio_public_layer": 1.0035466626561869 }, "geometry": { "type": "Point", "coordinates": [ -13166386.477077167481184, 4036314.026548541150987 ] } },
{ "type": "Feature", "properties": { "OBJECTID": 1112, "stop_id": 18907, "route_count": 4, "route_stop": "MT081, MT603, MT910, DA  F", "lat": 34.030750490658001, "lon": -118.27437119947, "heat_layer": 1.1035879015471171, "socioeconomic_layer": 4.1106819219297526, "heat_socio_layer": 5.2142698234768696, "heat_socio_public_layer": 0.95070978523441663 }, "geometry": { "type": "Point", "coordinates": [ -13166242.775819620117545, 4032931.813477199990302 ] } },
{ "type": "Feature", "properties": { "OBJECTID": 1148, "stop_id": 18987, "route_count": 2, "route_stop": "DAPIC, MT018", "lat": 34.058477933428001, "lon": -118.27249771919, "heat_layer": 4.8800564338038495, "socioeconomic_layer": 4.5057179343239966, "heat_socio_layer": 9.385774368127846, "heat_socio_public_layer": 0.83469875611997035 }, "geometry": { "type": "Point", "coordinates": [ -13166034.220948839560151, 4036656.889267528429627 ] } },
{ "type": "Feature", "properties": { "OBJECTID": 1138, "stop_id": 19103, "route_count": 5, "route_stop": "DAPIC, MT603, MT035, DA  D, MT055", "lat": 34.032632605640998, "lon": -118.26833412038999, "heat_layer": 2.8998, "socioeconomic_layer": 3.7749837642375317, "heat_socio_layer": 6.6747837642375316, "heat_socio_public_layer": 1.0599924015405282 }, "geometry": { "type": "Point", "coordinates": [ -13165570.731250556185842, 4033184.629896038211882 ] } },
{ "type": "Feature", "properties": { "OBJECTID": 1041, "stop_id": 19133, "route_count": 2, "route_stop": "MT040, MT045", "lat": 34.029412087349002, "lon": -118.26710594991, "heat_layer": 6.4288171924802722, "socioeconomic_layer": 4.1654616277203846, "heat_socio_layer": 10.594278820200657, "heat_socio_public_layer": 0.93000007280571728 }, "geometry": { "type": "Point", "coordinates": [ -13165434.011938117444515, 4032752.034923374187201 ] } },
{ "type": "Feature", "properties": { "OBJECTID": 1145, "stop_id": 18925, "route_count": 2, "route_stop": "DAPIC, MT028", "lat": 34.049213795207002, "lon": -118.27419075956, "heat_layer": 2.0072726493890554, "socioeconomic_layer": 4.3367954550150793, "heat_socio_layer": 6.3440681044041352, "heat_socio_public_layer": 1.1624365308535975 }, "geometry": { "type": "Point", "coordinates": [ -13166222.689340719953179, 4035412.152263194322586 ] } },
{ "type": "Feature", "properties": { "OBJECTID": 1040, "stop_id": 19059, "route_count": 2, "route_stop": "MT040, MT045", "lat": 34.025342107740002, "lon": -118.26975624693, "heat_layer": 6.7581396520714891, "socioeconomic_layer": 4.0890554375921315, "heat_socio_layer": 10.847195089663622, "heat_socio_public_layer": 0.95026457385109064 }, "geometry": { "type": "Point", "coordinates": [ -13165729.041652832180262, 4032205.359847676474601 ] } },
{ "type": "Feature", "properties": { "OBJECTID": 1695, "stop_id": 18723, "route_count": 2, "route_stop": "MT002, MT028", "lat": 34.051726106794, "lon": -118.27984747001, "heat_layer": 4.7429430293315864, "socioeconomic_layer": 4.3893041357146627, "heat_socio_layer": 9.1322471650462482, "heat_socio_public_layer": 0.82626163120686291 }, "geometry": { "type": "Point", "coordinates": [ -13166852.391467580571771, 4035749.695010797586292 ] } },
{ "type": "Feature", "properties": { "OBJECTID": 1822, "stop_id": 19412, "route_count": 2, "route_stop": "MT051, MT055", "lat": 34.021571381373001, "lon": -118.26131238422001, "heat_layer": 6.3858466090337842, "socioeconomic_layer": 4.0978421634166216, "heat_socio_layer": 10.483688772450407, "heat_socio_public_layer": 0.92735592447082227 }, "geometry": { "type": "Point", "coordinates": [ -13164789.075155628845096, 4031698.90352718019858 ] } },
{ "type": "Feature", "properties": { "OBJECTID": 991, "stop_id": 20354, "route_count": 2, "route_stop": "MT078, MT070", "lat": 34.057609632750001, "lon": -118.24011705292, "heat_layer": 1.9144, "socioeconomic_layer": 4.2907955447235571, "heat_socio_layer": 6.2051955447235567, "heat_socio_public_layer": 0.82490271019531258 }, "geometry": { "type": "Point", "coordinates": [ -13162429.621668117120862, 4036540.217917898669839 ] } },
{ "type": "Feature", "properties": { "OBJECTID": 1725, "stop_id": 20212, "route_count": 2, "route_stop": "MT066, MT053", "lat": 34.032029917416999, "lon": -118.24416267286, "heat_layer": 7.5664, "socioeconomic_layer": 3.8850682986319809, "heat_socio_layer": 11.45146829863198, "heat_socio_public_layer": 0.99999999938466078 }, "geometry": { "type": "Point", "coordinates": [ -13162879.978019781410694, 4033103.672766049392521 ] } },
{ "type": "Feature", "properties": { "OBJECTID": 1156, "stop_id": 19034, "route_count": 2, "route_stop": "DAPIC, MT016", "lat": 34.061868472157002, "lon": -118.27019759282, "heat_layer": 4.6846567950586664, "socioeconomic_layer": 4.3350129371622836, "heat_socio_layer": 9.0196697322209509, "heat_socio_public_layer": 0.82267505087820691 }, "geometry": { "type": "Point", "coordinates": [ -13165778.172052573412657, 4037112.478763583116233 ] } },
{ "type": "Feature", "properties": { "OBJECTID": 1147, "stop_id": 18905, "route_count": 2, "route_stop": "DAPIC, MT066", "lat": 34.053378890112, "lon": -118.2744850233, "heat_layer": 4.5816673251801712, "socioeconomic_layer": 4.3091799430299744, "heat_socio_layer": 8.8908472682101447, "heat_socio_public_layer": 0.81633770533971606 }, "geometry": { "type": "Point", "coordinates": [ -13166255.446630416437984, 4035971.76090792985633 ] } },
{ "type": "Feature", "properties": { "OBJECTID": 1809, "stop_id": 18894, "route_count": 2, "route_stop": "MT051, DA  E", "lat": 34.057390323588997, "lon": -118.27468306826999, "heat_layer": 3.4142135616632516, "socioeconomic_layer": 4.4144736733759702, "heat_socio_layer": 7.8286872350392223, "heat_socio_public_layer": 0.89820139412160538 }, "geometry": { "type": "Point", "coordinates": [ -13166277.492895629256964, 4036510.750093805603683 ] } },
{ "type": "Feature", "properties": { "OBJECTID": 980, "stop_id": 19230, "route_count": 5, "route_stop": "MT078, MT014, MT076, MT033, MT070", "lat": 34.035211072109, "lon": -118.26540813718, "heat_layer": 5.397, "socioeconomic_layer": 3.5578625043066285, "heat_socio_layer": 8.9548625043066288, "heat_socio_public_layer": 1.0441535669944586 }, "geometry": { "type": "Point", "coordinates": [ -13165245.012289550155401, 4033530.993323077447712 ] } },
{ "type": "Feature", "properties": { "OBJECTID": 1501, "stop_id": 18988, "route_count": 2, "route_stop": "MT014, MT055", "lat": 34.026474061038002, "lon": -118.27227800591, "heat_layer": 5.8446987155767882, "socioeconomic_layer": 3.987309614581668, "heat_socio_layer": 9.8320083301584553, "heat_socio_public_layer": 0.89405697466256151 }, "geometry": { "type": "Point", "coordinates": [ -13166009.762578390538692, 4032357.399907297454774 ] } },
{ "type": "Feature", "properties": { "OBJECTID": 1146, "stop_id": 18991, "route_count": 2, "route_stop": "DAPIC, MT066", "lat": 34.052315186561003, "lon": -118.27218053071999, "heat_layer": 4.5979383586972657, "socioeconomic_layer": 4.0877877080921898, "heat_socio_layer": 8.6857260667894565, "heat_socio_public_layer": 0.98385532190949987 }, "geometry": { "type": "Point", "coordinates": [ -13165998.911689873784781, 4035828.842534158378839 ] } },
{ "type": "Feature", "properties": { "OBJECTID": 1169, "stop_id": 19022, "route_count": 4, "route_stop": "MT603, MT014, DA  D, MT055", "lat": 34.029184558042999, "lon": -118.27056402459, "heat_layer": 2.8998, "socioeconomic_layer": 3.7749837642375317, "heat_socio_layer": 6.6747837642375316, "heat_socio_public_layer": 0.89155796411414823 }, "geometry": { "type": "Point", "coordinates": [ -13165818.963050618767738, 4032721.472751379944384 ] } },
{ "type": "Feature", "properties": { "OBJECTID": 1739, "stop_id": 20119, "route_count": 2, "route_stop": "MT018, MT053", "lat": 34.043465959434002, "lon": -118.24713718417, "heat_layer": 3.0560249774978798, "socioeconomic_layer": 4.2547531985075135, "heat_socio_layer": 7.3107781760053934, "heat_socio_public_layer": 1.1903706361180963 }, "geometry": { "type": "Point", "coordinates": [ -13163211.099104167893529, 4034639.936830239370465 ] } },
{ "type": "Feature", "properties": { "OBJECTID": 1124, "stop_id": 20385, "route_count": 3, "route_stop": "MT081, MT090, MT094", "lat": 34.062760247531003, "lon": -118.23955403843, "heat_layer": 2.9112886157011562, "socioeconomic_layer": 4.2754707179407037, "heat_socio_layer": 7.1867593336418594, "heat_socio_public_layer": 0.8804151290646054 }, "geometry": { "type": "Point", "coordinates": [ -13162366.947181779891253, 4037232.310386332217604 ] } },
{ "type": "Feature", "properties": { "OBJECTID": 1042, "stop_id": 19187, "route_count": 3, "route_stop": "MT040, MT035, MT045", "lat": 34.031456756674999, "lon": -118.26574278011, "heat_layer": 4.6916984884202648, "socioeconomic_layer": 3.9732533263205476, "heat_socio_layer": 8.664951814740812, "heat_socio_public_layer": 0.82310835385628023 }, "geometry": { "type": "Point", "coordinates": [ -13165282.26457011513412, 4033026.682499269489199 ] } },
{ "type": "Feature", "properties": { "OBJECTID": 1143, "stop_id": 18734, "route_count": 2, "route_stop": "DAPIC, MT033", "lat": 34.041544164891, "lon": -118.27913673907, "heat_layer": 3.9423440912514005, "socioeconomic_layer": 4.0758100861847826, "heat_socio_layer": 8.018154177436184, "heat_socio_public_layer": 0.77699764223450718 }, "geometry": { "type": "Point", "coordinates": [ -13166773.273261249065399, 4034381.757516295649111 ] } },
{ "type": "Feature", "properties": { "OBJECTID": 1811, "stop_id": 19011, "route_count": 2, "route_stop": "MT051, DA  E", "lat": 34.053892026280998, "lon": -118.27115233569, "heat_layer": 4.4215737499436605, "socioeconomic_layer": 3.9675706184159227, "heat_socio_layer": 8.3891443683595828, "heat_socio_public_layer": 1.135814658954458 }, "geometry": { "type": "Point", "coordinates": [ -13165884.45354270003736, 4036040.706121823750436 ] } },
{ "type": "Feature", "properties": { "OBJECTID": 1150, "stop_id": 19129, "route_count": 2, "route_stop": "DAPIC, MT018", "lat": 34.056222574027998, "lon": -118.26729389211999, "heat_layer": 2.5087583095139108, "socioeconomic_layer": 4.2306168445151746, "heat_socio_layer": 6.7393751540290854, "heat_socio_public_layer": 0.68878349307288556 }, "geometry": { "type": "Point", "coordinates": [ -13165454.933569232001901, 4036353.844851277302951 ] } },
{ "type": "Feature", "properties": { "OBJECTID": 1155, "stop_id": 19221, "route_count": 2, "route_stop": "DAPIC, MT016", "lat": 34.059889341990001, "lon": -118.26554255668, "heat_layer": 2.163163716073889, "socioeconomic_layer": 4.2843434166948526, "heat_socio_layer": 6.4475071327687417, "heat_socio_public_layer": 0.83434469566768932 }, "geometry": { "type": "Point", "coordinates": [ -13165259.975799841806293, 4036846.539190154522657 ] } },
{ "type": "Feature", "properties": { "OBJECTID": 1123, "stop_id": 20348, "route_count": 3, "route_stop": "MT081, MT090, MT094", "lat": 34.060733226433001, "lon": -118.24048259384, "heat_layer": 1.9144, "socioeconomic_layer": 4.2907955447235571, "heat_socio_layer": 6.2051955447235567, "heat_socio_public_layer": 0.65221029791510154 }, "geometry": { "type": "Point", "coordinates": [ -13162470.313497196882963, 4036959.932826130650938 ] } },
{ "type": "Feature", "properties": { "OBJECTID": 1552, "stop_id": 20453, "route_count": 3, "route_stop": "MT076, MT030, DA  A", "lat": 34.049214091567997, "lon": -118.23914552319999, "heat_layer": 3.8496498792623717, "socioeconomic_layer": 3.9643409729622077, "heat_socio_layer": 7.8139908522245793, "heat_socio_public_layer": 0.77129380424519023 }, "geometry": { "type": "Point", "coordinates": [ -13162321.471474396064878, 4035412.192080318927765 ] } },
{ "type": "Feature", "properties": { "OBJECTID": 1818, "stop_id": 20125, "route_count": 2, "route_stop": "MT051, MT060", "lat": 34.040710579516997, "lon": -118.24678245859999, "heat_layer": 6.7343858654008564, "socioeconomic_layer": 3.4910617697892254, "heat_socio_layer": 10.225447635190083, "heat_socio_public_layer": 1.1054874729025508 }, "geometry": { "type": "Point", "coordinates": [ -13163171.611234346404672, 4034269.773118810728192 ] } },
{ "type": "Feature", "properties": { "OBJECTID": 1154, "stop_id": 19359, "route_count": 2, "route_stop": "DAPIC, MT016", "lat": 34.059042050579002, "lon": -118.2634664876, "heat_layer": 1.8188152592557305, "socioeconomic_layer": 4.2145757326218689, "heat_socio_layer": 6.0333909918775994, "heat_socio_public_layer": 0.80886534621949713 }, "geometry": { "type": "Point", "coordinates": [ -13165028.868847006931901, 4036732.688892218284309 ] } },
{ "type": "Feature", "properties": { "OBJECTID": 1968, "stop_id": 20491, "route_count": 2, "route_stop": "MT045, DA  B", "lat": 34.062331265201998, "lon": -118.23832458216999, "heat_layer": 2.9028309763316229, "socioeconomic_layer": 4.2756007343299851, "heat_socio_layer": 7.1784317106616076, "heat_socio_public_layer": 0.86633363571481736 }, "geometry": { "type": "Point", "coordinates": [ -13162230.084736963734031, 4037174.666061901021749 ] } },
{ "type": "Feature", "properties": { "OBJECTID": 1177, "stop_id": 18818, "route_count": 2, "route_stop": "MT603, MT002", "lat": 34.056459430087003, "lon": -118.27681275448001, "heat_layer": 3.8354551495534053, "socioeconomic_layer": 4.3694825918495637, "heat_socio_layer": 8.2049377414029685, "heat_socio_public_layer": 0.77042034691894767 }, "geometry": { "type": "Point", "coordinates": [ -13166514.56848007813096, 4036385.669957063626498 ] } },
{ "type": "Feature", "properties": { "OBJECTID": 981, "stop_id": 19305, "route_count": 3, "route_stop": "MT078, MT076, MT070", "lat": 34.036570975518998, "lon": -118.26428692064999, "heat_layer": 5.397, "socioeconomic_layer": 3.5578625043066285, "heat_socio_layer": 8.9548625043066288, "heat_socio_public_layer": 1.1735487948525956 }, "geometry": { "type": "Point", "coordinates": [ -13165120.199036361649632, 4033713.672347613144666 ] } },
{ "type": "Feature", "properties": { "OBJECTID": 1043, "stop_id": 19354, "route_count": 6, "route_stop": "MT040, MT035, MT004, MT033, DA  D, MT045", "lat": 34.034151669769003, "lon": -118.26357295643, "heat_layer": 5.397, "socioeconomic_layer": 3.5578625043066285, "heat_socio_layer": 8.9548625043066288, "heat_socio_public_layer": 1.192507441291921 }, "geometry": { "type": "Point", "coordinates": [ -13165040.720902945846319, 4033388.683343546465039 ] } },
{ "type": "Feature", "properties": { "OBJECTID": 1817, "stop_id": 19993, "route_count": 2, "route_stop": "MT051, MT060", "lat": 34.042442091550001, "lon": -118.24928304847001, "heat_layer": 5.31217529394495, "socioeconomic_layer": 3.5347823175150945, "heat_socio_layer": 8.846957611460045, "heat_socio_public_layer": 0.86128872239170418 }, "geometry": { "type": "Point", "coordinates": [ -13163449.975625358521938, 4034502.386794934049249 ] } },
{ "type": "Feature", "properties": { "OBJECTID": 1773, "stop_id": 20476, "route_count": 2, "route_stop": "MT018, MT720", "lat": 34.038163599628, "lon": -118.23843399127, "heat_layer": 6.5306593779110056, "socioeconomic_layer": 3.3359400702669411, "heat_socio_layer": 9.8665994481779471, "heat_socio_public_layer": 0.93626682143769924 }, "geometry": { "type": "Point", "coordinates": [ -13162242.264102265238762, 4033927.617014450952411 ] } }
]
}
