{
"type": "FeatureCollection",
"name": "optimized_shades_MILP_DTLA_10_150",
"crs": { "type": "name", "properties": { "name": "urn:ogc:def:crs:EPSG::3857" } },
"features": [
{ "type": "Feature", "properties": { "OBJECTID": 1039, "stop_id": 18997, "route_count": 2, "route_stop": "MT040, MT045", "lat": 34.022265491713, "lon": -118.27176599806, "heat_layer": 7.0072783506245013, "socioeconomic_layer": 4.0008813245214387, "heat_socio_layer": 11.00815967514594 }, "geometry": { "type": "Point", "coordinates": [ -13165952.766125245019794, 4031792.129649397451431 ] } },
{ "type": "Feature", "properties": { "OBJECTID": 1144, "stop_id": 18815, "route_count": 2, "route_stop": "DAPIC, MT030", "lat": 34.044635145834, "lon": -118.27690897756, "heat_layer": 3.6613185813181306, "socioeconomic_layer": 4.1296216334431586, "heat_socio_layer": 7.7909402147612887 }, "geometry": { "type": "Point", "coordinates": [ -13166525.279984347522259, 4034797.011500256601721 ] } },
{ "type": "Feature", "properties": { "OBJECTID": 1153, "stop_id": 19406, "route_count": 2, "route_stop": "DAPIC, MT016", "lat": 34.058301360493999, "lon": -118.26163510700999, "heat_layer": 0.4788397719817778, "socioeconomic_layer": 3.7557974804095342, "heat_socio_layer": 4.2346372523913116 }, "geometry": { "type": "Point", "coordinates": [ -13164825.000492276623845, 4036633.163515490014106 ] } },
{ "type": "Feature", "properties": { "OBJECTID": 1483, "stop_id": 20355, "route_count": 3, "route_stop": "MT720, MT053, MT018", "lat": 34.039026084268002, "lon": -118.23999441142, "heat_layer": 7.2614, "socioeconomic_layer": 4.5922241777298698, "heat_socio_layer": 11.85362417772987 }, "geometry": { "type": "Point", "coordinates": [ -13162415.969278786331415, 4034043.480298414360732 ] } },
{ "type": "Feature", "properties": { "OBJECTID": 1484, "stop_id": 20215, "route_count": 3, "route_stop": "MT720, MT053, MT018", "lat": 34.044203443980003, "lon": -118.24391431181, "heat_layer": 4.8984751726274967, "socioeconomic_layer": 4.1790219296419897, "heat_socio_layer": 9.0774971022694864 }, "geometry": { "type": "Point", "coordinates": [ -13162852.330594163388014, 4034739.014143196865916 ] } },
{ "type": "Feature", "properties": { "OBJECTID": 1718, "stop_id": 20167, "route_count": 3, "route_stop": "MT016, MT053, MT018", "lat": 34.044897494036, "lon": -118.24584081819, "heat_layer": 4.5371057452734931, "socioeconomic_layer": 4.1054353855032595, "heat_socio_layer": 8.6425411307767526 }, "geometry": { "type": "Point", "coordinates": [ -13163066.788303393870592, 4034832.257039438933134 ] } },
{ "type": "Feature", "properties": { "OBJECTID": 1740, "stop_id": 20227, "route_count": 2, "route_stop": "MT018, MT053", "lat": 34.041252817627999, "lon": -118.24362843895, "heat_layer": 7.2614, "socioeconomic_layer": 4.5922241777298698, "heat_socio_layer": 11.85362417772987 }, "geometry": { "type": "Point", "coordinates": [ -13162820.50737295486033, 4034342.617611710913479 ] } },
{ "type": "Feature", "properties": { "OBJECTID": 1763, "stop_id": 20359, "route_count": 2, "route_stop": "MT053, MT018", "lat": 34.041724809575001, "lon": -118.23983050619999, "heat_layer": 6.7057620889781404, "socioeconomic_layer": 4.5032085787473974, "heat_socio_layer": 11.208970667725538 }, "geometry": { "type": "Point", "coordinates": [ -13162397.723433157429099, 4034406.025584911927581 ] } },
{ "type": "Feature", "properties": { "OBJECTID": 1764, "stop_id": 20290, "route_count": 2, "route_stop": "MT053, MT018", "lat": 34.043033939588, "lon": -118.24200956897, "heat_layer": 5.5944507212349075, "socioeconomic_layer": 4.3251716862074963, "heat_socio_layer": 9.9196224074424038 }, "geometry": { "type": "Point", "coordinates": [ -13162640.295591123402119, 4034581.897552561946213 ] } },
{ "type": "Feature", "properties": { "OBJECTID": 1820, "stop_id": 19572, "route_count": 2, "route_stop": "MT051, DA  E", "lat": 34.027627705863999, "lon": -118.25745671823999, "heat_layer": 7.4568, "socioeconomic_layer": 4.4925893809188828, "heat_socio_layer": 11.949389380918884 }, "geometry": { "type": "Point", "coordinates": [ -13164359.86438206396997, 4032512.355584840290248 ] } }
]
}
