{
"type": "FeatureCollection",
"name": "optimized_shades_Random_Inglewood_20",
"crs": { "type": "name", "properties": { "name": "urn:ogc:def:crs:EPSG::3857" } },
"features": [
{ "type": "Feature", "properties": { "id": "902", "STOPNUM": 1559, "STOPNAME": "Manchester / Hillcrest", "LAT": 33.961673, "LONG": -118.349083, "LINE_DIR1": "115-E", "LINE_DIR2": "212-S", "LINE_DIR3": 0, "LINE_DIR4": 0, "LINE_DIR5": 0, "LINE_DIR6": 0, "LINE_DIR7": 0, "LINE_DIR8": 0, "LINE_DIR9": 0, "LINE_DIR10": 0, "LINE_DIR11": 0, "LINE_DIR12": 0, "LINE_DIR13": 0, "LINE_DIR14": 0, "layer_id": "bus_stops", "feature_name": "Bus Stop", "heat_layer": 2.5226110489955595, "socioeconomic_layer": 3.7627816841447146, "heat_socio_layer": 6.2853927331402737, "heat_socio_public_layer": 0.73667944311227707 }, "geometry": { "type": "Point", "coordinates": [ -13174559.655410869047046, 4023656.806738825514913 ] } },
{ "type": "Feature", "properties": { "id": "906", "STOPNUM": 1563, "STOPNAME": "Manchester / Market", "LAT": 33.961669, "LONG": -118.351615, "LINE_DIR1": "115-E", "LINE_DIR2": "212-S", "LINE_DIR3": 0, "LINE_DIR4": 0, "LINE_DIR5": 0, "LINE_DIR6": 0, "LINE_DIR7": 0, "LINE_DIR8": 0, "LINE_DIR9": 0, "LINE_DIR10": 0, "LINE_DIR11": 0, "LINE_DIR12": 0, "LINE_DIR13": 0, "LINE_DIR14": 0, "layer_id": "bus_stops", "feature_name": "Bus Stop", "heat_layer": 2.4744893168840596, "socioeconomic_layer": 3.7889614703368588, "heat_socio_layer": 6.2634507872209184, "heat_socio_public_layer": 0.98169870574706675 }, "geometry": { "type": "Point", "coordinates": [ -13174841.516361556947231, 4023656.269878678955138 ] } },
{ "type": "Feature", "properties": { "id": "1757", "STOPNUM": 2961, "STOPNAME": "Prairie / 107th", "LAT": 33.938692, "LONG": -118.343748, "LINE_DIR1": "212-N", "LINE_DIR2": null, "LINE_DIR3": 0, "LINE_DIR4": 0, "LINE_DIR5": 0, "LINE_DIR6": 0, "LINE_DIR7": 0, "LINE_DIR8": 0, "LINE_DIR9": 0, "LINE_DIR10": 0, "LINE_DIR11": 0, "LINE_DIR12": 0, "LINE_DIR13": 0, "LINE_DIR14": 0, "layer_id": "bus_stops", "feature_name": "Bus Stop", "heat_layer": 2.5958717651851182, "socioeconomic_layer": 3.6545526368374444, "heat_socio_layer": 6.2504244020225626, "heat_socio_public_layer": 0.74423204204839288 }, "geometry": { "type": "Point", "coordinates": [ -13173965.7659274879843, 4020572.827374778687954 ] } },
{ "type": "Feature", "properties": { "id": "2959", "STOPNUM": 4915, "STOPNAME": "Crenshaw / 90th", "LAT": 33.956629, "LONG": -118.326345, "LINE_DIR1": "210-N", "LINE_DIR2": null, "LINE_DIR3": 0, "LINE_DIR4": 0, "LINE_DIR5": 0, "LINE_DIR6": 0, "LINE_DIR7": 0, "LINE_DIR8": 0, "LINE_DIR9": 0, "LINE_DIR10": 0, "LINE_DIR11": 0, "LINE_DIR12": 0, "LINE_DIR13": 0, "LINE_DIR14": 0, "layer_id": "bus_stops", "feature_name": "Bus Stop", "heat_layer": -1.118552854492125, "socioeconomic_layer": 3.1592664335275562, "heat_socio_layer": 2.0407135790354314, "heat_socio_public_layer": 0.36130431638612526 }, "geometry": { "type": "Point", "coordinates": [ -13172028.472829211503267, 4022979.846146228257567 ] } },
{ "type": "Feature", "properties": { "id": "4853", "STOPNUM": 7825, "STOPNAME": "Manchester / Briarwood West", "LAT": 33.959857, "LONG": -118.335291, "LINE_DIR1": "115-E", "LINE_DIR2": null, "LINE_DIR3": 0, "LINE_DIR4": 0, "LINE_DIR5": 0, "LINE_DIR6": 0, "LINE_DIR7": 0, "LINE_DIR8": 0, "LINE_DIR9": 0, "LINE_DIR10": 0, "LINE_DIR11": 0, "LINE_DIR12": 0, "LINE_DIR13": 0, "LINE_DIR14": 0, "layer_id": "bus_stops", "feature_name": "Bus Stop", "heat_layer": -3.7312400490190294, "socioeconomic_layer": 3.196431402352784, "heat_socio_layer": -0.53480864666624539, "heat_socio_public_layer": 0.091956983297951919 }, "geometry": { "type": "Point", "coordinates": [ -13173024.336993848904967, 4023413.074827809818089 ] } },
{ "type": "Feature", "properties": { "id": "4854", "STOPNUM": 7826, "STOPNAME": "Manchester / Prairie", "LAT": 33.959698, "LONG": -118.344158, "LINE_DIR1": "115-E", "LINE_DIR2": "212-S", "LINE_DIR3": 0, "LINE_DIR4": 0, "LINE_DIR5": 0, "LINE_DIR6": 0, "LINE_DIR7": 0, "LINE_DIR8": 0, "LINE_DIR9": 0, "LINE_DIR10": 0, "LINE_DIR11": 0, "LINE_DIR12": 0, "LINE_DIR13": 0, "LINE_DIR14": 0, "layer_id": "bus_stops", "feature_name": "Bus Stop", "heat_layer": -0.79835438575323681, "socioeconomic_layer": 3.3159184367100893, "heat_socio_layer": 2.5175640509568527, "heat_socio_public_layer": 0.39431423957723782 }, "geometry": { "type": "Point", "coordinates": [ -13174011.406918711960316, 4023391.735111946705729 ] } },
{ "type": "Feature", "properties": { "id": "5647", "STOPNUM": 9181, "STOPNAME": "Centinela / Edgewood", "LAT": 33.976126, "LONG": -118.354885, "LINE_DIR1": "110-W", "LINE_DIR2": null, "LINE_DIR3": 0, "LINE_DIR4": 0, "LINE_DIR5": 0, "LINE_DIR6": 0, "LINE_DIR7": 0, "LINE_DIR8": 0, "LINE_DIR9": 0, "LINE_DIR10": 0, "LINE_DIR11": 0, "LINE_DIR12": 0, "LINE_DIR13": 0, "LINE_DIR14": 0, "layer_id": "bus_stops", "feature_name": "Bus Stop", "heat_layer": 2.2777429953267476, "socioeconomic_layer": 3.2723327407650395, "heat_socio_layer": 5.5500757360917872, "heat_socio_public_layer": 0.71143548840068793 }, "geometry": { "type": "Point", "coordinates": [ -13175205.531096450984478, 4025596.781538236420602 ] } },
{ "type": "Feature", "properties": { "id": "6037", "STOPNUM": 9956, "STOPNAME": "Florence / Prairie", "LAT": 33.971426, "LONG": -118.343962, "LINE_DIR1": "40-S", "LINE_DIR2": "111-W", "LINE_DIR3": 0, "LINE_DIR4": 0, "LINE_DIR5": 0, "LINE_DIR6": 0, "LINE_DIR7": 0, "LINE_DIR8": 0, "LINE_DIR9": 0, "LINE_DIR10": 0, "LINE_DIR11": 0, "LINE_DIR12": 0, "LINE_DIR13": 0, "LINE_DIR14": 0, "layer_id": "bus_stops", "feature_name": "Bus Stop", "heat_layer": -3.1878535338749834, "socioeconomic_layer": 3.1462007464333022, "heat_socio_layer": -0.041652787441681216, "heat_socio_public_layer": 0.14797582435811465 }, "geometry": { "type": "Point", "coordinates": [ -13173989.588298518210649, 4024965.881074219942093 ] } },
{ "type": "Feature", "properties": { "id": "7164", "STOPNUM": 12143, "STOPNAME": "La Brea / Plymouth", "LAT": 33.974727, "LONG": -118.357798, "LINE_DIR1": "212-S", "LINE_DIR2": null, "LINE_DIR3": 0, "LINE_DIR4": 0, "LINE_DIR5": 0, "LINE_DIR6": 0, "LINE_DIR7": 0, "LINE_DIR8": 0, "LINE_DIR9": 0, "LINE_DIR10": 0, "LINE_DIR11": 0, "LINE_DIR12": 0, "LINE_DIR13": 0, "LINE_DIR14": 0, "layer_id": "bus_stops", "feature_name": "Bus Stop", "heat_layer": 3.616138374263453, "socioeconomic_layer": 3.3573742841977188, "heat_socio_layer": 6.9735126584611713, "heat_socio_public_layer": 1.4020727689169239 }, "geometry": { "type": "Point", "coordinates": [ -13175529.804773133248091, 4025408.98432923713699 ] } },
{ "type": "Feature", "properties": { "id": "7841", "STOPNUM": 13368, "STOPNAME": "Crenshaw / 116th", "LAT": 33.92877, "LONG": -118.326649, "LINE_DIR1": "209-S", "LINE_DIR2": "210-S", "LINE_DIR3": 0, "LINE_DIR4": 0, "LINE_DIR5": 0, "LINE_DIR6": 0, "LINE_DIR7": 0, "LINE_DIR8": 0, "LINE_DIR9": 0, "LINE_DIR10": 0, "LINE_DIR11": 0, "LINE_DIR12": 0, "LINE_DIR13": 0, "LINE_DIR14": 0, "layer_id": "bus_stops", "feature_name": "Bus Stop", "heat_layer": 1.9056577116544475, "socioeconomic_layer": 3.1755773384004016, "heat_socio_layer": 5.0812350500548487, "heat_socio_public_layer": 0.67307644601381766 }, "geometry": { "type": "Point", "coordinates": [ -13172062.313954412937164, 4019241.582860589493066 ] } },
{ "type": "Feature", "properties": { "id": "8011", "STOPNUM": 13675, "STOPNAME": "La Tijera / Fairview", "LAT": 33.980042, "LONG": -118.369537, "LINE_DIR1": "102-W", "LINE_DIR2": null, "LINE_DIR3": 0, "LINE_DIR4": 0, "LINE_DIR5": 0, "LINE_DIR6": 0, "LINE_DIR7": 0, "LINE_DIR8": 0, "LINE_DIR9": 0, "LINE_DIR10": 0, "LINE_DIR11": 0, "LINE_DIR12": 0, "LINE_DIR13": 0, "LINE_DIR14": 0, "layer_id": "bus_stops", "feature_name": "Bus Stop", "heat_layer": 2.1063062042769607, "socioeconomic_layer": 2.994498603279955, "heat_socio_layer": 5.1008048075569157, "heat_socio_public_layer": 0.95513700190808748 }, "geometry": { "type": "Point", "coordinates": [ -13176836.584275554865599, 4026122.469071069266647 ] } },
{ "type": "Feature", "properties": { "id": "8096", "STOPNUM": 13826, "STOPNAME": "Prairie / 104th", "LAT": 33.941562, "LONG": -118.34406, "LINE_DIR1": "212-S", "LINE_DIR2": "211-S", "LINE_DIR3": 0, "LINE_DIR4": 0, "LINE_DIR5": 0, "LINE_DIR6": 0, "LINE_DIR7": 0, "LINE_DIR8": 0, "LINE_DIR9": 0, "LINE_DIR10": 0, "LINE_DIR11": 0, "LINE_DIR12": 0, "LINE_DIR13": 0, "LINE_DIR14": 0, "layer_id": "bus_stops", "feature_name": "Bus Stop", "heat_layer": 2.908874542376481, "socioeconomic_layer": 3.6694917644886895, "heat_socio_layer": 6.5783663068651705, "heat_socio_public_layer": 0.77650014649744126 }, "geometry": { "type": "Point", "coordinates": [ -13174000.497608613222837, 4020957.927027848083526 ] } },
{ "type": "Feature", "properties": { "id": "8194", "STOPNUM": 14001, "STOPNAME": "Van Ness / 83rd", "LAT": 33.96379, "LONG": -118.317868, "LINE_DIR1": "209-S", "LINE_DIR2": null, "LINE_DIR3": 0, "LINE_DIR4": 0, "LINE_DIR5": 0, "LINE_DIR6": 0, "LINE_DIR7": 0, "LINE_DIR8": 0, "LINE_DIR9": 0, "LINE_DIR10": 0, "LINE_DIR11": 0, "LINE_DIR12": 0, "LINE_DIR13": 0, "LINE_DIR14": 0, "layer_id": "bus_stops", "feature_name": "Bus Stop", "heat_layer": 0.30559788020839851, "socioeconomic_layer": 3.0709691659149803, "heat_socio_layer": 3.3765670461233785, "heat_socio_public_layer": 0.5081229646769353 }, "geometry": { "type": "Point", "coordinates": [ -13171084.81750575825572, 4023940.943514013662934 ] } },
{ "type": "Feature", "properties": { "id": "9369", "STOPNUM": 15856, "STOPNAME": "Arbor Vitae / La Cienega", "LAT": 33.95274, "LONG": -118.370205, "LINE_DIR1": "111-W", "LINE_DIR2": null, "LINE_DIR3": 0, "LINE_DIR4": 0, "LINE_DIR5": 0, "LINE_DIR6": 0, "LINE_DIR7": 0, "LINE_DIR8": 0, "LINE_DIR9": 0, "LINE_DIR10": 0, "LINE_DIR11": 0, "LINE_DIR12": 0, "LINE_DIR13": 0, "LINE_DIR14": 0, "layer_id": "bus_stops", "feature_name": "Bus Stop", "heat_layer": 0.70150198995712132, "socioeconomic_layer": 3.248163397583832, "heat_socio_layer": 3.9496653875409535, "heat_socio_public_layer": 0.54893753916669741 }, "geometry": { "type": "Point", "coordinates": [ -13176910.945695405825973, 4022457.926728909369558 ] } },
{ "type": "Feature", "properties": { "id": "9400", "STOPNUM": 15909, "STOPNAME": "Century / La Brea", "LAT": 33.945588, "LONG": -118.352445, "LINE_DIR1": "117-W", "LINE_DIR2": null, "LINE_DIR3": 0, "LINE_DIR4": 0, "LINE_DIR5": 0, "LINE_DIR6": 0, "LINE_DIR7": 0, "LINE_DIR8": 0, "LINE_DIR9": 0, "LINE_DIR10": 0, "LINE_DIR11": 0, "LINE_DIR12": 0, "LINE_DIR13": 0, "LINE_DIR14": 0, "layer_id": "bus_stops", "feature_name": "Bus Stop", "heat_layer": 4.4013515054195622, "socioeconomic_layer": 3.7660142166922599, "heat_socio_layer": 8.1673657221118212, "heat_socio_public_layer": 0.93036268715416226 }, "geometry": { "type": "Point", "coordinates": [ -13174933.911538917571306, 4021498.161871134769171 ] } },
{ "type": "Feature", "properties": { "id": "9520", "STOPNUM": 16118, "STOPNAME": "Manchester / Eucalyptus", "LAT": 33.961823, "LONG": -118.359864, "LINE_DIR1": "115-W", "LINE_DIR2": null, "LINE_DIR3": 0, "LINE_DIR4": 0, "LINE_DIR5": 0, "LINE_DIR6": 0, "LINE_DIR7": 0, "LINE_DIR8": 0, "LINE_DIR9": 0, "LINE_DIR10": 0, "LINE_DIR11": 0, "LINE_DIR12": 0, "LINE_DIR13": 0, "LINE_DIR14": 0, "layer_id": "bus_stops", "feature_name": "Bus Stop", "heat_layer": 2.8439783162220929, "socioeconomic_layer": 3.6367168949440738, "heat_socio_layer": 6.4806952111661662, "heat_socio_public_layer": 1.0391489357662604 }, "geometry": { "type": "Point", "coordinates": [ -13175759.790841113775969, 4023676.93901256704703 ] } },
{ "type": "Feature", "properties": { "id": "11394", "STOPNUM": 141033, "STOPNAME": "Prairie / Manchester", "LAT": 33.96015, "LONG": -118.343787, "LINE_DIR1": "211-N", "LINE_DIR2": null, "LINE_DIR3": 0, "LINE_DIR4": 0, "LINE_DIR5": 0, "LINE_DIR6": 0, "LINE_DIR7": 0, "LINE_DIR8": 0, "LINE_DIR9": 0, "LINE_DIR10": 0, "LINE_DIR11": 0, "LINE_DIR12": 0, "LINE_DIR13": 0, "LINE_DIR14": 0, "layer_id": "bus_stops", "feature_name": "Bus Stop", "heat_layer": -1.4512801258709558, "socioeconomic_layer": 3.303829917892724, "heat_socio_layer": 1.8525497920217682, "heat_socio_public_layer": 0.32700277298692743 }, "geometry": { "type": "Point", "coordinates": [ -13173970.107387628406286, 4023452.399062766693532 ] } },
{ "type": "Feature", "properties": { "id": "11413", "STOPNUM": 141075, "STOPNAME": "Eucalyptus / Arbor Vitae", "LAT": 33.952976, "LONG": -118.359328, "LINE_DIR1": "211-S", "LINE_DIR2": null, "LINE_DIR3": 0, "LINE_DIR4": 0, "LINE_DIR5": 0, "LINE_DIR6": 0, "LINE_DIR7": 0, "LINE_DIR8": 0, "LINE_DIR9": 0, "LINE_DIR10": 0, "LINE_DIR11": 0, "LINE_DIR12": 0, "LINE_DIR13": 0, "LINE_DIR14": 0, "layer_id": "bus_stops", "feature_name": "Bus Stop", "heat_layer": 3.8594798885131274, "socioeconomic_layer": 3.3182637883644466, "heat_socio_layer": 7.177743676877574, "heat_socio_public_layer": 1.1060434271452315 }, "geometry": { "type": "Point", "coordinates": [ -13175700.123594047501683, 4022489.598196787294 ] } },
{ "type": "Feature", "properties": { "id": "11414", "STOPNUM": 141076, "STOPNAME": "Eucalyptus / Spruce", "LAT": 33.955111, "LONG": -118.35936, "LINE_DIR1": "211-S", "LINE_DIR2": null, "LINE_DIR3": 0, "LINE_DIR4": 0, "LINE_DIR5": 0, "LINE_DIR6": 0, "LINE_DIR7": 0, "LINE_DIR8": 0, "LINE_DIR9": 0, "LINE_DIR10": 0, "LINE_DIR11": 0, "LINE_DIR12": 0, "LINE_DIR13": 0, "LINE_DIR14": 0, "layer_id": "bus_stops", "feature_name": "Bus Stop", "heat_layer": 4.0022622340133429, "socioeconomic_layer": 3.4866281132605716, "heat_socio_layer": 7.4888903472739141, "heat_socio_public_layer": 1.1239655692700965 }, "geometry": { "type": "Point", "coordinates": [ -13175703.685817752033472, 4022776.121611945796758 ] } },
{ "type": "Feature", "properties": { "id": "11787", "STOPNUM": 25400151, "STOPNAME": "Crenshaw / Century", "LAT": 33.945893, "LONG": -118.32631, "LINE_DIR1": "210-N", "LINE_DIR2": null, "LINE_DIR3": 0, "LINE_DIR4": 0, "LINE_DIR5": 0, "LINE_DIR6": 0, "LINE_DIR7": 0, "LINE_DIR8": 0, "LINE_DIR9": 0, "LINE_DIR10": 0, "LINE_DIR11": 0, "LINE_DIR12": 0, "LINE_DIR13": 0, "LINE_DIR14": 0, "layer_id": "bus_stops", "feature_name": "Bus Stop", "heat_layer": -0.56149427034634813, "socioeconomic_layer": 3.3050147332335609, "heat_socio_layer": 2.7435204628872127, "heat_socio_public_layer": 0.41873263935102123 }, "geometry": { "type": "Point", "coordinates": [ -13172024.576647035777569, 4021539.089794380124658 ] } }
]
}
