{
"type": "FeatureCollection",
"name": "optimized_shades_MILP_DTLA_20_200",
"crs": { "type": "name", "properties": { "name": "urn:ogc:def:crs:EPSG::3857" } },
"features": [
{ "type": "Feature", "properties": { "OBJECTID": 1039, "stop_id": 18997, "route_count": 2, "route_stop": "MT040, MT045", "lat": 34.022265491713, "lon": -118.27176599806, "heat_layer": 7.156466740942597, "socioeconomic_layer": 3.9969522144358076, "heat_socio_layer": 11.153418955378404, "heat_socio_public_layer": 1.1545812128902504 }, "geometry": { "type": "Point", "coordinates": [ -13165952.766125245019794, 4031792.129649397451431 ] } },
{ "type": "Feature", "properties": { "OBJECTID": 1112, "stop_id": 18907, "route_count": 4, "route_stop": "MT081, MT603, MT910, DA  F", "lat": 34.030750490658001, "lon": -118.27437119947, "heat_layer": 1.1140438738727492, "socioeconomic_layer": 4.1113344944578953, "heat_socio_layer": 5.2253783683306443, "heat_socio_public_layer": 0.94562572711985959 }, "geometry": { "type": "Point", "coordinates": [ -13166242.775819620117545, 4032931.813477199990302 ] } },
{ "type": "Feature", "properties": { "OBJECTID": 1124, "stop_id": 20385, "route_count": 3, "route_stop": "MT081, MT090, MT094", "lat": 34.062760247531003, "lon": -118.23955403843, "heat_layer": 2.911630029459146, "socioeconomic_layer": 4.2754654695040974, "heat_socio_layer": 7.1870954989632434, "heat_socio_public_layer": 0.87630431577526036 }, "geometry": { "type": "Point", "coordinates": [ -13162366.947181779891253, 4037232.310386332217604 ] } },
{ "type": "Feature", "properties": { "OBJECTID": 1125, "stop_id": 20468, "route_count": 4, "route_stop": "MT081, MT090, MT094, DA  B", "lat": 34.064440876143998, "lon": -118.23870369244, "heat_layer": 3.8206266543465692, "socioeconomic_layer": 4.2241380492419509, "heat_socio_layer": 8.0447647035885197, "heat_socio_public_layer": 0.93774283409683323 }, "geometry": { "type": "Point", "coordinates": [ -13162272.287099175155163, 4037458.146977577358484 ] } },
{ "type": "Feature", "properties": { "OBJECTID": 1144, "stop_id": 18815, "route_count": 2, "route_stop": "DAPIC, MT030", "lat": 34.044635145834, "lon": -118.27690897756, "heat_layer": 3.6803626946411057, "socioeconomic_layer": 4.1401205451773926, "heat_socio_layer": 7.8204832398184987, "heat_socio_public_layer": 1.2786553628344557 }, "geometry": { "type": "Point", "coordinates": [ -13166525.279984347522259, 4034797.011500256601721 ] } },
{ "type": "Feature", "properties": { "OBJECTID": 1145, "stop_id": 18925, "route_count": 2, "route_stop": "DAPIC, MT028", "lat": 34.049213795207002, "lon": -118.27419075956, "heat_layer": 2.0034655754290309, "socioeconomic_layer": 4.3366761349726843, "heat_socio_layer": 6.3401417104017153, "heat_socio_public_layer": 1.1572643097120197 }, "geometry": { "type": "Point", "coordinates": [ -13166222.689340719953179, 4035412.152263194322586 ] } },
{ "type": "Feature", "properties": { "OBJECTID": 1146, "stop_id": 18991, "route_count": 2, "route_stop": "DAPIC, MT066", "lat": 34.052315186561003, "lon": -118.27218053071999, "heat_layer": 4.5980359715556256, "socioeconomic_layer": 4.0873527490026573, "heat_socio_layer": 8.6853887205582829, "heat_socio_public_layer": 0.98122645035238676 }, "geometry": { "type": "Point", "coordinates": [ -13165998.911689873784781, 4035828.842534158378839 ] } },
{ "type": "Feature", "properties": { "OBJECTID": 1153, "stop_id": 19406, "route_count": 2, "route_stop": "DAPIC, MT016", "lat": 34.058301360493999, "lon": -118.26163510700999, "heat_layer": 0.47323502181573596, "socioeconomic_layer": 3.7526101860379177, "heat_socio_layer": 4.2258452078536539, "heat_socio_public_layer": 1.4300178890912116 }, "geometry": { "type": "Point", "coordinates": [ -13164825.000492276623845, 4036633.163515490014106 ] } },
{ "type": "Feature", "properties": { "OBJECTID": 1166, "stop_id": 19012, "route_count": 2, "route_stop": "DAPIC, MT018", "lat": 34.057879187034999, "lon": -118.27114875093, "heat_layer": 5.8149789552518927, "socioeconomic_layer": 4.4848650700830044, "heat_socio_layer": 10.299844025334897, "heat_socio_public_layer": 1.193770380345851 }, "geometry": { "type": "Point", "coordinates": [ -13165884.05448904260993, 4036576.437112408224493 ] } },
{ "type": "Feature", "properties": { "OBJECTID": 1178, "stop_id": 18867, "route_count": 2, "route_stop": "MT603, DA  E", "lat": 34.055926228243997, "lon": -118.27566208983001, "heat_layer": 4.8027167727214497, "socioeconomic_layer": 4.5004646789019453, "heat_socio_layer": 9.303181451623395, "heat_socio_public_layer": 0.98642801900475641 }, "geometry": { "type": "Point", "coordinates": [ -13166386.477077167481184, 4036314.026548541150987 ] } },
{ "type": "Feature", "properties": { "OBJECTID": 1484, "stop_id": 20215, "route_count": 3, "route_stop": "MT720, MT053, MT018", "lat": 34.044203443980003, "lon": -118.24391431181, "heat_layer": 4.9395421215928765, "socioeconomic_layer": 4.1813777945633532, "heat_socio_layer": 9.1209199161562289, "heat_socio_public_layer": 1.8360274026330845 }, "geometry": { "type": "Point", "coordinates": [ -13162852.330594163388014, 4034739.014143196865916 ] } },
{ "type": "Feature", "properties": { "OBJECTID": 1718, "stop_id": 20167, "route_count": 3, "route_stop": "MT016, MT053, MT018", "lat": 34.044897494036, "lon": -118.24584081819, "heat_layer": 4.4941855379737108, "socioeconomic_layer": 4.1023176567666724, "heat_socio_layer": 8.5965031947403823, "heat_socio_public_layer": 1.4736569437944538 }, "geometry": { "type": "Point", "coordinates": [ -13163066.788303393870592, 4034832.257039438933134 ] } },
{ "type": "Feature", "properties": { "OBJECTID": 1740, "stop_id": 20227, "route_count": 2, "route_stop": "MT018, MT053", "lat": 34.041252817627999, "lon": -118.24362843895, "heat_layer": 7.2614, "socioeconomic_layer": 4.5922241777298698, "heat_socio_layer": 11.85362417772987, "heat_socio_public_layer": 1.4537394553347958 }, "geometry": { "type": "Point", "coordinates": [ -13162820.50737295486033, 4034342.617611710913479 ] } },
{ "type": "Feature", "properties": { "OBJECTID": 1741, "stop_id": 20346, "route_count": 2, "route_stop": "MT018, MT720", "lat": 34.039341029018999, "lon": -118.24052674039, "heat_layer": 7.2614, "socioeconomic_layer": 4.5922241777298698, "heat_socio_layer": 11.85362417772987, "heat_socio_public_layer": 1.1400411842676159 }, "geometry": { "type": "Point", "coordinates": [ -13162475.227868661284447, 4034085.789210012648255 ] } },
{ "type": "Feature", "properties": { "OBJECTID": 1762, "stop_id": 20327, "route_count": 2, "route_stop": "MT053, MT060", "lat": 34.036770450637, "lon": -118.24119269033, "heat_layer": 7.4163093388078112, "socioeconomic_layer": 4.2330600804672134, "heat_socio_layer": 11.649369419275025, "heat_socio_public_layer": 0.99063110455196712 }, "geometry": { "type": "Point", "coordinates": [ -13162549.361076878383756, 4033740.468555814120919 ] } },
{ "type": "Feature", "properties": { "OBJECTID": 1763, "stop_id": 20359, "route_count": 2, "route_stop": "MT053, MT018", "lat": 34.041724809575001, "lon": -118.23983050619999, "heat_layer": 6.6762064847947356, "socioeconomic_layer": 4.4621754463632417, "heat_socio_layer": 11.138381931157976, "heat_socio_public_layer": 1.0951076408573825 }, "geometry": { "type": "Point", "coordinates": [ -13162397.723433157429099, 4034406.025584911927581 ] } },
{ "type": "Feature", "properties": { "OBJECTID": 1764, "stop_id": 20290, "route_count": 2, "route_stop": "MT053, MT018", "lat": 34.043033939588, "lon": -118.24200956897, "heat_layer": 5.5892322278929845, "socioeconomic_layer": 4.3243356609806307, "heat_socio_layer": 9.9135678888736152, "heat_socio_public_layer": 1.3853462546445732 }, "geometry": { "type": "Point", "coordinates": [ -13162640.295591123402119, 4034581.897552561946213 ] } },
{ "type": "Feature", "properties": { "OBJECTID": 1810, "stop_id": 18965, "route_count": 2, "route_stop": "MT051, DA  E", "lat": 34.054928241178999, "lon": -118.27346997431, "heat_layer": 4.891364079053969, "socioeconomic_layer": 4.2735780387779521, "heat_socio_layer": 9.1649421178319201, "heat_socio_public_layer": 1.509999540736231 }, "geometry": { "type": "Point", "coordinates": [ -13166142.451893720775843, 4036179.933708895463496 ] } },
{ "type": "Feature", "properties": { "OBJECTID": 1820, "stop_id": 19572, "route_count": 2, "route_stop": "MT051, DA  E", "lat": 34.027627705863999, "lon": -118.25745671823999, "heat_layer": 7.4568, "socioeconomic_layer": 4.4925893809188828, "heat_socio_layer": 11.949389380918884, "heat_socio_public_layer": 1.1570064516319185 }, "geometry": { "type": "Point", "coordinates": [ -13164359.86438206396997, 4032512.355584840290248 ] } },
{ "type": "Feature", "properties": { "OBJECTID": 1821, "stop_id": 19515, "route_count": 2, "route_stop": "MT051, DA  E", "lat": 34.025836405854001, "lon": -118.25859969463001, "heat_layer": 6.9296323183809632, "socioeconomic_layer": 4.2925013812440183, "heat_socio_layer": 11.222133699624981, "heat_socio_public_layer": 0.96025196049776551 }, "geometry": { "type": "Point", "coordinates": [ -13164487.099931791424751, 4032271.752014653291553 ] } }
]
}
