{
"type": "FeatureCollection",
"name": "optimized_shades_Greedy_DTLA_50_300",
"crs": { "type": "name", "properties": { "name": "urn:ogc:def:crs:EPSG::3857" } },
"features": [
{ "type": "Feature", "properties": { "OBJECTID": 1484, "stop_id": 20215, "route_count": 3, "route_stop": "MT720, MT053, MT018", "lat": 34.044203443980003, "lon": -118.24391431181, "heat_layer": 4.9837706719557726, "socioeconomic_layer": 4.1857445814464169, "heat_socio_layer": 9.1695152534021886, "heat_socio_public_layer": 1.8365934375545665 }, "geometry": { "type": "Point", "coordinates": [ -13162852.330594163388014, 4034739.014143196865916 ] } },
{ "type": "Feature", "properties": { "OBJECTID": 1740, "stop_id": 20227, "route_count": 2, "route_stop": "MT018, MT053", "lat": 34.041252817627999, "lon": -118.24362843895, "heat_layer": 7.0349160902836969, "socioeconomic_layer": 4.527966837429874, "heat_socio_layer": 11.56288292771357, "heat_socio_public_layer": 1.4391503060988804 }, "geometry": { "type": "Point", "coordinates": [ -13162820.50737295486033, 4034342.617611710913479 ] } },
{ "type": "Feature", "properties": { "OBJECTID": 1810, "stop_id": 18965, "route_count": 2, "route_stop": "MT051, DA  E", "lat": 34.054928241178999, "lon": -118.27346997431, "heat_layer": 5.0052096658944238, "socioeconomic_layer": 4.3098389242764048, "heat_socio_layer": 9.3150485901708286, "heat_socio_public_layer": 1.5149293997981634 }, "geometry": { "type": "Point", "coordinates": [ -13166142.451893720775843, 4036179.933708895463496 ] } },
{ "type": "Feature", "properties": { "OBJECTID": 1149, "stop_id": 19003, "route_count": 2, "route_stop": "DAPIC, MT018", "lat": 34.058021355576003, "lon": -118.27146945918, "heat_layer": 5.4021975394761821, "socioeconomic_layer": 4.4863192948633079, "heat_socio_layer": 9.8885168343394909, "heat_socio_public_layer": 1.1655015957700865 }, "geometry": { "type": "Point", "coordinates": [ -13165919.755568122491241, 4036595.539915935602039 ] } },
{ "type": "Feature", "properties": { "OBJECTID": 1820, "stop_id": 19572, "route_count": 2, "route_stop": "MT051, DA  E", "lat": 34.027627705863999, "lon": -118.25745671823999, "heat_layer": 7.438742456123828, "socioeconomic_layer": 4.4817184971209656, "heat_socio_layer": 11.920460953244794, "heat_socio_public_layer": 1.1557707849132546 }, "geometry": { "type": "Point", "coordinates": [ -13164359.86438206396997, 4032512.355584840290248 ] } },
{ "type": "Feature", "properties": { "OBJECTID": 1741, "stop_id": 20346, "route_count": 2, "route_stop": "MT018, MT720", "lat": 34.039341029018999, "lon": -118.24052674039, "heat_layer": 7.1577374352771352, "socioeconomic_layer": 4.4733292260021242, "heat_socio_layer": 11.631066661279259, "heat_socio_public_layer": 1.1332231128450756 }, "geometry": { "type": "Point", "coordinates": [ -13162475.227868661284447, 4034085.789210012648255 ] } },
{ "type": "Feature", "properties": { "OBJECTID": 1144, "stop_id": 18815, "route_count": 2, "route_stop": "DAPIC, MT030", "lat": 34.044635145834, "lon": -118.27690897756, "heat_layer": 3.6942739538696725, "socioeconomic_layer": 4.1367392783406958, "heat_socio_layer": 7.8310132322103687, "heat_socio_public_layer": 1.2762330994298354 }, "geometry": { "type": "Point", "coordinates": [ -13166525.279984347522259, 4034797.011500256601721 ] } },
{ "type": "Feature", "properties": { "OBJECTID": 1153, "stop_id": 19406, "route_count": 2, "route_stop": "DAPIC, MT016", "lat": 34.058301360493999, "lon": -118.26163510700999, "heat_layer": 0.50003125401812454, "socioeconomic_layer": 3.7609566047129035, "heat_socio_layer": 4.2609878587310277, "heat_socio_public_layer": 1.4256853814978483 }, "geometry": { "type": "Point", "coordinates": [ -13164825.000492276623845, 4036633.163515490014106 ] } },
{ "type": "Feature", "properties": { "OBJECTID": 1145, "stop_id": 18925, "route_count": 2, "route_stop": "DAPIC, MT028", "lat": 34.049213795207002, "lon": -118.27419075956, "heat_layer": 2.1868575928610503, "socioeconomic_layer": 4.3109390309980737, "heat_socio_layer": 6.4977966238591236, "heat_socio_public_layer": 1.1641402626848387 }, "geometry": { "type": "Point", "coordinates": [ -13166222.689340719953179, 4035412.152263194322586 ] } },
{ "type": "Feature", "properties": { "OBJECTID": 1739, "stop_id": 20119, "route_count": 2, "route_stop": "MT018, MT053", "lat": 34.043465959434002, "lon": -118.24713718417, "heat_layer": 3.3809828479101878, "socioeconomic_layer": 4.0947231101127954, "heat_socio_layer": 7.4757059580229832, "heat_socio_public_layer": 1.203094499254088 }, "geometry": { "type": "Point", "coordinates": [ -13163211.099104167893529, 4034639.936830239370465 ] } },
{ "type": "Feature", "properties": { "OBJECTID": 1039, "stop_id": 18997, "route_count": 2, "route_stop": "MT040, MT045", "lat": 34.022265491713, "lon": -118.27176599806, "heat_layer": 7.3772579844284234, "socioeconomic_layer": 3.9911373309871041, "heat_socio_layer": 11.368395315415528, "heat_socio_public_layer": 1.1682026116600768 }, "geometry": { "type": "Point", "coordinates": [ -13165952.766125245019794, 4031792.129649397451431 ] } },
{ "type": "Feature", "properties": { "OBJECTID": 1763, "stop_id": 20359, "route_count": 2, "route_stop": "MT053, MT018", "lat": 34.041724809575001, "lon": -118.23983050619999, "heat_layer": 6.3396375056068957, "socioeconomic_layer": 4.1516571683317931, "heat_socio_layer": 10.49129467393869, "heat_socio_public_layer": 1.0730559441706078 }, "geometry": { "type": "Point", "coordinates": [ -13162397.723433157429099, 4034406.025584911927581 ] } },
{ "type": "Feature", "properties": { "OBJECTID": 1762, "stop_id": 20327, "route_count": 2, "route_stop": "MT053, MT060", "lat": 34.036770450637, "lon": -118.24119269033, "heat_layer": 7.4154276120467326, "socioeconomic_layer": 4.2347011836217749, "heat_socio_layer": 11.650128795668508, "heat_socio_public_layer": 0.99044776579975302 }, "geometry": { "type": "Point", "coordinates": [ -13162549.361076878383756, 4033740.468555814120919 ] } },
{ "type": "Feature", "properties": { "OBJECTID": 1170, "stop_id": 18973, "route_count": 3, "route_stop": "MT603, MT910, MT950", "lat": 34.030181932578003, "lon": -118.27304916654001, "heat_layer": 2.0880478531246487, "socioeconomic_layer": 3.9092292740796966, "heat_socio_layer": 5.9972771272043452, "heat_socio_public_layer": 1.1171713242148293 }, "geometry": { "type": "Point", "coordinates": [ -13166095.607787042856216, 4032855.442616184707731 ] } },
{ "type": "Feature", "properties": { "OBJECTID": 1165, "stop_id": 19435, "route_count": 2, "route_stop": "DAPIC, MT016", "lat": 34.055785933149998, "lon": -118.26088772, "heat_layer": -0.87375300440798309, "socioeconomic_layer": 3.5705459154859729, "heat_socio_layer": 2.6967929110779898, "heat_socio_public_layer": 1.2648580100474596 }, "geometry": { "type": "Point", "coordinates": [ -13164741.801750898361206, 4036295.175940775312483 ] } },
{ "type": "Feature", "properties": { "OBJECTID": 1257, "stop_id": 18866, "route_count": 2, "route_stop": "MT802, MT805", "lat": 34.056926391123, "lon": -118.27568849568, "heat_layer": 3.1359093643250473, "socioeconomic_layer": 4.3295227528719895, "heat_socio_layer": 7.4654321171970368, "heat_socio_public_layer": 0.87073113421575898 }, "geometry": { "type": "Point", "coordinates": [ -13166389.416562942788005, 4036448.413321658503264 ] } },
{ "type": "Feature", "properties": { "OBJECTID": 1146, "stop_id": 18991, "route_count": 2, "route_stop": "DAPIC, MT066", "lat": 34.052315186561003, "lon": -118.27218053071999, "heat_layer": 4.3964831028166387, "socioeconomic_layer": 4.0939077992624471, "heat_socio_layer": 8.4903909020790849, "heat_socio_public_layer": 0.96595133190451543 }, "geometry": { "type": "Point", "coordinates": [ -13165998.911689873784781, 4035828.842534158378839 ] } },
{ "type": "Feature", "properties": { "OBJECTID": 1124, "stop_id": 20385, "route_count": 3, "route_stop": "MT081, MT090, MT094", "lat": 34.062760247531003, "lon": -118.23955403843, "heat_layer": 2.9109223685128369, "socioeconomic_layer": 4.2749317009482937, "heat_socio_layer": 7.185854069461131, "heat_socio_public_layer": 0.87230380535171514 }, "geometry": { "type": "Point", "coordinates": [ -13162366.947181779891253, 4037232.310386332217604 ] } },
{ "type": "Feature", "properties": { "OBJECTID": 1695, "stop_id": 18723, "route_count": 2, "route_stop": "MT002, MT028", "lat": 34.051726106794, "lon": -118.27984747001, "heat_layer": 4.6623033674412104, "socioeconomic_layer": 4.398841625118906, "heat_socio_layer": 9.0611449925601164, "heat_socio_public_layer": 0.81625375468660566 }, "geometry": { "type": "Point", "coordinates": [ -13166852.391467580571771, 4035749.695010797586292 ] } },
{ "type": "Feature", "properties": { "OBJECTID": 1168, "stop_id": 19120, "route_count": 3, "route_stop": "DAPIC, MT014, MT035", "lat": 34.032296254597, "lon": -118.26759702925, "heat_layer": 3.4617035376385514, "socioeconomic_layer": 3.8292865207506788, "heat_socio_layer": 7.2909900583892302, "heat_socio_public_layer": 1.0649604676498809 }, "geometry": { "type": "Point", "coordinates": [ -13165488.678640183061361, 4033139.448893908411264 ] } },
{ "type": "Feature", "properties": { "OBJECTID": 1043, "stop_id": 19354, "route_count": 6, "route_stop": "MT040, MT035, MT004, MT033, DA  D, MT045", "lat": 34.034151669769003, "lon": -118.26357295643, "heat_layer": 5.0639546980052046, "socioeconomic_layer": 3.586819422288039, "heat_socio_layer": 8.650774120293244, "heat_socio_public_layer": 1.1676659170486183 }, "geometry": { "type": "Point", "coordinates": [ -13165040.720902945846319, 4033388.683343546465039 ] } },
{ "type": "Feature", "properties": { "OBJECTID": 1040, "stop_id": 19059, "route_count": 2, "route_stop": "MT040, MT045", "lat": 34.025342107740002, "lon": -118.26975624693, "heat_layer": 6.7056907783076696, "socioeconomic_layer": 4.0730053396488177, "heat_socio_layer": 10.778696117956487, "heat_socio_public_layer": 0.94554172636255829 }, "geometry": { "type": "Point", "coordinates": [ -13165729.041652832180262, 4032205.359847676474601 ] } },
{ "type": "Feature", "properties": { "OBJECTID": 1156, "stop_id": 19034, "route_count": 2, "route_stop": "DAPIC, MT016", "lat": 34.061868472157002, "lon": -118.27019759282, "heat_layer": 4.4361429291505896, "socioeconomic_layer": 4.356775851458293, "heat_socio_layer": 8.7929187806088827, "heat_socio_public_layer": 0.80194426829922494 }, "geometry": { "type": "Point", "coordinates": [ -13165778.172052573412657, 4037112.478763583116233 ] } },
{ "type": "Feature", "properties": { "OBJECTID": 1155, "stop_id": 19221, "route_count": 2, "route_stop": "DAPIC, MT016", "lat": 34.059889341990001, "lon": -118.26554255668, "heat_layer": 2.1676415422166397, "socioeconomic_layer": 4.2928497913529338, "heat_socio_layer": 6.4604913335695731, "heat_socio_public_layer": 0.8252400131416785 }, "geometry": { "type": "Point", "coordinates": [ -13165259.975799841806293, 4036846.539190154522657 ] } },
{ "type": "Feature", "properties": { "OBJECTID": 981, "stop_id": 19305, "route_count": 3, "route_stop": "MT078, MT076, MT070", "lat": 34.036570975518998, "lon": -118.26428692064999, "heat_layer": 5.2911667725377578, "socioeconomic_layer": 3.5345425648879125, "heat_socio_layer": 8.8257093374256712, "heat_socio_public_layer": 1.163083295488561 }, "geometry": { "type": "Point", "coordinates": [ -13165120.199036361649632, 4033713.672347613144666 ] } },
{ "type": "Feature", "properties": { "OBJECTID": 1725, "stop_id": 20212, "route_count": 2, "route_stop": "MT066, MT053", "lat": 34.032029917416999, "lon": -118.24416267286, "heat_layer": 7.5664, "socioeconomic_layer": 3.8850682986319804, "heat_socio_layer": 11.45146829863198, "heat_socio_public_layer": 0.99999999936728601 }, "geometry": { "type": "Point", "coordinates": [ -13162879.978019781410694, 4033103.672766049392521 ] } },
{ "type": "Feature", "properties": { "OBJECTID": 1822, "stop_id": 19412, "route_count": 2, "route_stop": "MT051, MT055", "lat": 34.021571381373001, "lon": -118.26131238422001, "heat_layer": 6.0628723708593499, "socioeconomic_layer": 4.0825577664811297, "heat_socio_layer": 10.14543013734048, "heat_socio_public_layer": 0.9048697090970127 }, "geometry": { "type": "Point", "coordinates": [ -13164789.075155628845096, 4031698.90352718019858 ] } },
{ "type": "Feature", "properties": { "OBJECTID": 1666, "stop_id": 19014, "route_count": 2, "route_stop": "MT910, MT950", "lat": 34.033802903375999, "lon": -118.27092551569, "heat_layer": 2.8998, "socioeconomic_layer": 3.7749837642375317, "heat_socio_layer": 6.6747837642375316, "heat_socio_public_layer": 1.0251532838059945 }, "geometry": { "type": "Point", "coordinates": [ -13165859.204055795446038, 4033341.833790314383805 ] } },
{ "type": "Feature", "properties": { "OBJECTID": 1041, "stop_id": 19133, "route_count": 2, "route_stop": "MT040, MT045", "lat": 34.029412087349002, "lon": -118.26710594991, "heat_layer": 5.6873415634257389, "socioeconomic_layer": 4.0834190068811447, "heat_socio_layer": 9.7707605703068836, "heat_socio_public_layer": 0.88110935110677868 }, "geometry": { "type": "Point", "coordinates": [ -13165434.011938117444515, 4032752.034923374187201 ] } },
{ "type": "Feature", "properties": { "OBJECTID": 1818, "stop_id": 20125, "route_count": 2, "route_stop": "MT051, MT060", "lat": 34.040710579516997, "lon": -118.24678245859999, "heat_layer": 6.5430519911012297, "socioeconomic_layer": 3.5546524427147101, "heat_socio_layer": 10.09770443381594, "heat_socio_public_layer": 1.0919359060413159 }, "geometry": { "type": "Point", "coordinates": [ -13163171.611234346404672, 4034269.773118810728192 ] } },
{ "type": "Feature", "properties": { "OBJECTID": 1501, "stop_id": 18988, "route_count": 2, "route_stop": "MT014, MT055", "lat": 34.026474061038002, "lon": -118.27227800591, "heat_layer": 5.4495631394520885, "socioeconomic_layer": 3.9506131854297242, "heat_socio_layer": 9.4001763248818122, "heat_socio_public_layer": 0.86606477856004738 }, "geometry": { "type": "Point", "coordinates": [ -13166009.762578390538692, 4032357.399907297454774 ] } },
{ "type": "Feature", "properties": { "OBJECTID": 1636, "stop_id": 20351, "route_count": 3, "route_stop": "MT004, MT028, MT045", "lat": 34.058538208355998, "lon": -118.24021876422, "heat_layer": 1.465361144445682, "socioeconomic_layer": 4.1533005414231026, "heat_socio_layer": 5.6186616858687843, "heat_socio_public_layer": 0.772329309231919 }, "geometry": { "type": "Point", "coordinates": [ -13162440.944118242710829, 4036664.988300384953618 ] } },
{ "type": "Feature", "properties": { "OBJECTID": 1169, "stop_id": 19022, "route_count": 4, "route_stop": "MT603, MT014, DA  D, MT055", "lat": 34.029184558042999, "lon": -118.27056402459, "heat_layer": 3.3774338999330138, "socioeconomic_layer": 3.8278328875487579, "heat_socio_layer": 7.2052667874817722, "heat_socio_public_layer": 0.91367041523157133 }, "geometry": { "type": "Point", "coordinates": [ -13165818.963050618767738, 4032721.472751379944384 ] } },
{ "type": "Feature", "properties": { "OBJECTID": 1819, "stop_id": 19798, "route_count": 2, "route_stop": "MT051, DA  E", "lat": 34.032767989219998, "lon": -118.25402018547, "heat_layer": 7.4758, "socioeconomic_layer": 2.8409808997107788, "heat_socio_layer": 10.316780899710778, "heat_socio_public_layer": 1.3277507477025097 }, "geometry": { "type": "Point", "coordinates": [ -13163977.31130401417613, 4033202.815606727730483 ] } },
{ "type": "Feature", "properties": { "OBJECTID": 1143, "stop_id": 18734, "route_count": 2, "route_stop": "DAPIC, MT033", "lat": 34.041544164891, "lon": -118.27913673907, "heat_layer": 3.6256053627205467, "socioeconomic_layer": 4.0945230452050261, "heat_socio_layer": 7.7201284079255732, "heat_socio_public_layer": 0.75066042590417581 }, "geometry": { "type": "Point", "coordinates": [ -13166773.273261249065399, 4034381.757516295649111 ] } },
{ "type": "Feature", "properties": { "OBJECTID": 1160, "stop_id": 19200, "route_count": 2, "route_stop": "DAPIC, MT014", "lat": 34.064612534508001, "lon": -118.26571933676, "heat_layer": 3.1837490088244538, "socioeconomic_layer": 3.7761385997170853, "heat_socio_layer": 6.9598876085415391, "heat_socio_public_layer": 0.88951768610859039 }, "geometry": { "type": "Point", "coordinates": [ -13165279.654868330806494, 4037481.214039018377662 ] } },
{ "type": "Feature", "properties": { "OBJECTID": 1141, "stop_id": 18803, "route_count": 2, "route_stop": "DAPIC, MT035", "lat": 34.036903750706003, "lon": -118.27762934909001, "heat_layer": 1.8214718996791914, "socioeconomic_layer": 3.5619619323107035, "heat_socio_layer": 5.3834338319898949, "heat_socio_public_layer": 0.95030906802477411 }, "geometry": { "type": "Point", "coordinates": [ -13166605.471376249566674, 4033758.375267410185188 ] } },
{ "type": "Feature", "properties": { "OBJECTID": 1150, "stop_id": 19129, "route_count": 2, "route_stop": "DAPIC, MT018", "lat": 34.056222574027998, "lon": -118.26729389211999, "heat_layer": 2.3819982943213325, "socioeconomic_layer": 4.1776362785642318, "heat_socio_layer": 6.5596345728855638, "heat_socio_public_layer": 0.67197567205858222 }, "geometry": { "type": "Point", "coordinates": [ -13165454.933569232001901, 4036353.844851277302951 ] } },
{ "type": "Feature", "properties": { "OBJECTID": 1157, "stop_id": 18986, "route_count": 3, "route_stop": "DAPIC, MT002, MT016", "lat": 34.062951053992997, "lon": -118.27267737562001, "heat_layer": 1.6578605075120545, "socioeconomic_layer": 4.1182845556756913, "heat_socio_layer": 5.7761450631877462, "heat_socio_public_layer": 0.6261584642336665 }, "geometry": { "type": "Point", "coordinates": [ -13166054.220211148262024, 4037257.950020125601441 ] } },
{ "type": "Feature", "properties": { "OBJECTID": 1179, "stop_id": 18887, "route_count": 3, "route_stop": "MT603, MT002, MT018", "lat": 34.059533207373001, "lon": -118.27488159582001, "heat_layer": 1.3217874916302019, "socioeconomic_layer": 4.1120978416862828, "heat_socio_layer": 5.4338853333164847, "heat_socio_public_layer": 0.60489465575206258 }, "geometry": { "type": "Point", "coordinates": [ -13166299.59288140758872, 4036798.68534765439108 ] } },
{ "type": "Feature", "properties": { "OBJECTID": 1159, "stop_id": 19033, "route_count": 3, "route_stop": "DAPIC, MT014, MT002", "lat": 34.066679737180003, "lon": -118.27030888737001, "heat_layer": 1.8947226201592249, "socioeconomic_layer": 3.6429883479764307, "heat_socio_layer": 5.5377109681356558, "heat_socio_public_layer": 0.80308566364071876 }, "geometry": { "type": "Point", "coordinates": [ -13165790.561305208131671, 4037759.003713150043041 ] } },
{ "type": "Feature", "properties": { "OBJECTID": 1552, "stop_id": 20453, "route_count": 3, "route_stop": "MT076, MT030, DA  A", "lat": 34.049214091567997, "lon": -118.23914552319999, "heat_layer": 3.5391495290867332, "socioeconomic_layer": 3.6493348031276871, "heat_socio_layer": 7.1884843322144203, "heat_socio_public_layer": 0.74519024471845063 }, "geometry": { "type": "Point", "coordinates": [ -13162321.471474396064878, 4035412.192080318927765 ] } },
{ "type": "Feature", "properties": { "OBJECTID": 1662, "stop_id": 18884, "route_count": 2, "route_stop": "MT910, MT950", "lat": 34.027679815296999, "lon": -118.27494859017, "heat_layer": 1.7671693136356292, "socioeconomic_layer": 3.8899908582817333, "heat_socio_layer": 5.6571601719173623, "heat_socio_public_layer": 0.63307458486496881 }, "geometry": { "type": "Point", "coordinates": [ -13166307.050658334046602, 4032519.354887989815325 ] } },
{ "type": "Feature", "properties": { "OBJECTID": 1709, "stop_id": 19446, "route_count": 3, "route_stop": "MT010, MT033, MT055", "lat": 34.036351445328997, "lon": -118.26035513578, "heat_layer": 3.9057342482905515, "socioeconomic_layer": 3.2292679048508224, "heat_socio_layer": 7.1350021531413734, "heat_socio_public_layer": 0.92305954854613714 }, "geometry": { "type": "Point", "coordinates": [ -13164682.514746723696589, 4033684.182142477016896 ] } },
{ "type": "Feature", "properties": { "OBJECTID": 1812, "stop_id": 19116, "route_count": 3, "route_stop": "MT051, DA  E, DA  A", "lat": 34.052330674182002, "lon": -118.26771062678, "heat_layer": 2.5483482851525925, "socioeconomic_layer": 3.7396591884221793, "heat_socio_layer": 6.2880074735747717, "heat_socio_public_layer": 0.68250086800944076 }, "geometry": { "type": "Point", "coordinates": [ -13165501.32425937987864, 4035830.923425888177007 ] } },
{ "type": "Feature", "properties": { "OBJECTID": 1114, "stop_id": 19037, "route_count": 3, "route_stop": "MT081, MT033, DA  F", "lat": 34.037497933960999, "lon": -118.27007599331, "heat_layer": 2.1558043286547806, "socioeconomic_layer": 3.4126385091005167, "heat_socio_layer": 5.5684428377552972, "heat_socio_public_layer": 0.8152699514793792 }, "geometry": { "type": "Point", "coordinates": [ -13165764.635657038539648, 4033838.194534469861537 ] } },
{ "type": "Feature", "properties": { "OBJECTID": 1719, "stop_id": 20102, "route_count": 3, "route_stop": "MT016, MT053, MT018", "lat": 34.046042559546002, "lon": -118.24757393045, "heat_layer": 2.0662301224844901, "socioeconomic_layer": 3.4328879757049156, "heat_socio_layer": 5.4991180981894061, "heat_socio_public_layer": 0.80458016107542896 }, "geometry": { "type": "Point", "coordinates": [ -13163259.717477664351463, 4034986.093756841029972 ] } },
{ "type": "Feature", "properties": { "OBJECTID": 1052, "stop_id": 20535, "route_count": 4, "route_stop": "MT040, MT076, MT106, DA  B", "lat": 34.056469067523999, "lon": -118.23743959973, "heat_layer": 1.2198442070281845, "socioeconomic_layer": 3.5350051618077774, "heat_socio_layer": 4.7548493688359619, "heat_socio_public_layer": 0.75828956205247378 }, "geometry": { "type": "Point", "coordinates": [ -13162131.568942382931709, 4036386.964890785049647 ] } },
{ "type": "Feature", "properties": { "OBJECTID": 1181, "stop_id": 18785, "route_count": 2, "route_stop": "MT603, MT018", "lat": 34.061154351539003, "lon": -118.27852203315, "heat_layer": 0.24578452384260932, "socioeconomic_layer": 3.6265420311726162, "heat_socio_layer": 3.8723265550152255, "heat_socio_public_layer": 0.70696141258846168 }, "geometry": { "type": "Point", "coordinates": [ -13166704.844511248171329, 4037016.520269768312573 ] } },
{ "type": "Feature", "properties": { "OBJECTID": 1183, "stop_id": 18742, "route_count": 2, "route_stop": "MT603, MT016", "lat": 34.066250828428998, "lon": -118.27887579030001, "heat_layer": 3.7174659669301962, "socioeconomic_layer": 3.482752708149893, "heat_socio_layer": 7.2002186750800892, "heat_socio_public_layer": 0.75647257446300298 }, "geometry": { "type": "Point", "coordinates": [ -13166744.224577048793435, 4037701.366609828080982 ] } }
]
}
