{
"type": "FeatureCollection",
"name": "optimized_shades_MILP_DTLA_20_300",
"crs": { "type": "name", "properties": { "name": "urn:ogc:def:crs:EPSG::3857" } },
"features": [
{ "type": "Feature", "properties": { "OBJECTID": 991, "stop_id": 20354, "route_count": 2, "route_stop": "MT078, MT070", "lat": 34.057609632750001, "lon": -118.24011705292, "heat_layer": 1.9144, "index_right": 1425, "socioeconomic_layer": 4.2907955447235571, "heat_socio_layer": 6.2051955447235567, "heat_socio_public_layer": 0.82490271019531258 }, "geometry": { "type": "Point", "coordinates": [ -13162429.621668117120862, 4036540.217917898669839 ] } },
{ "type": "Feature", "properties": { "OBJECTID": 1039, "stop_id": 18997, "route_count": 2, "route_stop": "MT040, MT045", "lat": 34.022265491713, "lon": -118.27176599806, "heat_layer": 6.995, "index_right": 1823, "socioeconomic_layer": 4.0012046941292949, "heat_socio_layer": 10.996204694129295, "heat_socio_public_layer": 1.1450094103895756 }, "geometry": { "type": "Point", "coordinates": [ -13165952.766125245019794, 4031792.129649397451431 ] } },
{ "type": "Feature", "properties": { "OBJECTID": 1041, "stop_id": 19133, "route_count": 2, "route_stop": "MT040, MT045", "lat": 34.029412087349002, "lon": -118.26710594991, "heat_layer": 6.5238, "index_right": 1811, "socioeconomic_layer": 4.1759712630451817, "heat_socio_layer": 10.699771263045182, "heat_socio_public_layer": 0.9358447370435139 }, "geometry": { "type": "Point", "coordinates": [ -13165434.011938117444515, 4032752.034923374187201 ] } },
{ "type": "Feature", "properties": { "OBJECTID": 1043, "stop_id": 19354, "route_count": 6, "route_stop": "MT040, MT035, MT004, MT033, DA  D, MT045", "lat": 34.034151669769003, "lon": -118.26357295643, "heat_layer": 5.397, "index_right": 1808, "socioeconomic_layer": 3.5578625043066285, "heat_socio_layer": 8.9548625043066288, "heat_socio_public_layer": 1.192507441291921 }, "geometry": { "type": "Point", "coordinates": [ -13165040.720902945846319, 4033388.683343546465039 ] } },
{ "type": "Feature", "properties": { "OBJECTID": 1125, "stop_id": 20468, "route_count": 4, "route_stop": "MT081, MT090, MT094, DA  B", "lat": 34.064440876143998, "lon": -118.23870369244, "heat_layer": 3.9106, "index_right": 1427, "socioeconomic_layer": 4.2601086467671427, "heat_socio_layer": 8.1707086467671424, "heat_socio_public_layer": 0.94660419450638544 }, "geometry": { "type": "Point", "coordinates": [ -13162272.287099175155163, 4037458.146977577358484 ] } },
{ "type": "Feature", "properties": { "OBJECTID": 1140, "stop_id": 18861, "route_count": 2, "route_stop": "DAPIC, MT035", "lat": 34.036105450876001, "lon": -118.27585094758, "heat_layer": 1.58, "index_right": 1820, "socioeconomic_layer": 4.6002973851431905, "heat_socio_layer": 6.1802973851431906, "heat_socio_public_layer": 0.63163335591732717 }, "geometry": { "type": "Point", "coordinates": [ -13166407.500625729560852, 4033651.136997409164906 ] } },
{ "type": "Feature", "properties": { "OBJECTID": 1144, "stop_id": 18815, "route_count": 2, "route_stop": "DAPIC, MT030", "lat": 34.044635145834, "lon": -118.27690897756, "heat_layer": 5.174, "index_right": 1816, "socioeconomic_layer": 4.3236445329102189, "heat_socio_layer": 9.4976445329102184, "heat_socio_public_layer": 1.3740141712416634 }, "geometry": { "type": "Point", "coordinates": [ -13166525.279984347522259, 4034797.011500256601721 ] } },
{ "type": "Feature", "properties": { "OBJECTID": 1145, "stop_id": 18925, "route_count": 2, "route_stop": "DAPIC, MT028", "lat": 34.049213795207002, "lon": -118.27419075956, "heat_layer": 2.8174, "index_right": 1502, "socioeconomic_layer": 4.3621861962603683, "heat_socio_layer": 7.1795861962603684, "heat_socio_public_layer": 1.2122868403761216 }, "geometry": { "type": "Point", "coordinates": [ -13166222.689340719953179, 4035412.152263194322586 ] } },
{ "type": "Feature", "properties": { "OBJECTID": 1150, "stop_id": 19129, "route_count": 2, "route_stop": "DAPIC, MT018", "lat": 34.056222574027998, "lon": -118.26729389211999, "heat_layer": 2.823, "index_right": 1487, "socioeconomic_layer": 4.7619211667069266, "heat_socio_layer": 7.584921166706927, "heat_socio_public_layer": 0.7081200153169489 }, "geometry": { "type": "Point", "coordinates": [ -13165454.933569232001901, 4036353.844851277302951 ] } },
{ "type": "Feature", "properties": { "OBJECTID": 1153, "stop_id": 19406, "route_count": 2, "route_stop": "DAPIC, MT016", "lat": 34.058301360493999, "lon": -118.26163510700999, "heat_layer": 0.6536, "index_right": 1485, "socioeconomic_layer": 4.181205680169124, "heat_socio_layer": 4.8348056801691239, "heat_socio_public_layer": 1.4474127238994661 }, "geometry": { "type": "Point", "coordinates": [ -13164825.000492276623845, 4036633.163515490014106 ] } },
{ "type": "Feature", "properties": { "OBJECTID": 1156, "stop_id": 19034, "route_count": 2, "route_stop": "DAPIC, MT016", "lat": 34.061868472157002, "lon": -118.27019759282, "heat_layer": 6.719, "index_right": 1483, "socioeconomic_layer": 4.4870798736572794, "heat_socio_layer": 11.206079873657281, "heat_socio_public_layer": 0.94785615773121001 }, "geometry": { "type": "Point", "coordinates": [ -13165778.172052573412657, 4037112.478763583116233 ] } },
{ "type": "Feature", "properties": { "OBJECTID": 1170, "stop_id": 18973, "route_count": 3, "route_stop": "MT603, MT910, MT950", "lat": 34.030181932578003, "lon": -118.27304916654001, "heat_layer": 2.8998, "index_right": 1810, "socioeconomic_layer": 3.7749837642375321, "heat_socio_layer": 6.6747837642375316, "heat_socio_public_layer": 1.1766401267611164 }, "geometry": { "type": "Point", "coordinates": [ -13166095.607787042856216, 4032855.442616184707731 ] } },
{ "type": "Feature", "properties": { "OBJECTID": 1484, "stop_id": 20215, "route_count": 3, "route_stop": "MT720, MT053, MT018", "lat": 34.044203443980003, "lon": -118.24391431181, "heat_layer": 2.009, "index_right": 1420, "socioeconomic_layer": 4.2056171163205356, "heat_socio_layer": 6.2146171163205359, "heat_socio_public_layer": 1.6580314046237152 }, "geometry": { "type": "Point", "coordinates": [ -13162852.330594163388014, 4034739.014143196865916 ] } },
{ "type": "Feature", "properties": { "OBJECTID": 1695, "stop_id": 18723, "route_count": 2, "route_stop": "MT002, MT028", "lat": 34.051726106794, "lon": -118.27984747001, "heat_layer": 5.0372, "index_right": 1500, "socioeconomic_layer": 4.5491144189991699, "heat_socio_layer": 9.5863144189991694, "heat_socio_public_layer": 0.84436841535125506 }, "geometry": { "type": "Point", "coordinates": [ -13166852.391467580571771, 4035749.695010797586292 ] } },
{ "type": "Feature", "properties": { "OBJECTID": 1725, "stop_id": 20212, "route_count": 2, "route_stop": "MT066, MT053", "lat": 34.032029917416999, "lon": -118.24416267286, "heat_layer": 7.5664, "index_right": 1828, "socioeconomic_layer": 3.8850682986319809, "heat_socio_layer": 11.45146829863198, "heat_socio_public_layer": 0.99999999938466078 }, "geometry": { "type": "Point", "coordinates": [ -13162879.978019781410694, 4033103.672766049392521 ] } },
{ "type": "Feature", "properties": { "OBJECTID": 1741, "stop_id": 20346, "route_count": 2, "route_stop": "MT018, MT720", "lat": 34.039341029018999, "lon": -118.24052674039, "heat_layer": 7.2614, "index_right": 1422, "socioeconomic_layer": 4.5922241777298698, "heat_socio_layer": 11.85362417772987, "heat_socio_public_layer": 1.14031191852522 }, "geometry": { "type": "Point", "coordinates": [ -13162475.227868661284447, 4034085.789210012648255 ] } },
{ "type": "Feature", "properties": { "OBJECTID": 1810, "stop_id": 18965, "route_count": 2, "route_stop": "MT051, DA  E", "lat": 34.054928241178999, "lon": -118.27346997431, "heat_layer": 4.5814, "index_right": 1498, "socioeconomic_layer": 4.205270453721929, "heat_socio_layer": 8.7866704537219285, "heat_socio_public_layer": 1.4933007410845001 }, "geometry": { "type": "Point", "coordinates": [ -13166142.451893720775843, 4036179.933708895463496 ] } },
{ "type": "Feature", "properties": { "OBJECTID": 1819, "stop_id": 19798, "route_count": 2, "route_stop": "MT051, DA  E", "lat": 34.032767989219998, "lon": -118.25402018547, "heat_layer": 7.4758, "index_right": 1827, "socioeconomic_layer": 2.8409808997107788, "heat_socio_layer": 10.316780899710778, "heat_socio_public_layer": 1.3279081631703851 }, "geometry": { "type": "Point", "coordinates": [ -13163977.31130401417613, 4033202.815606727730483 ] } },
{ "type": "Feature", "properties": { "OBJECTID": 1820, "stop_id": 19572, "route_count": 2, "route_stop": "MT051, DA  E", "lat": 34.027627705863999, "lon": -118.25745671823999, "heat_layer": 7.4568, "index_right": 1826, "socioeconomic_layer": 4.4925893809188828, "heat_socio_layer": 11.949389380918884, "heat_socio_public_layer": 1.1571037384396821 }, "geometry": { "type": "Point", "coordinates": [ -13164359.86438206396997, 4032512.355584840290248 ] } },
{ "type": "Feature", "properties": { "OBJECTID": 1822, "stop_id": 19412, "route_count": 2, "route_stop": "MT051, MT055", "lat": 34.021571381373001, "lon": -118.26131238422001, "heat_layer": 6.601, "index_right": 1830, "socioeconomic_layer": 4.0418143881437949, "heat_socio_layer": 10.642814388143794, "heat_socio_public_layer": 0.94059515547122974 }, "geometry": { "type": "Point", "coordinates": [ -13164789.075155628845096, 4031698.90352718019858 ] } }
]
}
