{
"type": "FeatureCollection",
"name": "optimized_shades_MILP_DTLA_50_300",
"crs": { "type": "name", "properties": { "name": "urn:ogc:def:crs:EPSG::3857" } },
"features": [
{ "type": "Feature", "properties": { "OBJECTID": 991, "stop_id": 20354, "route_count": 2, "route_stop": "MT078, MT070", "lat": 34.057609632750001, "lon": -118.24011705292, "heat_layer": 1.9144, "index_right": 1425, "socioeconomic_layer": 4.2907955447235571, "heat_socio_layer": 6.2051955447235567, "heat_socio_public_layer": 0.82490271019531258 }, "geometry": { "type": "Point", "coordinates": [ -13162429.621668117120862, 4036540.217917898669839 ] } },
{ "type": "Feature", "properties": { "OBJECTID": 1016, "stop_id": 19304, "route_count": 5, "route_stop": "MT078, MT014, MT076, MT030, MT070", "lat": 34.038881904618997, "lon": -118.26429752009, "heat_layer": 5.397, "index_right": 1808, "socioeconomic_layer": 3.5578625043066285, "heat_socio_layer": 8.9548625043066288, "heat_socio_public_layer": 0.86650831885244894 }, "geometry": { "type": "Point", "coordinates": [ -13165121.378960624337196, 4034024.111607572529465 ] } },
{ "type": "Feature", "properties": { "OBJECTID": 1039, "stop_id": 18997, "route_count": 2, "route_stop": "MT040, MT045", "lat": 34.022265491713, "lon": -118.27176599806, "heat_layer": 6.995, "index_right": 1823, "socioeconomic_layer": 4.0012046941292949, "heat_socio_layer": 10.996204694129295, "heat_socio_public_layer": 1.1450094103895756 }, "geometry": { "type": "Point", "coordinates": [ -13165952.766125245019794, 4031792.129649397451431 ] } },
{ "type": "Feature", "properties": { "OBJECTID": 1041, "stop_id": 19133, "route_count": 2, "route_stop": "MT040, MT045", "lat": 34.029412087349002, "lon": -118.26710594991, "heat_layer": 6.5238, "index_right": 1811, "socioeconomic_layer": 4.1759712630451817, "heat_socio_layer": 10.699771263045182, "heat_socio_public_layer": 0.9358447370435139 }, "geometry": { "type": "Point", "coordinates": [ -13165434.011938117444515, 4032752.034923374187201 ] } },
{ "type": "Feature", "properties": { "OBJECTID": 1043, "stop_id": 19354, "route_count": 6, "route_stop": "MT040, MT035, MT004, MT033, DA  D, MT045", "lat": 34.034151669769003, "lon": -118.26357295643, "heat_layer": 5.397, "index_right": 1808, "socioeconomic_layer": 3.5578625043066285, "heat_socio_layer": 8.9548625043066288, "heat_socio_public_layer": 1.192507441291921 }, "geometry": { "type": "Point", "coordinates": [ -13165040.720902945846319, 4033388.683343546465039 ] } },
{ "type": "Feature", "properties": { "OBJECTID": 1053, "stop_id": 20693, "route_count": 3, "route_stop": "MT040, MT033, DA  D", "lat": 34.055191666009001, "lon": -118.23302529641001, "heat_layer": 0.563, "index_right": 1408, "socioeconomic_layer": 2.7759465506022822, "heat_socio_layer": 3.338946550602282, "heat_socio_public_layer": 0.56905336186309119 }, "geometry": { "type": "Point", "coordinates": [ -13161640.170944595709443, 4036215.328186116646975 ] } },
{ "type": "Feature", "properties": { "OBJECTID": 1110, "stop_id": 18793, "route_count": 2, "route_stop": "MT081, DA  F", "lat": 34.025048598205998, "lon": -118.27800915077999, "heat_layer": 0.8752, "index_right": 1825, "socioeconomic_layer": 3.700850923195929, "heat_socio_layer": 4.576050923195929, "heat_socio_public_layer": 0.58826425089330991 }, "geometry": { "type": "Point", "coordinates": [ -13166647.750706981867552, 4032165.936991329304874 ] } },
{ "type": "Feature", "properties": { "OBJECTID": 1112, "stop_id": 18907, "route_count": 4, "route_stop": "MT081, MT603, MT910, DA  F", "lat": 34.030750490658001, "lon": -118.27437119947, "heat_layer": -1.5528, "index_right": 1821, "socioeconomic_layer": 4.3877959607664865, "heat_socio_layer": 2.8349959607664865, "heat_socio_public_layer": 0.78725183136562293 }, "geometry": { "type": "Point", "coordinates": [ -13166242.775819620117545, 4032931.813477199990302 ] } },
{ "type": "Feature", "properties": { "OBJECTID": 1114, "stop_id": 19037, "route_count": 3, "route_stop": "MT081, MT033, DA  F", "lat": 34.037497933960999, "lon": -118.27007599331, "heat_layer": 1.8752, "index_right": 1809, "socioeconomic_layer": 3.2906005355624188, "heat_socio_layer": 5.1658005355624184, "heat_socio_public_layer": 0.80740405548278726 }, "geometry": { "type": "Point", "coordinates": [ -13165764.635657038539648, 4033838.194534469861537 ] } },
{ "type": "Feature", "properties": { "OBJECTID": 1121, "stop_id": 20024, "route_count": 5, "route_stop": "MT081, MT004, MT010, MT094, MT028", "lat": 34.051669780076999, "lon": -118.24910586359, "heat_layer": -4.0374, "index_right": 1440, "socioeconomic_layer": 4.6396840073877597, "heat_socio_layer": 0.60228400738775978, "heat_socio_public_layer": 0.44708314305858587 }, "geometry": { "type": "Point", "coordinates": [ -13163430.251494739204645, 4035742.127099914010614 ] } },
{ "type": "Feature", "properties": { "OBJECTID": 1124, "stop_id": 20385, "route_count": 3, "route_stop": "MT081, MT090, MT094", "lat": 34.062760247531003, "lon": -118.23955403843, "heat_layer": 1.9144, "index_right": 1425, "socioeconomic_layer": 4.2907955447235571, "heat_socio_layer": 6.2051955447235567, "heat_socio_public_layer": 0.81907266727176975 }, "geometry": { "type": "Point", "coordinates": [ -13162366.947181779891253, 4037232.310386332217604 ] } },
{ "type": "Feature", "properties": { "OBJECTID": 1140, "stop_id": 18861, "route_count": 2, "route_stop": "DAPIC, MT035", "lat": 34.036105450876001, "lon": -118.27585094758, "heat_layer": 1.58, "index_right": 1820, "socioeconomic_layer": 4.6002973851431905, "heat_socio_layer": 6.1802973851431906, "heat_socio_public_layer": 0.63163335591732717 }, "geometry": { "type": "Point", "coordinates": [ -13166407.500625729560852, 4033651.136997409164906 ] } },
{ "type": "Feature", "properties": { "OBJECTID": 1144, "stop_id": 18815, "route_count": 2, "route_stop": "DAPIC, MT030", "lat": 34.044635145834, "lon": -118.27690897756, "heat_layer": 5.174, "index_right": 1816, "socioeconomic_layer": 4.3236445329102189, "heat_socio_layer": 9.4976445329102184, "heat_socio_public_layer": 1.3740141712416634 }, "geometry": { "type": "Point", "coordinates": [ -13166525.279984347522259, 4034797.011500256601721 ] } },
{ "type": "Feature", "properties": { "OBJECTID": 1145, "stop_id": 18925, "route_count": 2, "route_stop": "DAPIC, MT028", "lat": 34.049213795207002, "lon": -118.27419075956, "heat_layer": 2.8174, "index_right": 1502, "socioeconomic_layer": 4.3621861962603683, "heat_socio_layer": 7.1795861962603684, "heat_socio_public_layer": 1.2122868403761216 }, "geometry": { "type": "Point", "coordinates": [ -13166222.689340719953179, 4035412.152263194322586 ] } },
{ "type": "Feature", "properties": { "OBJECTID": 1149, "stop_id": 19003, "route_count": 2, "route_stop": "DAPIC, MT018", "lat": 34.058021355576003, "lon": -118.27146945918, "heat_layer": 3.797, "index_right": 1478, "socioeconomic_layer": 4.5109568252363301, "heat_socio_layer": 8.3079568252363298, "heat_socio_public_layer": 1.0704877557082755 }, "geometry": { "type": "Point", "coordinates": [ -13165919.755568122491241, 4036595.539915935602039 ] } },
{ "type": "Feature", "properties": { "OBJECTID": 1155, "stop_id": 19221, "route_count": 2, "route_stop": "DAPIC, MT016", "lat": 34.059889341990001, "lon": -118.26554255668, "heat_layer": 2.9368, "index_right": 1452, "socioeconomic_layer": 4.2227950844664406, "heat_socio_layer": 7.1595950844664404, "heat_socio_public_layer": 0.88194956690489412 }, "geometry": { "type": "Point", "coordinates": [ -13165259.975799841806293, 4036846.539190154522657 ] } },
{ "type": "Feature", "properties": { "OBJECTID": 1157, "stop_id": 18986, "route_count": 3, "route_stop": "DAPIC, MT002, MT016", "lat": 34.062951053992997, "lon": -118.27267737562001, "heat_layer": 3.0338, "index_right": 1481, "socioeconomic_layer": 4.3185886164257381, "heat_socio_layer": 7.3523886164257384, "heat_socio_public_layer": 0.72109136511698124 }, "geometry": { "type": "Point", "coordinates": [ -13166054.220211148262024, 4037257.950020125601441 ] } },
{ "type": "Feature", "properties": { "OBJECTID": 1160, "stop_id": 19200, "route_count": 2, "route_stop": "DAPIC, MT014", "lat": 34.064612534508001, "lon": -118.26571933676, "heat_layer": 3.5222, "index_right": 1453, "socioeconomic_layer": 3.3851919913826283, "heat_socio_layer": 6.907391991382628, "heat_socio_public_layer": 0.9179586584357976 }, "geometry": { "type": "Point", "coordinates": [ -13165279.654868330806494, 4037481.214039018377662 ] } },
{ "type": "Feature", "properties": { "OBJECTID": 1161, "stop_id": 19437, "route_count": 2, "route_stop": "DAPIC, MT010", "lat": 34.068126670551997, "lon": -118.26085356602, "heat_layer": -0.7708, "index_right": 1451, "socioeconomic_layer": 3.8650799580144048, "heat_socio_layer": 3.0942799580144049, "heat_socio_public_layer": 0.48697942275833206 }, "geometry": { "type": "Point", "coordinates": [ -13164737.999747237190604, 4037953.44593712547794 ] } },
{ "type": "Feature", "properties": { "OBJECTID": 1163, "stop_id": 19583, "route_count": 2, "route_stop": "DAPIC, MT004", "lat": 34.076756997429001, "lon": -118.25734706454, "heat_layer": -0.5886, "index_right": 1288, "socioeconomic_layer": 2.7996481684560739, "heat_socio_layer": 2.2110481684560739, "heat_socio_public_layer": 0.65193142825612194 }, "geometry": { "type": "Point", "coordinates": [ -13164347.657788019627333, 4039113.278028688393533 ] } },
{ "type": "Feature", "properties": { "OBJECTID": 1164, "stop_id": 19764, "route_count": 2, "route_stop": "DAPIC, MT010", "lat": 34.066675342202998, "lon": -118.25462833471001, "heat_layer": -0.7708, "index_right": 1451, "socioeconomic_layer": 3.8650799580144048, "heat_socio_layer": 3.0942799580144049, "heat_socio_public_layer": 0.65634564859588929 }, "geometry": { "type": "Point", "coordinates": [ -13164045.010167738422751, 4037758.413111120928079 ] } },
{ "type": "Feature", "properties": { "OBJECTID": 1165, "stop_id": 19435, "route_count": 2, "route_stop": "DAPIC, MT016", "lat": 34.055785933149998, "lon": -118.26088772, "heat_layer": -0.9524, "index_right": 1490, "socioeconomic_layer": 3.5458646948496546, "heat_socio_layer": 2.5934646948496547, "heat_socio_public_layer": 1.2746831272468311 }, "geometry": { "type": "Point", "coordinates": [ -13164741.801750898361206, 4036295.175940775312483 ] } },
{ "type": "Feature", "properties": { "OBJECTID": 1177, "stop_id": 18818, "route_count": 2, "route_stop": "MT603, MT002", "lat": 34.056459430087003, "lon": -118.27681275448001, "heat_layer": 3.0338, "index_right": 1481, "socioeconomic_layer": 4.3185886164257381, "heat_socio_layer": 7.3523886164257384, "heat_socio_public_layer": 0.72109136511698124 }, "geometry": { "type": "Point", "coordinates": [ -13166514.56848007813096, 4036385.669957063626498 ] } },
{ "type": "Feature", "properties": { "OBJECTID": 1181, "stop_id": 18785, "route_count": 2, "route_stop": "MT603, MT018", "lat": 34.061154351539003, "lon": -118.27852203315, "heat_layer": -0.9882, "index_right": 1474, "socioeconomic_layer": 3.8429294959525881, "heat_socio_layer": 2.8547294959525882, "heat_socio_public_layer": 0.64374891455913363 }, "geometry": { "type": "Point", "coordinates": [ -13166704.844511248171329, 4037016.520269768312573 ] } },
{ "type": "Feature", "properties": { "OBJECTID": 1183, "stop_id": 18742, "route_count": 2, "route_stop": "MT603, MT016", "lat": 34.066250828428998, "lon": -118.27887579030001, "heat_layer": 4.6246, "index_right": 1469, "socioeconomic_layer": 3.3595049139848268, "heat_socio_layer": 7.9841049139848268, "heat_socio_public_layer": 0.81897952100830751 }, "geometry": { "type": "Point", "coordinates": [ -13166744.224577048793435, 4037701.366609828080982 ] } },
{ "type": "Feature", "properties": { "OBJECTID": 1184, "stop_id": 18889, "route_count": 2, "route_stop": "MT603, MT010", "lat": 34.072533381386997, "lon": -118.27487478635, "heat_layer": 2.0218, "index_right": 1267, "socioeconomic_layer": 3.1803655974982648, "heat_socio_layer": 5.202165597498265, "heat_socio_public_layer": 0.65881904065003261 }, "geometry": { "type": "Point", "coordinates": [ -13166298.834854671731591, 4038545.650300251320004 ] } },
{ "type": "Feature", "properties": { "OBJECTID": 1185, "stop_id": 19093, "route_count": 3, "route_stop": "MT603, MT004, MT002", "lat": 34.079509704826002, "lon": -118.26899968334, "heat_layer": 1.6512, "index_right": 1261, "socioeconomic_layer": 2.9690946177193887, "heat_socio_layer": 4.6202946177193889, "heat_socio_public_layer": 0.63601457084029822 }, "geometry": { "type": "Point", "coordinates": [ -13165644.821379240602255, 4039483.240018593613058 ] } },
{ "type": "Feature", "properties": { "OBJECTID": 1187, "stop_id": 19361, "route_count": 3, "route_stop": "MT603, MT004, MT002", "lat": 34.077614903078, "lon": -118.26345564354, "heat_layer": 1.5778, "index_right": 1264, "socioeconomic_layer": 3.2960642885673854, "heat_socio_layer": 4.8738642885673853, "heat_socio_public_layer": 0.79262783882480514 }, "geometry": { "type": "Point", "coordinates": [ -13165027.661691768094897, 4039228.578670911490917 ] } },
{ "type": "Feature", "properties": { "OBJECTID": 1501, "stop_id": 18988, "route_count": 2, "route_stop": "MT014, MT055", "lat": 34.026474061038002, "lon": -118.27227800591, "heat_layer": 6.995, "index_right": 1823, "socioeconomic_layer": 4.0012046941292949, "heat_socio_layer": 10.996204694129295, "heat_socio_public_layer": 0.96483951894946873 }, "geometry": { "type": "Point", "coordinates": [ -13166009.762578390538692, 4032357.399907297454774 ] } },
{ "type": "Feature", "properties": { "OBJECTID": 1549, "stop_id": 19485, "route_count": 2, "route_stop": "FZ707, MT066", "lat": 34.044424193292997, "lon": -118.25929753216001, "heat_layer": 2.222, "index_right": 1447, "socioeconomic_layer": 2.8582636218966657, "heat_socio_layer": 5.0802636218966661, "heat_socio_public_layer": 1.0116643430106971 }, "geometry": { "type": "Point", "coordinates": [ -13164564.782850287854671, 4034768.670862720813602 ] } },
{ "type": "Feature", "properties": { "OBJECTID": 1551, "stop_id": 20338, "route_count": 4, "route_stop": "MT076, MT030, MT106, DA  A", "lat": 34.050378494927998, "lon": -118.24087538742, "heat_layer": 3.886, "index_right": 1418, "socioeconomic_layer": 4.0514704839207818, "heat_socio_layer": 7.9374704839207819, "heat_socio_public_layer": 0.77353056957422806 }, "geometry": { "type": "Point", "coordinates": [ -13162514.039078509435058, 4035568.634771809447557 ] } },
{ "type": "Feature", "properties": { "OBJECTID": 1627, "stop_id": 20156, "route_count": 3, "route_stop": "MT004, MT055, MT060", "lat": 34.062677990605003, "lon": -118.24629587781, "heat_layer": 2.6026, "index_right": 1423, "socioeconomic_layer": 3.6099212279158577, "heat_socio_layer": 6.2125212279158575, "heat_socio_public_layer": 0.85812160274045124 }, "geometry": { "type": "Point", "coordinates": [ -13163117.44530857168138, 4037221.257123042363673 ] } },
{ "type": "Feature", "properties": { "OBJECTID": 1694, "stop_id": 19111, "route_count": 2, "route_stop": "MT002, MT010", "lat": 34.070262577445, "lon": -118.26801236502, "heat_layer": 0.6584, "index_right": 1458, "socioeconomic_layer": 3.39339720313273, "heat_socio_layer": 4.0517972031327298, "heat_socio_public_layer": 0.57492369758853279 }, "geometry": { "type": "Point", "coordinates": [ -13165534.9136066082865, 4038240.480071374680847 ] } },
{ "type": "Feature", "properties": { "OBJECTID": 1695, "stop_id": 18723, "route_count": 2, "route_stop": "MT002, MT028", "lat": 34.051726106794, "lon": -118.27984747001, "heat_layer": 5.0372, "index_right": 1500, "socioeconomic_layer": 4.5491144189991699, "heat_socio_layer": 9.5863144189991694, "heat_socio_public_layer": 0.84436841535125506 }, "geometry": { "type": "Point", "coordinates": [ -13166852.391467580571771, 4035749.695010797586292 ] } },
{ "type": "Feature", "properties": { "OBJECTID": 1719, "stop_id": 20102, "route_count": 3, "route_stop": "MT016, MT053, MT018", "lat": 34.046042559546002, "lon": -118.24757393045, "heat_layer": 3.047, "index_right": 1419, "socioeconomic_layer": 4.2611475813781556, "heat_socio_layer": 7.3081475813781562, "heat_socio_public_layer": 0.87448719452121415 }, "geometry": { "type": "Point", "coordinates": [ -13163259.717477664351463, 4034986.093756841029972 ] } },
{ "type": "Feature", "properties": { "OBJECTID": 1721, "stop_id": 19662, "route_count": 7, "route_stop": "MT016, MT020, MT018, MT053, MT055, DA  A, DA  F", "lat": 34.051591967905999, "lon": -118.25609110872, "heat_layer": -8.6848, "index_right": 1441, "socioeconomic_layer": 3.8868018623141598, "heat_socio_layer": -4.7979981376858394, "heat_socio_public_layer": 0.15161329807704294 }, "geometry": { "type": "Point", "coordinates": [ -13164207.845425676554441, 4035731.672467701602727 ] } },
{ "type": "Feature", "properties": { "OBJECTID": 1724, "stop_id": 19950, "route_count": 2, "route_stop": "MT066, MT051", "lat": 34.037276685477998, "lon": -118.250333787, "heat_layer": 7.4758, "index_right": 1827, "socioeconomic_layer": 2.8409808997107788, "heat_socio_layer": 10.316780899710778, "heat_socio_public_layer": 0.99442502646301512 }, "geometry": { "type": "Point", "coordinates": [ -13163566.943303473293781, 4033808.473180959001184 ] } },
{ "type": "Feature", "properties": { "OBJECTID": 1725, "stop_id": 20212, "route_count": 2, "route_stop": "MT066, MT053", "lat": 34.032029917416999, "lon": -118.24416267286, "heat_layer": 7.5664, "index_right": 1828, "socioeconomic_layer": 3.8850682986319809, "heat_socio_layer": 11.45146829863198, "heat_socio_public_layer": 0.99999999938466078 }, "geometry": { "type": "Point", "coordinates": [ -13162879.978019781410694, 4033103.672766049392521 ] } },
{ "type": "Feature", "properties": { "OBJECTID": 1764, "stop_id": 20290, "route_count": 2, "route_stop": "MT053, MT018", "lat": 34.043033939588, "lon": -118.24200956897, "heat_layer": 7.2614, "index_right": 1422, "socioeconomic_layer": 4.5922241777298698, "heat_socio_layer": 11.85362417772987, "heat_socio_public_layer": 1.4899963277644854 }, "geometry": { "type": "Point", "coordinates": [ -13162640.295591123402119, 4034581.897552561946213 ] } },
{ "type": "Feature", "properties": { "OBJECTID": 1773, "stop_id": 20476, "route_count": 2, "route_stop": "MT018, MT720", "lat": 34.038163599628, "lon": -118.23843399127, "heat_layer": 7.2614, "index_right": 1422, "socioeconomic_layer": 4.5922241777298698, "heat_socio_layer": 11.85362417772987, "heat_socio_public_layer": 0.98123215456013579 }, "geometry": { "type": "Point", "coordinates": [ -13162242.264102265238762, 4033927.617014450952411 ] } },
{ "type": "Feature", "properties": { "OBJECTID": 1777, "stop_id": 20652, "route_count": 2, "route_stop": "MT030, DA  D", "lat": 34.050344213248003, "lon": -118.23456006519, "heat_layer": 3.2978, "index_right": 1412, "socioeconomic_layer": 2.6415830528515021, "heat_socio_layer": 5.9393830528515021, "heat_socio_public_layer": 0.73733631932575061 }, "geometry": { "type": "Point", "coordinates": [ -13161811.020623667165637, 4035564.028847252484411 ] } },
{ "type": "Feature", "properties": { "OBJECTID": 1782, "stop_id": 19530, "route_count": 3, "route_stop": "MT030, MT033, MT055", "lat": 34.039090326599002, "lon": -118.25813893681, "heat_layer": 2.222, "index_right": 1447, "socioeconomic_layer": 2.8582636218966657, "heat_socio_layer": 5.0802636218966661, "heat_socio_public_layer": 0.67113813092501595 }, "geometry": { "type": "Point", "coordinates": [ -13164435.808605886995792, 4034052.110444107092917 ] } },
{ "type": "Feature", "properties": { "OBJECTID": 1811, "stop_id": 19011, "route_count": 2, "route_stop": "MT051, DA  E", "lat": 34.053892026280998, "lon": -118.27115233569, "heat_layer": 4.5814, "index_right": 1498, "socioeconomic_layer": 4.205270453721929, "heat_socio_layer": 8.7866704537219285, "heat_socio_public_layer": 1.14564939423296 }, "geometry": { "type": "Point", "coordinates": [ -13165884.45354270003736, 4036040.706121823750436 ] } },
{ "type": "Feature", "properties": { "OBJECTID": 1813, "stop_id": 19175, "route_count": 2, "route_stop": "MT051, DA  E", "lat": 34.051707231260004, "lon": -118.26632209819, "heat_layer": 3.6936, "index_right": 1492, "socioeconomic_layer": 3.9405036833007205, "heat_socio_layer": 7.6341036833007205, "heat_socio_public_layer": 0.76169144385541288 }, "geometry": { "type": "Point", "coordinates": [ -13165346.75396379083395, 4035747.158942687790841 ] } },
{ "type": "Feature", "properties": { "OBJECTID": 1818, "stop_id": 20125, "route_count": 2, "route_stop": "MT051, MT060", "lat": 34.040710579516997, "lon": -118.24678245859999, "heat_layer": 7.4758, "index_right": 1827, "socioeconomic_layer": 2.8409808997107788, "heat_socio_layer": 10.316780899710778, "heat_socio_public_layer": 1.1511095890627681 }, "geometry": { "type": "Point", "coordinates": [ -13163171.611234346404672, 4034269.773118810728192 ] } },
{ "type": "Feature", "properties": { "OBJECTID": 1819, "stop_id": 19798, "route_count": 2, "route_stop": "MT051, DA  E", "lat": 34.032767989219998, "lon": -118.25402018547, "heat_layer": 7.4758, "index_right": 1827, "socioeconomic_layer": 2.8409808997107788, "heat_socio_layer": 10.316780899710778, "heat_socio_public_layer": 1.3279081631703851 }, "geometry": { "type": "Point", "coordinates": [ -13163977.31130401417613, 4033202.815606727730483 ] } },
{ "type": "Feature", "properties": { "OBJECTID": 1820, "stop_id": 19572, "route_count": 2, "route_stop": "MT051, DA  E", "lat": 34.027627705863999, "lon": -118.25745671823999, "heat_layer": 7.4568, "index_right": 1826, "socioeconomic_layer": 4.4925893809188828, "heat_socio_layer": 11.949389380918884, "heat_socio_public_layer": 1.1571037384396821 }, "geometry": { "type": "Point", "coordinates": [ -13164359.86438206396997, 4032512.355584840290248 ] } },
{ "type": "Feature", "properties": { "OBJECTID": 1822, "stop_id": 19412, "route_count": 2, "route_stop": "MT051, MT055", "lat": 34.021571381373001, "lon": -118.26131238422001, "heat_layer": 6.601, "index_right": 1830, "socioeconomic_layer": 4.0418143881437949, "heat_socio_layer": 10.642814388143794, "heat_socio_public_layer": 0.94059515547122974 }, "geometry": { "type": "Point", "coordinates": [ -13164789.075155628845096, 4031698.90352718019858 ] } },
{ "type": "Feature", "properties": { "OBJECTID": 1969, "stop_id": 20602, "route_count": 2, "route_stop": "MT045, DA  B", "lat": 34.066760162949997, "lon": -118.23586080337, "heat_layer": 1.3642, "index_right": 1406, "socioeconomic_layer": 3.2420790417442666, "heat_socio_layer": 4.6062790417442665, "heat_socio_public_layer": 0.61835433653000749 }, "geometry": { "type": "Point", "coordinates": [ -13161955.818135524168611, 4037769.81142536457628 ] } },
{ "type": "Feature", "properties": { "OBJECTID": 1974, "stop_id": 20151, "route_count": 3, "route_stop": "MT055, MT060, DA  B", "lat": 34.058143718567997, "lon": -118.246441002, "heat_layer": -3.6198, "index_right": 1437, "socioeconomic_layer": 3.0344124037054612, "heat_socio_layer": -0.58538759629453896, "heat_socio_public_layer": 0.48921652214875067 }, "geometry": { "type": "Point", "coordinates": [ -13163133.600459506735206, 4036611.981526899617165 ] } }
]
}
