{
"type": "FeatureCollection",
"name": "optimized_shades_MILP_Inglewood_10_200",
"crs": { "type": "name", "properties": { "name": "urn:ogc:def:crs:EPSG::3857" } },
"features": [
{ "type": "Feature", "properties": { "id": "823", "STOPNUM": 1422, "STOPNAME": "Florence / Hillcrest", "LAT": 33.968814, "LONG": -118.348925, "LINE_DIR1": "40-N", "LINE_DIR2": "111-E", "LINE_DIR3": 0, "LINE_DIR4": 0, "LINE_DIR5": 0, "LINE_DIR6": 0, "LINE_DIR7": 0, "LINE_DIR8": 0, "LINE_DIR9": 0, "LINE_DIR10": 0, "LINE_DIR11": 0, "LINE_DIR12": 0, "LINE_DIR13": 0, "LINE_DIR14": 0, "layer_id": "bus_stops", "feature_name": "Bus Stop", "heat_layer": 0.568, "index_right": 5515, "socioeconomic_layer": 3.1041650197974633, "heat_socio_layer": 3.6721650197974633 }, "geometry": { "type": "Point", "coordinates": [ -13174542.066931322216988, 4024615.276571693364531 ] } },
{ "type": "Feature", "properties": { "id": "862", "STOPNUM": 1494, "STOPNAME": "Hyde Park / Marlborough", "LAT": 33.976495, "LONG": -118.346414, "LINE_DIR1": "110-E", "LINE_DIR2": null, "LINE_DIR3": 0, "LINE_DIR4": 0, "LINE_DIR5": 0, "LINE_DIR6": 0, "LINE_DIR7": 0, "LINE_DIR8": 0, "LINE_DIR9": 0, "LINE_DIR10": 0, "LINE_DIR11": 0, "LINE_DIR12": 0, "LINE_DIR13": 0, "LINE_DIR14": 0, "layer_id": "bus_stops", "feature_name": "Bus Stop", "heat_layer": 1.4354, "index_right": 5506, "socioeconomic_layer": 3.7860659030652521, "heat_socio_layer": 5.2214659030652522 }, "geometry": { "type": "Point", "coordinates": [ -13174262.54368994012475, 4025646.31541288131848 ] } },
{ "type": "Feature", "properties": { "id": "2937", "STOPNUM": 4883, "STOPNAME": "Century / Prairie", "LAT": 33.945596, "LONG": -118.344248, "LINE_DIR1": "117-W", "LINE_DIR2": null, "LINE_DIR3": 0, "LINE_DIR4": 0, "LINE_DIR5": 0, "LINE_DIR6": 0, "LINE_DIR7": 0, "LINE_DIR8": 0, "LINE_DIR9": 0, "LINE_DIR10": 0, "LINE_DIR11": 0, "LINE_DIR12": 0, "LINE_DIR13": 0, "LINE_DIR14": 0, "layer_id": "bus_stops", "feature_name": "Bus Stop", "heat_layer": 5.633, "index_right": 5521, "socioeconomic_layer": 3.9572010707835341, "heat_socio_layer": 9.5902010707835341 }, "geometry": { "type": "Point", "coordinates": [ -13174021.425672883167863, 4021499.23538856068626 ] } },
{ "type": "Feature", "properties": { "id": "2979", "STOPNUM": 4953, "STOPNAME": "Eucalyptus / Manchester", "LAT": 33.961425, "LONG": -118.359615, "LINE_DIR1": "211-N", "LINE_DIR2": null, "LINE_DIR3": 0, "LINE_DIR4": 0, "LINE_DIR5": 0, "LINE_DIR6": 0, "LINE_DIR7": 0, "LINE_DIR8": 0, "LINE_DIR9": 0, "LINE_DIR10": 0, "LINE_DIR11": 0, "LINE_DIR12": 0, "LINE_DIR13": 0, "LINE_DIR14": 0, "layer_id": "bus_stops", "feature_name": "Bus Stop", "heat_layer": 3.3404, "index_right": 5527, "socioeconomic_layer": 3.7653596543338672, "heat_socio_layer": 7.105759654333867 }, "geometry": { "type": "Point", "coordinates": [ -13175732.07228790409863, 4023623.521457437891513 ] } },
{ "type": "Feature", "properties": { "id": "3137", "STOPNUM": 5180, "STOPNAME": "La Brea / Queen", "LAT": 33.962763, "LONG": -118.353196, "LINE_DIR1": "212-N", "LINE_DIR2": null, "LINE_DIR3": 0, "LINE_DIR4": 0, "LINE_DIR5": 0, "LINE_DIR6": 0, "LINE_DIR7": 0, "LINE_DIR8": 0, "LINE_DIR9": 0, "LINE_DIR10": 0, "LINE_DIR11": 0, "LINE_DIR12": 0, "LINE_DIR13": 0, "LINE_DIR14": 0, "layer_id": "bus_stops", "feature_name": "Bus Stop", "heat_layer": 2.594, "index_right": 5516, "socioeconomic_layer": 4.1973871381090593, "heat_socio_layer": 6.7913871381090587 }, "geometry": { "type": "Point", "coordinates": [ -13175017.51247650384903, 4023803.102069647051394 ] } },
{ "type": "Feature", "properties": { "id": "5956", "STOPNUM": 9805, "STOPNAME": "Arbor Vitae / Grevillea", "LAT": 33.952807, "LONG": -118.355288, "LINE_DIR1": "111-W", "LINE_DIR2": null, "LINE_DIR3": 0, "LINE_DIR4": 0, "LINE_DIR5": 0, "LINE_DIR6": 0, "LINE_DIR7": 0, "LINE_DIR8": 0, "LINE_DIR9": 0, "LINE_DIR10": 0, "LINE_DIR11": 0, "LINE_DIR12": 0, "LINE_DIR13": 0, "LINE_DIR14": 0, "layer_id": "bus_stops", "feature_name": "Bus Stop", "heat_layer": 6.2296, "index_right": 5530, "socioeconomic_layer": 3.6295974640226141, "heat_socio_layer": 9.8591974640226141 }, "geometry": { "type": "Point", "coordinates": [ -13175250.392851242795587, 4022466.91819603042677 ] } },
{ "type": "Feature", "properties": { "id": "7249", "STOPNUM": 12316, "STOPNAME": "Grace / Prairie", "LAT": 33.968568, "LONG": -118.345068, "LINE_DIR1": "211-N", "LINE_DIR2": null, "LINE_DIR3": 0, "LINE_DIR4": 0, "LINE_DIR5": 0, "LINE_DIR6": 0, "LINE_DIR7": 0, "LINE_DIR8": 0, "LINE_DIR9": 0, "LINE_DIR10": 0, "LINE_DIR11": 0, "LINE_DIR12": 0, "LINE_DIR13": 0, "LINE_DIR14": 0, "layer_id": "bus_stops", "feature_name": "Bus Stop", "heat_layer": 0.568, "index_right": 5515, "socioeconomic_layer": 3.1041650197974633, "heat_socio_layer": 3.6721650197974633 }, "geometry": { "type": "Point", "coordinates": [ -13174112.707655334845185, 4024582.256947516463697 ] } },
{ "type": "Feature", "properties": { "id": "9398", "STOPNUM": 15907, "STOPNAME": "Century / Freeman", "LAT": 33.945595, "LONG": -118.348102, "LINE_DIR1": "117-W", "LINE_DIR2": null, "LINE_DIR3": 0, "LINE_DIR4": 0, "LINE_DIR5": 0, "LINE_DIR6": 0, "LINE_DIR7": 0, "LINE_DIR8": 0, "LINE_DIR9": 0, "LINE_DIR10": 0, "LINE_DIR11": 0, "LINE_DIR12": 0, "LINE_DIR13": 0, "LINE_DIR14": 0, "layer_id": "bus_stops", "feature_name": "Bus Stop", "heat_layer": 5.633, "index_right": 5521, "socioeconomic_layer": 3.9572010707835341, "heat_socio_layer": 9.5902010707835341 }, "geometry": { "type": "Point", "coordinates": [ -13174450.450990401208401, 4021499.10119887534529 ] } },
{ "type": "Feature", "properties": { "id": "9400", "STOPNUM": 15909, "STOPNAME": "Century / La Brea", "LAT": 33.945588, "LONG": -118.352445, "LINE_DIR1": "117-W", "LINE_DIR2": null, "LINE_DIR3": 0, "LINE_DIR4": 0, "LINE_DIR5": 0, "LINE_DIR6": 0, "LINE_DIR7": 0, "LINE_DIR8": 0, "LINE_DIR9": 0, "LINE_DIR10": 0, "LINE_DIR11": 0, "LINE_DIR12": 0, "LINE_DIR13": 0, "LINE_DIR14": 0, "layer_id": "bus_stops", "feature_name": "Bus Stop", "heat_layer": 5.5528, "index_right": 5522, "socioeconomic_layer": 3.9292461880244498, "heat_socio_layer": 9.4820461880244498 }, "geometry": { "type": "Point", "coordinates": [ -13174933.911538917571306, 4021498.161871134769171 ] } },
{ "type": "Feature", "properties": { "id": "11370", "STOPNUM": 140974, "STOPNAME": "La Brea / Plymouth", "LAT": 33.974401, "LONG": -118.357487, "LINE_DIR1": "212-N", "LINE_DIR2": null, "LINE_DIR3": 0, "LINE_DIR4": 0, "LINE_DIR5": 0, "LINE_DIR6": 0, "LINE_DIR7": 0, "LINE_DIR8": 0, "LINE_DIR9": 0, "LINE_DIR10": 0, "LINE_DIR11": 0, "LINE_DIR12": 0, "LINE_DIR13": 0, "LINE_DIR14": 0, "layer_id": "bus_stops", "feature_name": "Bus Stop", "heat_layer": 4.281, "index_right": 5509, "socioeconomic_layer": 3.9128556664994685, "heat_socio_layer": 8.1938556664994682 }, "geometry": { "type": "Point", "coordinates": [ -13175495.184411495923996, 4025365.22359364759177 ] } }
]
}
