{
"type": "FeatureCollection",
"name": "optimized_shades_Greedy_Inglewood_20_200",
"crs": { "type": "name", "properties": { "name": "urn:ogc:def:crs:EPSG::3857" } },
"features": [
{ "type": "Feature", "properties": { "id": "11370", "STOPNUM": 140974, "STOPNAME": "La Brea / Plymouth", "LAT": 33.974401, "LONG": -118.357487, "LINE_DIR1": "212-N", "LINE_DIR2": null, "LINE_DIR3": 0, "LINE_DIR4": 0, "LINE_DIR5": 0, "LINE_DIR6": 0, "LINE_DIR7": 0, "LINE_DIR8": 0, "LINE_DIR9": 0, "LINE_DIR10": 0, "LINE_DIR11": 0, "LINE_DIR12": 0, "LINE_DIR13": 0, "LINE_DIR14": 0, "layer_id": "bus_stops", "feature_name": "Bus Stop", "heat_layer": 4.2402003606430796, "socioeconomic_layer": 3.5110289422540624, "heat_socio_layer": 7.7512293028971424, "heat_socio_public_layer": 1.497775757205142 }, "geometry": { "type": "Point", "coordinates": [ -13175495.184411495923996, 4025365.22359364759177 ] } },
{ "type": "Feature", "properties": { "id": "905", "STOPNUM": 1562, "STOPNAME": "Manchester / Market", "LAT": 33.961924, "LONG": -118.351755, "LINE_DIR1": "115-W", "LINE_DIR2": "212-N", "LINE_DIR3": 0, "LINE_DIR4": 0, "LINE_DIR5": 0, "LINE_DIR6": 0, "LINE_DIR7": 0, "LINE_DIR8": 0, "LINE_DIR9": 0, "LINE_DIR10": 0, "LINE_DIR11": 0, "LINE_DIR12": 0, "LINE_DIR13": 0, "LINE_DIR14": 0, "layer_id": "bus_stops", "feature_name": "Bus Stop", "heat_layer": 2.4210677786705137, "socioeconomic_layer": 4.030488972555295, "heat_socio_layer": 6.4515567512258087, "heat_socio_public_layer": 1.0108954188921555 }, "geometry": { "type": "Point", "coordinates": [ -13174857.101090271025896, 4023690.494763553142548 ] } },
{ "type": "Feature", "properties": { "id": "2979", "STOPNUM": 4953, "STOPNAME": "Eucalyptus / Manchester", "LAT": 33.961425, "LONG": -118.359615, "LINE_DIR1": "211-N", "LINE_DIR2": null, "LINE_DIR3": 0, "LINE_DIR4": 0, "LINE_DIR5": 0, "LINE_DIR6": 0, "LINE_DIR7": 0, "LINE_DIR8": 0, "LINE_DIR9": 0, "LINE_DIR10": 0, "LINE_DIR11": 0, "LINE_DIR12": 0, "LINE_DIR13": 0, "LINE_DIR14": 0, "layer_id": "bus_stops", "feature_name": "Bus Stop", "heat_layer": 2.9070688896648353, "socioeconomic_layer": 3.6861272577248365, "heat_socio_layer": 6.5931961473896719, "heat_socio_public_layer": 1.0712128477596159 }, "geometry": { "type": "Point", "coordinates": [ -13175732.07228790409863, 4023623.521457437891513 ] } },
{ "type": "Feature", "properties": { "id": "6719", "STOPNUM": 11261, "STOPNAME": "La Brea / Arbor Vitae", "LAT": 33.952855, "LONG": -118.352789, "LINE_DIR1": "40-S", "LINE_DIR2": "111-W", "LINE_DIR3": 0, "LINE_DIR4": 0, "LINE_DIR5": 0, "LINE_DIR6": 0, "LINE_DIR7": 0, "LINE_DIR8": 0, "LINE_DIR9": 0, "LINE_DIR10": 0, "LINE_DIR11": 0, "LINE_DIR12": 0, "LINE_DIR13": 0, "LINE_DIR14": 0, "layer_id": "bus_stops", "feature_name": "Bus Stop", "heat_layer": 4.9993077858123591, "socioeconomic_layer": 3.4463725124436033, "heat_socio_layer": 8.4456802982559616, "heat_socio_public_layer": 1.2565462090216264 }, "geometry": { "type": "Point", "coordinates": [ -13174972.205443749204278, 4022473.359848470427096 ] } },
{ "type": "Feature", "properties": { "id": "3417", "STOPNUM": 5590, "STOPNAME": "Florence / Locust", "LAT": 33.967772, "LONG": -118.350462, "LINE_DIR1": "40-N", "LINE_DIR2": "111-E", "LINE_DIR3": 0, "LINE_DIR4": 0, "LINE_DIR5": 0, "LINE_DIR6": 0, "LINE_DIR7": 0, "LINE_DIR8": 0, "LINE_DIR9": 0, "LINE_DIR10": 0, "LINE_DIR11": 0, "LINE_DIR12": 0, "LINE_DIR13": 0, "LINE_DIR14": 0, "layer_id": "bus_stops", "feature_name": "Bus Stop", "heat_layer": 1.6948700471780553, "socioeconomic_layer": 3.2642448940307882, "heat_socio_layer": 4.9591149412088438, "heat_socio_public_layer": 1.201264886806952 }, "geometry": { "type": "Point", "coordinates": [ -13174713.164988672360778, 4024475.413614878896624 ] } },
{ "type": "Feature", "properties": { "id": "6029", "STOPNUM": 9939, "STOPNAME": "Florence / Centinela", "LAT": 33.96969, "LONG": -118.347672, "LINE_DIR1": "40-S", "LINE_DIR2": "111-W", "LINE_DIR3": 0, "LINE_DIR4": 0, "LINE_DIR5": 0, "LINE_DIR6": 0, "LINE_DIR7": 0, "LINE_DIR8": 0, "LINE_DIR9": 0, "LINE_DIR10": 0, "LINE_DIR11": 0, "LINE_DIR12": 0, "LINE_DIR13": 0, "LINE_DIR14": 0, "layer_id": "bus_stops", "feature_name": "Bus Stop", "heat_layer": 1.0171634125073648, "socioeconomic_layer": 3.2542200753291506, "heat_socio_layer": 4.2713834878365153, "heat_socio_public_layer": 1.6228161327921744 }, "geometry": { "type": "Point", "coordinates": [ -13174402.58360935933888, 4024732.859423676505685 ] } },
{ "type": "Feature", "properties": { "id": "9398", "STOPNUM": 15907, "STOPNAME": "Century / Freeman", "LAT": 33.945595, "LONG": -118.348102, "LINE_DIR1": "117-W", "LINE_DIR2": null, "LINE_DIR3": 0, "LINE_DIR4": 0, "LINE_DIR5": 0, "LINE_DIR6": 0, "LINE_DIR7": 0, "LINE_DIR8": 0, "LINE_DIR9": 0, "LINE_DIR10": 0, "LINE_DIR11": 0, "LINE_DIR12": 0, "LINE_DIR13": 0, "LINE_DIR14": 0, "layer_id": "bus_stops", "feature_name": "Bus Stop", "heat_layer": 4.7832815341870241, "socioeconomic_layer": 3.8695193237284986, "heat_socio_layer": 8.6528008579155227, "heat_socio_public_layer": 0.97511630354239764 }, "geometry": { "type": "Point", "coordinates": [ -13174450.450990401208401, 4021499.10119887534529 ] } },
{ "type": "Feature", "properties": { "id": "4695", "STOPNUM": 7561, "STOPNAME": "Century / La Brea", "LAT": 33.945355, "LONG": -118.352279, "LINE_DIR1": "117-E", "LINE_DIR2": null, "LINE_DIR3": 0, "LINE_DIR4": 0, "LINE_DIR5": 0, "LINE_DIR6": 0, "LINE_DIR7": 0, "LINE_DIR8": 0, "LINE_DIR9": 0, "LINE_DIR10": 0, "LINE_DIR11": 0, "LINE_DIR12": 0, "LINE_DIR13": 0, "LINE_DIR14": 0, "layer_id": "bus_stops", "feature_name": "Bus Stop", "heat_layer": 4.3809384983560546, "socioeconomic_layer": 3.8095494082231163, "heat_socio_layer": 8.1904879065791718, "heat_socio_public_layer": 0.93747926867532516 }, "geometry": { "type": "Point", "coordinates": [ -13174915.432503445073962, 4021466.895720382686704 ] } },
{ "type": "Feature", "properties": { "id": "3136", "STOPNUM": 5176, "STOPNAME": "La Brea / Hardy", "LAT": 33.948952, "LONG": -118.352489, "LINE_DIR1": "40-N", "LINE_DIR2": null, "LINE_DIR3": 0, "LINE_DIR4": 0, "LINE_DIR5": 0, "LINE_DIR6": 0, "LINE_DIR7": 0, "LINE_DIR8": 0, "LINE_DIR9": 0, "LINE_DIR10": 0, "LINE_DIR11": 0, "LINE_DIR12": 0, "LINE_DIR13": 0, "LINE_DIR14": 0, "layer_id": "bus_stops", "feature_name": "Bus Stop", "heat_layer": 4.7448606691061466, "socioeconomic_layer": 3.6207083579235304, "heat_socio_layer": 8.365569027029677, "heat_socio_public_layer": 0.97152223750945244 }, "geometry": { "type": "Point", "coordinates": [ -13174938.809596512466669, 4021949.584848005790263 ] } },
{ "type": "Feature", "properties": { "id": "3096", "STOPNUM": 5122, "STOPNAME": "Hawthorne / 104th", "LAT": 33.942104, "LONG": -118.352486, "LINE_DIR1": "40-N", "LINE_DIR2": null, "LINE_DIR3": 0, "LINE_DIR4": 0, "LINE_DIR5": 0, "LINE_DIR6": 0, "LINE_DIR7": 0, "LINE_DIR8": 0, "LINE_DIR9": 0, "LINE_DIR10": 0, "LINE_DIR11": 0, "LINE_DIR12": 0, "LINE_DIR13": 0, "LINE_DIR14": 0, "layer_id": "bus_stops", "feature_name": "Bus Stop", "heat_layer": 4.3719930842990502, "socioeconomic_layer": 3.6306889280272769, "heat_socio_layer": 8.0026820123263267, "heat_socio_public_layer": 0.93664247312829008 }, "geometry": { "type": "Point", "coordinates": [ -13174938.475638039410114, 4021030.654621789231896 ] } },
{ "type": "Feature", "properties": { "id": "2980", "STOPNUM": 4954, "STOPNAME": "Eucalyptus / Spruce", "LAT": 33.955493, "LONG": -118.359533, "LINE_DIR1": "211-N", "LINE_DIR2": null, "LINE_DIR3": 0, "LINE_DIR4": 0, "LINE_DIR5": 0, "LINE_DIR6": 0, "LINE_DIR7": 0, "LINE_DIR8": 0, "LINE_DIR9": 0, "LINE_DIR10": 0, "LINE_DIR11": 0, "LINE_DIR12": 0, "LINE_DIR13": 0, "LINE_DIR14": 0, "layer_id": "bus_stops", "feature_name": "Bus Stop", "heat_layer": 4.3542674216367452, "socioeconomic_layer": 3.6095372308933897, "heat_socio_layer": 7.9638046525301345, "heat_socio_public_layer": 0.93498433237711431 }, "geometry": { "type": "Point", "coordinates": [ -13175722.944089658558369, 4022827.387917995452881 ] } },
{ "type": "Feature", "properties": { "id": "4692", "STOPNUM": 7558, "STOPNAME": "Century / Firmona", "LAT": 33.945327, "LONG": -118.357139, "LINE_DIR1": "117-E", "LINE_DIR2": null, "LINE_DIR3": 0, "LINE_DIR4": 0, "LINE_DIR5": 0, "LINE_DIR6": 0, "LINE_DIR7": 0, "LINE_DIR8": 0, "LINE_DIR9": 0, "LINE_DIR10": 0, "LINE_DIR11": 0, "LINE_DIR12": 0, "LINE_DIR13": 0, "LINE_DIR14": 0, "layer_id": "bus_stops", "feature_name": "Bus Stop", "heat_layer": 3.5961043160608499, "socioeconomic_layer": 3.6828421441420969, "heat_socio_layer": 7.2789464602029472, "heat_socio_public_layer": 0.86406223680621952 }, "geometry": { "type": "Point", "coordinates": [ -13175456.445228699594736, 4021463.138420474715531 ] } },
{ "type": "Feature", "properties": { "id": "876", "STOPNUM": 1520, "STOPNAME": "La Brea / Market", "LAT": 33.957338, "LONG": -118.352418, "LINE_DIR1": "40-N", "LINE_DIR2": "111-E", "LINE_DIR3": 0, "LINE_DIR4": 0, "LINE_DIR5": 0, "LINE_DIR6": 0, "LINE_DIR7": 0, "LINE_DIR8": 0, "LINE_DIR9": 0, "LINE_DIR10": 0, "LINE_DIR11": 0, "LINE_DIR12": 0, "LINE_DIR13": 0, "LINE_DIR14": 0, "layer_id": "bus_stops", "feature_name": "Bus Stop", "heat_layer": 4.1817736915680497, "socioeconomic_layer": 3.5990895864760546, "heat_socio_layer": 7.7808632780441043, "heat_socio_public_layer": 1.1534153644109635 }, "geometry": { "type": "Point", "coordinates": [ -13174930.905912665650249, 4023074.999364355579019 ] } },
{ "type": "Feature", "properties": { "id": "8096", "STOPNUM": 13826, "STOPNAME": "Prairie / 104th", "LAT": 33.941562, "LONG": -118.34406, "LINE_DIR1": "212-S", "LINE_DIR2": "211-S", "LINE_DIR3": 0, "LINE_DIR4": 0, "LINE_DIR5": 0, "LINE_DIR6": 0, "LINE_DIR7": 0, "LINE_DIR8": 0, "LINE_DIR9": 0, "LINE_DIR10": 0, "LINE_DIR11": 0, "LINE_DIR12": 0, "LINE_DIR13": 0, "LINE_DIR14": 0, "layer_id": "bus_stops", "feature_name": "Bus Stop", "heat_layer": 3.094214285008273, "socioeconomic_layer": 3.6856903385463342, "heat_socio_layer": 6.7799046235546072, "heat_socio_public_layer": 0.81711311400321496 }, "geometry": { "type": "Point", "coordinates": [ -13174000.497608613222837, 4020957.927027848083526 ] } },
{ "type": "Feature", "properties": { "id": "6107", "STOPNUM": 10100, "STOPNAME": "Manchester / Spruce", "LAT": 33.960914, "LONG": -118.347282, "LINE_DIR1": "115-W", "LINE_DIR2": "212-N", "LINE_DIR3": 0, "LINE_DIR4": 0, "LINE_DIR5": 0, "LINE_DIR6": 0, "LINE_DIR7": 0, "LINE_DIR8": 0, "LINE_DIR9": 0, "LINE_DIR10": 0, "LINE_DIR11": 0, "LINE_DIR12": 0, "LINE_DIR13": 0, "LINE_DIR14": 0, "layer_id": "bus_stops", "feature_name": "Bus Stop", "heat_layer": 2.9129758967537578, "socioeconomic_layer": 3.7061358450521209, "heat_socio_layer": 6.6191117418058791, "heat_socio_public_layer": 0.80015923402888123 }, "geometry": { "type": "Point", "coordinates": [ -13174359.169007951393723, 4023554.937977958470583 ] } },
{ "type": "Feature", "properties": { "id": "7163", "STOPNUM": 12142, "STOPNAME": "La Brea / Hyde Park", "LAT": 33.970994, "LONG": -118.357426, "LINE_DIR1": "212-S", "LINE_DIR2": null, "LINE_DIR3": 0, "LINE_DIR4": 0, "LINE_DIR5": 0, "LINE_DIR6": 0, "LINE_DIR7": 0, "LINE_DIR8": 0, "LINE_DIR9": 0, "LINE_DIR10": 0, "LINE_DIR11": 0, "LINE_DIR12": 0, "LINE_DIR13": 0, "LINE_DIR14": 0, "layer_id": "bus_stops", "feature_name": "Bus Stop", "heat_layer": 3.946806335849677, "socioeconomic_layer": 3.5490637072182749, "heat_socio_layer": 7.4958700430679519, "heat_socio_public_layer": 0.89686853136400613 }, "geometry": { "type": "Point", "coordinates": [ -13175488.393922559916973, 4024907.893675111699849 ] } },
{ "type": "Feature", "properties": { "id": "6108", "STOPNUM": 10102, "STOPNAME": "Manchester / Grevillea", "LAT": 33.96188, "LONG": -118.355366, "LINE_DIR1": "211-N", "LINE_DIR2": "115-W", "LINE_DIR3": 0, "LINE_DIR4": 0, "LINE_DIR5": 0, "LINE_DIR6": 0, "LINE_DIR7": 0, "LINE_DIR8": 0, "LINE_DIR9": 0, "LINE_DIR10": 0, "LINE_DIR11": 0, "LINE_DIR12": 0, "LINE_DIR13": 0, "LINE_DIR14": 0, "layer_id": "bus_stops", "feature_name": "Bus Stop", "heat_layer": 2.3561042874351936, "socioeconomic_layer": 3.7305692575412817, "heat_socio_layer": 6.0866735449764757, "heat_socio_public_layer": 1.4656252145613617 }, "geometry": { "type": "Point", "coordinates": [ -13175259.075771525502205, 4023684.589285897091031 ] } },
{ "type": "Feature", "properties": { "id": "6840", "STOPNUM": 11449, "STOPNAME": "Prairie / Lennox", "LAT": 33.938356, "LONG": -118.344057, "LINE_DIR1": "211-S", "LINE_DIR2": "212-S", "LINE_DIR3": 0, "LINE_DIR4": 0, "LINE_DIR5": 0, "LINE_DIR6": 0, "LINE_DIR7": 0, "LINE_DIR8": 0, "LINE_DIR9": 0, "LINE_DIR10": 0, "LINE_DIR11": 0, "LINE_DIR12": 0, "LINE_DIR13": 0, "LINE_DIR14": 0, "layer_id": "bus_stops", "feature_name": "Bus Stop", "heat_layer": 2.9682680365504206, "socioeconomic_layer": 3.6485172966024213, "heat_socio_layer": 6.6167853331528423, "heat_socio_public_layer": 0.80533151739922482 }, "geometry": { "type": "Point", "coordinates": [ -13174000.163650142028928, 4020527.743386207148433 ] } },
{ "type": "Feature", "properties": { "id": "2937", "STOPNUM": 4883, "STOPNAME": "Century / Prairie", "LAT": 33.945596, "LONG": -118.344248, "LINE_DIR1": "117-W", "LINE_DIR2": null, "LINE_DIR3": 0, "LINE_DIR4": 0, "LINE_DIR5": 0, "LINE_DIR6": 0, "LINE_DIR7": 0, "LINE_DIR8": 0, "LINE_DIR9": 0, "LINE_DIR10": 0, "LINE_DIR11": 0, "LINE_DIR12": 0, "LINE_DIR13": 0, "LINE_DIR14": 0, "layer_id": "bus_stops", "feature_name": "Bus Stop", "heat_layer": 2.4363717296752374, "socioeconomic_layer": 3.6768500303949798, "heat_socio_layer": 6.1132217600702177, "heat_socio_public_layer": 0.75557546829505029 }, "geometry": { "type": "Point", "coordinates": [ -13174021.425672883167863, 4021499.23538856068626 ] } },
{ "type": "Feature", "properties": { "id": "4784", "STOPNUM": 7735, "STOPNAME": "Imperial / Yukon", "LAT": 33.930843, "LONG": -118.335313, "LINE_DIR1": "120-E", "LINE_DIR2": null, "LINE_DIR3": 0, "LINE_DIR4": 0, "LINE_DIR5": 0, "LINE_DIR6": 0, "LINE_DIR7": 0, "LINE_DIR8": 0, "LINE_DIR9": 0, "LINE_DIR10": 0, "LINE_DIR11": 0, "LINE_DIR12": 0, "LINE_DIR13": 0, "LINE_DIR14": 0, "layer_id": "bus_stops", "feature_name": "Bus Stop", "heat_layer": 0.12586608876585639, "socioeconomic_layer": 3.3236824885621248, "heat_socio_layer": 3.449548577327981, "heat_socio_public_layer": 0.82231375165437193 }, "geometry": { "type": "Point", "coordinates": [ -13173026.786022646352649, 4019519.706495236139745 ] } }
]
}
