{
"type": "FeatureCollection",
"name": "optimized_shades_MILP_DTLA_50_300",
"crs": { "type": "name", "properties": { "name": "urn:ogc:def:crs:EPSG::3857" } },
"features": [
{ "type": "Feature", "properties": { "OBJECTID": 991, "stop_id": 20354, "route_count": 2, "route_stop": "MT078, MT070", "lat": 34.057609632750001, "lon": -118.24011705292, "heat_layer": -0.12095703979662231, "socioeconomic_layer": 3.5765155580495795, "heat_socio_layer": 3.4555585182529573, "heat_socio_public_layer": 0.63728702137097482 }, "geometry": { "type": "Point", "coordinates": [ -13162429.621668117120862, 4036540.217917898669839 ] } },
{ "type": "Feature", "properties": { "OBJECTID": 1016, "stop_id": 19304, "route_count": 5, "route_stop": "MT078, MT014, MT076, MT030, MT070", "lat": 34.038881904618997, "lon": -118.26429752009, "heat_layer": 1.4979349798069992, "socioeconomic_layer": 3.1741354753888458, "heat_socio_layer": 4.6720704551958452, "heat_socio_public_layer": 0.57736596689722353 }, "geometry": { "type": "Point", "coordinates": [ -13165121.378960624337196, 4034024.111607572529465 ] } },
{ "type": "Feature", "properties": { "OBJECTID": 1039, "stop_id": 18997, "route_count": 2, "route_stop": "MT040, MT045", "lat": 34.022265491713, "lon": -118.27176599806, "heat_layer": 7.3090647105870152, "socioeconomic_layer": 4.005283135054829, "heat_socio_layer": 11.314347845641844, "heat_socio_public_layer": 1.1623367852638853 }, "geometry": { "type": "Point", "coordinates": [ -13165952.766125245019794, 4031792.129649397451431 ] } },
{ "type": "Feature", "properties": { "OBJECTID": 1110, "stop_id": 18793, "route_count": 2, "route_stop": "MT081, DA  F", "lat": 34.025048598205998, "lon": -118.27800915077999, "heat_layer": 2.0240678633925424, "socioeconomic_layer": 3.7310609426023009, "heat_socio_layer": 5.7551288059948433, "heat_socio_public_layer": 0.61401616897993994 }, "geometry": { "type": "Point", "coordinates": [ -13166647.750706981867552, 4032165.936991329304874 ] } },
{ "type": "Feature", "properties": { "OBJECTID": 1112, "stop_id": 18907, "route_count": 4, "route_stop": "MT081, MT603, MT910, DA  F", "lat": 34.030750490658001, "lon": -118.27437119947, "heat_layer": 1.3831125180825339, "socioeconomic_layer": 4.004228576044178, "heat_socio_layer": 5.3873410941267119, "heat_socio_public_layer": 0.91775941310385645 }, "geometry": { "type": "Point", "coordinates": [ -13166242.775819620117545, 4032931.813477199990302 ] } },
{ "type": "Feature", "properties": { "OBJECTID": 1114, "stop_id": 19037, "route_count": 3, "route_stop": "MT081, MT033, DA  F", "lat": 34.037497933960999, "lon": -118.27007599331, "heat_layer": 2.3223871177236006, "socioeconomic_layer": 3.4762395105425221, "heat_socio_layer": 5.7986266282661223, "heat_socio_public_layer": 0.79240285369656838 }, "geometry": { "type": "Point", "coordinates": [ -13165764.635657038539648, 4033838.194534469861537 ] } },
{ "type": "Feature", "properties": { "OBJECTID": 1124, "stop_id": 20385, "route_count": 3, "route_stop": "MT081, MT090, MT094", "lat": 34.062760247531003, "lon": -118.23955403843, "heat_layer": 2.567481349799928, "socioeconomic_layer": 3.9884103978181815, "heat_socio_layer": 6.5558917476181096, "heat_socio_public_layer": 0.81873250016385057 }, "geometry": { "type": "Point", "coordinates": [ -13162366.947181779891253, 4037232.310386332217604 ] } },
{ "type": "Feature", "properties": { "OBJECTID": 1138, "stop_id": 19103, "route_count": 5, "route_stop": "DAPIC, MT603, MT035, DA  D, MT055", "lat": 34.032632605640998, "lon": -118.26833412038999, "heat_layer": 3.8123852549082877, "socioeconomic_layer": 3.7784036118505426, "heat_socio_layer": 7.5907888667588299, "heat_socio_public_layer": 1.0857362104550394 }, "geometry": { "type": "Point", "coordinates": [ -13165570.731250556185842, 4033184.629896038211882 ] } },
{ "type": "Feature", "properties": { "OBJECTID": 1141, "stop_id": 18803, "route_count": 2, "route_stop": "DAPIC, MT035", "lat": 34.036903750706003, "lon": -118.27762934909001, "heat_layer": 2.0015921554407043, "socioeconomic_layer": 3.7730893034414659, "heat_socio_layer": 5.7746814588821707, "heat_socio_public_layer": 0.92624920312855119 }, "geometry": { "type": "Point", "coordinates": [ -13166605.471376249566674, 4033758.375267410185188 ] } },
{ "type": "Feature", "properties": { "OBJECTID": 1144, "stop_id": 18815, "route_count": 2, "route_stop": "DAPIC, MT030", "lat": 34.044635145834, "lon": -118.27690897756, "heat_layer": 3.3613978283678003, "socioeconomic_layer": 4.0672923888072203, "heat_socio_layer": 7.4286902171750206, "heat_socio_public_layer": 1.2284019448807375 }, "geometry": { "type": "Point", "coordinates": [ -13166525.279984347522259, 4034797.011500256601721 ] } },
{ "type": "Feature", "properties": { "OBJECTID": 1145, "stop_id": 18925, "route_count": 2, "route_stop": "DAPIC, MT028", "lat": 34.049213795207002, "lon": -118.27419075956, "heat_layer": 3.199946847914068, "socioeconomic_layer": 4.174562881945465, "heat_socio_layer": 7.3745097298595326, "heat_socio_public_layer": 1.2004388344462176 }, "geometry": { "type": "Point", "coordinates": [ -13166222.689340719953179, 4035412.152263194322586 ] } },
{ "type": "Feature", "properties": { "OBJECTID": 1149, "stop_id": 19003, "route_count": 2, "route_stop": "DAPIC, MT018", "lat": 34.058021355576003, "lon": -118.27146945918, "heat_layer": 3.8037364445226673, "socioeconomic_layer": 4.3270291184105041, "heat_socio_layer": 8.1307655629331705, "heat_socio_public_layer": 1.0404208612759842 }, "geometry": { "type": "Point", "coordinates": [ -13165919.755568122491241, 4036595.539915935602039 ] } },
{ "type": "Feature", "properties": { "OBJECTID": 1155, "stop_id": 19221, "route_count": 2, "route_stop": "DAPIC, MT016", "lat": 34.059889341990001, "lon": -118.26554255668, "heat_layer": 2.770814738037255, "socioeconomic_layer": 4.2657636411314881, "heat_socio_layer": 7.0365783791687431, "heat_socio_public_layer": 0.8328612434817978 }, "geometry": { "type": "Point", "coordinates": [ -13165259.975799841806293, 4036846.539190154522657 ] } },
{ "type": "Feature", "properties": { "OBJECTID": 1157, "stop_id": 18986, "route_count": 3, "route_stop": "DAPIC, MT002, MT016", "lat": 34.062951053992997, "lon": -118.27267737562001, "heat_layer": 2.4554858339150343, "socioeconomic_layer": 4.0622517213972857, "heat_socio_layer": 6.51773755531232, "heat_socio_public_layer": 0.64406856884898156 }, "geometry": { "type": "Point", "coordinates": [ -13166054.220211148262024, 4037257.950020125601441 ] } },
{ "type": "Feature", "properties": { "OBJECTID": 1160, "stop_id": 19200, "route_count": 2, "route_stop": "DAPIC, MT014", "lat": 34.064612534508001, "lon": -118.26571933676, "heat_layer": 2.7564115484125953, "socioeconomic_layer": 3.7475384439928168, "heat_socio_layer": 6.5039499924054116, "heat_socio_public_layer": 0.83184505941831655 }, "geometry": { "type": "Point", "coordinates": [ -13165279.654868330806494, 4037481.214039018377662 ] } },
{ "type": "Feature", "properties": { "OBJECTID": 1161, "stop_id": 19437, "route_count": 2, "route_stop": "DAPIC, MT010", "lat": 34.068126670551997, "lon": -118.26085356602, "heat_layer": -0.4111220266112357, "socioeconomic_layer": 3.1901861674272274, "heat_socio_layer": 2.7790641408159917, "heat_socio_public_layer": 0.44438183445556034 }, "geometry": { "type": "Point", "coordinates": [ -13164737.999747237190604, 4037953.44593712547794 ] } },
{ "type": "Feature", "properties": { "OBJECTID": 1163, "stop_id": 19583, "route_count": 2, "route_stop": "DAPIC, MT004", "lat": 34.076756997429001, "lon": -118.25734706454, "heat_layer": -0.95380662613545919, "socioeconomic_layer": 2.7498356559675843, "heat_socio_layer": 1.7960290298321251, "heat_socio_public_layer": 0.56031917232835693 }, "geometry": { "type": "Point", "coordinates": [ -13164347.657788019627333, 4039113.278028688393533 ] } },
{ "type": "Feature", "properties": { "OBJECTID": 1164, "stop_id": 19764, "route_count": 2, "route_stop": "DAPIC, MT010", "lat": 34.066675342202998, "lon": -118.25462833471001, "heat_layer": -0.56270292903968433, "socioeconomic_layer": 3.240997666956881, "heat_socio_layer": 2.6782947379171969, "heat_socio_public_layer": 0.60318899645353552 }, "geometry": { "type": "Point", "coordinates": [ -13164045.010167738422751, 4037758.413111120928079 ] } },
{ "type": "Feature", "properties": { "OBJECTID": 1165, "stop_id": 19435, "route_count": 2, "route_stop": "DAPIC, MT016", "lat": 34.055785933149998, "lon": -118.26088772, "heat_layer": -1.2563732766922626, "socioeconomic_layer": 3.5123269441927198, "heat_socio_layer": 2.2559536675004574, "heat_socio_public_layer": 1.1843802410167312 }, "geometry": { "type": "Point", "coordinates": [ -13164741.801750898361206, 4036295.175940775312483 ] } },
{ "type": "Feature", "properties": { "OBJECTID": 1177, "stop_id": 18818, "route_count": 2, "route_stop": "MT603, MT002", "lat": 34.056459430087003, "lon": -118.27681275448001, "heat_layer": 3.3855957104186487, "socioeconomic_layer": 4.2401887888891041, "heat_socio_layer": 7.6257844993077528, "heat_socio_public_layer": 0.70885964349285613 }, "geometry": { "type": "Point", "coordinates": [ -13166514.56848007813096, 4036385.669957063626498 ] } },
{ "type": "Feature", "properties": { "OBJECTID": 1181, "stop_id": 18785, "route_count": 2, "route_stop": "MT603, MT018", "lat": 34.061154351539003, "lon": -118.27852203315, "heat_layer": 0.86130429621581595, "socioeconomic_layer": 3.756957008064068, "heat_socio_layer": 4.6182613042798835, "heat_socio_public_layer": 0.70316549858965183 }, "geometry": { "type": "Point", "coordinates": [ -13166704.844511248171329, 4037016.520269768312573 ] } },
{ "type": "Feature", "properties": { "OBJECTID": 1183, "stop_id": 18742, "route_count": 2, "route_stop": "MT603, MT016", "lat": 34.066250828428998, "lon": -118.27887579030001, "heat_layer": 3.2649998164786962, "socioeconomic_layer": 3.4965551898762031, "heat_socio_layer": 6.7615550063548993, "heat_socio_public_layer": 0.70045898270707874 }, "geometry": { "type": "Point", "coordinates": [ -13166744.224577048793435, 4037701.366609828080982 ] } },
{ "type": "Feature", "properties": { "OBJECTID": 1184, "stop_id": 18889, "route_count": 2, "route_stop": "MT603, MT010", "lat": 34.072533381386997, "lon": -118.27487478635, "heat_layer": 2.2245088001916522, "socioeconomic_layer": 3.2415060853352933, "heat_socio_layer": 5.4660148855269455, "heat_socio_public_layer": 0.62797880288579422 }, "geometry": { "type": "Point", "coordinates": [ -13166298.834854671731591, 4038545.650300251320004 ] } },
{ "type": "Feature", "properties": { "OBJECTID": 1186, "stop_id": 19183, "route_count": 3, "route_stop": "MT603, MT004, MT002", "lat": 34.077823742813997, "lon": -118.26596274812999, "heat_layer": 0.95050628048025509, "socioeconomic_layer": 3.1600469119161803, "heat_socio_layer": 4.1105531923964351, "heat_socio_public_layer": 0.70529357368321544 }, "geometry": { "type": "Point", "coordinates": [ -13165306.75129809230566, 4039256.64645126555115 ] } },
{ "type": "Feature", "properties": { "OBJECTID": 1261, "stop_id": 20675, "route_count": 3, "route_stop": "MT802, MT801, MT805", "lat": 34.055621521098999, "lon": -118.23383204078, "heat_layer": 1.1979827004270198, "socioeconomic_layer": 2.8821427841856564, "heat_socio_layer": 4.080125484612676, "heat_socio_public_layer": 0.55647141345374862 }, "geometry": { "type": "Point", "coordinates": [ -13161729.977317065000534, 4036273.084922290407121 ] } },
{ "type": "Feature", "properties": { "OBJECTID": 1484, "stop_id": 20215, "route_count": 3, "route_stop": "MT720, MT053, MT018", "lat": 34.044203443980003, "lon": -118.24391431181, "heat_layer": 4.5916908865601025, "socioeconomic_layer": 4.0512820594614567, "heat_socio_layer": 8.6429729460215583, "heat_socio_public_layer": 1.7928757396636463 }, "geometry": { "type": "Point", "coordinates": [ -13162852.330594163388014, 4034739.014143196865916 ] } },
{ "type": "Feature", "properties": { "OBJECTID": 1485, "stop_id": 20048, "route_count": 5, "route_stop": "MT720, MT020, MT033, DA  D, MT060", "lat": 34.046672583967997, "lon": -118.24853970722, "heat_layer": 0.13148891721797124, "socioeconomic_layer": 3.1005267859279351, "heat_socio_layer": 3.2320157031459065, "heat_socio_public_layer": 0.64716069426420009 }, "geometry": { "type": "Point", "coordinates": [ -13163367.22725591994822, 4035070.736864639446139 ] } },
{ "type": "Feature", "properties": { "OBJECTID": 1501, "stop_id": 18988, "route_count": 2, "route_stop": "MT014, MT055", "lat": 34.026474061038002, "lon": -118.27227800591, "heat_layer": 4.5944445126362279, "socioeconomic_layer": 3.9499559992224187, "heat_socio_layer": 8.5444005118586475, "heat_socio_public_layer": 0.79306755801588102 }, "geometry": { "type": "Point", "coordinates": [ -13166009.762578390538692, 4032357.399907297454774 ] } },
{ "type": "Feature", "properties": { "OBJECTID": 1549, "stop_id": 19485, "route_count": 2, "route_stop": "FZ707, MT066", "lat": 34.044424193292997, "lon": -118.25929753216001, "heat_layer": -2.8056197010307686, "socioeconomic_layer": 2.8269775018683623, "heat_socio_layer": 0.021357800837593643, "heat_socio_public_layer": 0.61810831515778797 }, "geometry": { "type": "Point", "coordinates": [ -13164564.782850287854671, 4034768.670862720813602 ] } },
{ "type": "Feature", "properties": { "OBJECTID": 1550, "stop_id": 20245, "route_count": 5, "route_stop": "MT076, MT030, MT033, DA  D, DA  A", "lat": 34.052217269537003, "lon": -118.24338966080001, "heat_layer": -1.7378259580116902, "socioeconomic_layer": 3.0442584967964943, "heat_socio_layer": 1.3064325387848041, "heat_socio_public_layer": 0.53618357741324818 }, "geometry": { "type": "Point", "coordinates": [ -13162793.926710886880755, 4035815.686569842509925 ] } },
{ "type": "Feature", "properties": { "OBJECTID": 1627, "stop_id": 20156, "route_count": 3, "route_stop": "MT004, MT055, MT060", "lat": 34.062677990605003, "lon": -118.24629587781, "heat_layer": 0.37601217505950169, "socioeconomic_layer": 3.300339061463617, "heat_socio_layer": 3.6763512365231188, "heat_socio_public_layer": 0.66277694473557003 }, "geometry": { "type": "Point", "coordinates": [ -13163117.44530857168138, 4037221.257123042363673 ] } },
{ "type": "Feature", "properties": { "OBJECTID": 1694, "stop_id": 19111, "route_count": 2, "route_stop": "MT002, MT010", "lat": 34.070262577445, "lon": -118.26801236502, "heat_layer": 1.1442204731089101, "socioeconomic_layer": 3.3531842994907306, "heat_socio_layer": 4.4974047725996407, "heat_socio_public_layer": 0.55272635862615904 }, "geometry": { "type": "Point", "coordinates": [ -13165534.9136066082865, 4038240.480071374680847 ] } },
{ "type": "Feature", "properties": { "OBJECTID": 1695, "stop_id": 18723, "route_count": 2, "route_stop": "MT002, MT028", "lat": 34.051726106794, "lon": -118.27984747001, "heat_layer": 4.4071170245894429, "socioeconomic_layer": 4.316104044744649, "heat_socio_layer": 8.723221069334091, "heat_socio_public_layer": 0.78001840160168001 }, "geometry": { "type": "Point", "coordinates": [ -13166852.391467580571771, 4035749.695010797586292 ] } },
{ "type": "Feature", "properties": { "OBJECTID": 1708, "stop_id": 19381, "route_count": 2, "route_stop": "MT010, MT055", "lat": 34.033601474980003, "lon": -118.26259755945, "heat_layer": 4.9470279082786641, "socioeconomic_layer": 3.5985199177294445, "heat_socio_layer": 8.545547826008109, "heat_socio_public_layer": 0.97658674243533194 }, "geometry": { "type": "Point", "coordinates": [ -13164932.140207812190056, 4033314.776138116139919 ] } },
{ "type": "Feature", "properties": { "OBJECTID": 1724, "stop_id": 19950, "route_count": 2, "route_stop": "MT066, MT051", "lat": 34.037276685477998, "lon": -118.250333787, "heat_layer": 7.1310574199725947, "socioeconomic_layer": 2.9579678130905549, "heat_socio_layer": 10.08902523306315, "heat_socio_public_layer": 0.96976697856139282 }, "geometry": { "type": "Point", "coordinates": [ -13163566.943303473293781, 4033808.473180959001184 ] } },
{ "type": "Feature", "properties": { "OBJECTID": 1725, "stop_id": 20212, "route_count": 2, "route_stop": "MT066, MT053", "lat": 34.032029917416999, "lon": -118.24416267286, "heat_layer": 7.5650682979098045, "socioeconomic_layer": 3.8717893961307843, "heat_socio_layer": 11.436857694040588, "heat_socio_public_layer": 0.999999999303404 }, "geometry": { "type": "Point", "coordinates": [ -13162879.978019781410694, 4033103.672766049392521 ] } },
{ "type": "Feature", "properties": { "OBJECTID": 1762, "stop_id": 20327, "route_count": 2, "route_stop": "MT053, MT060", "lat": 34.036770450637, "lon": -118.24119269033, "heat_layer": 7.1800710530234113, "socioeconomic_layer": 3.7107720531276689, "heat_socio_layer": 10.890843106151081, "heat_socio_public_layer": 0.97318124824907792 }, "geometry": { "type": "Point", "coordinates": [ -13162549.361076878383756, 4033740.468555814120919 ] } },
{ "type": "Feature", "properties": { "OBJECTID": 1763, "stop_id": 20359, "route_count": 2, "route_stop": "MT053, MT018", "lat": 34.041724809575001, "lon": -118.23983050619999, "heat_layer": 5.8095867437195583, "socioeconomic_layer": 3.7272263622747479, "heat_socio_layer": 9.5368131059943053, "heat_socio_public_layer": 1.0283887891829941 }, "geometry": { "type": "Point", "coordinates": [ -13162397.723433157429099, 4034406.025584911927581 ] } },
{ "type": "Feature", "properties": { "OBJECTID": 1782, "stop_id": 19530, "route_count": 3, "route_stop": "MT030, MT033, MT055", "lat": 34.039090326599002, "lon": -118.25813893681, "heat_layer": 2.7271126071056266, "socioeconomic_layer": 2.913219614604297, "heat_socio_layer": 5.6403322217099241, "heat_socio_public_layer": 0.66298997908410673 }, "geometry": { "type": "Point", "coordinates": [ -13164435.808605886995792, 4034052.110444107092917 ] } },
{ "type": "Feature", "properties": { "OBJECTID": 1811, "stop_id": 19011, "route_count": 2, "route_stop": "MT051, DA  E", "lat": 34.053892026280998, "lon": -118.27115233569, "heat_layer": 4.0616715142115307, "socioeconomic_layer": 4.1156322997833605, "heat_socio_layer": 8.1773038139948913, "heat_socio_public_layer": 1.0852829467005123 }, "geometry": { "type": "Point", "coordinates": [ -13165884.45354270003736, 4036040.706121823750436 ] } },
{ "type": "Feature", "properties": { "OBJECTID": 1813, "stop_id": 19175, "route_count": 2, "route_stop": "MT051, DA  E", "lat": 34.051707231260004, "lon": -118.26632209819, "heat_layer": -0.024977890241006689, "socioeconomic_layer": 3.4101163117319349, "heat_socio_layer": 3.3851384214909284, "heat_socio_public_layer": 0.47128047750288077 }, "geometry": { "type": "Point", "coordinates": [ -13165346.75396379083395, 4035747.158942687790841 ] } },
{ "type": "Feature", "properties": { "OBJECTID": 1818, "stop_id": 20125, "route_count": 2, "route_stop": "MT051, MT060", "lat": 34.040710579516997, "lon": -118.24678245859999, "heat_layer": 6.2715988212127085, "socioeconomic_layer": 3.6662167544485973, "heat_socio_layer": 9.9378155756613058, "heat_socio_public_layer": 1.0665820057091639 }, "geometry": { "type": "Point", "coordinates": [ -13163171.611234346404672, 4034269.773118810728192 ] } },
{ "type": "Feature", "properties": { "OBJECTID": 1819, "stop_id": 19798, "route_count": 2, "route_stop": "MT051, DA  E", "lat": 34.032767989219998, "lon": -118.25402018547, "heat_layer": 7.1633018878568748, "socioeconomic_layer": 2.9945473472715252, "heat_socio_layer": 10.157849235128399, "heat_socio_public_layer": 1.3054962517503963 }, "geometry": { "type": "Point", "coordinates": [ -13163977.31130401417613, 4033202.815606727730483 ] } },
{ "type": "Feature", "properties": { "OBJECTID": 1820, "stop_id": 19572, "route_count": 2, "route_stop": "MT051, DA  E", "lat": 34.027627705863999, "lon": -118.25745671823999, "heat_layer": 7.0415262427235659, "socioeconomic_layer": 4.0303186364395707, "heat_socio_layer": 11.071844879163137, "heat_socio_public_layer": 1.12737812967865 }, "geometry": { "type": "Point", "coordinates": [ -13164359.86438206396997, 4032512.355584840290248 ] } },
{ "type": "Feature", "properties": { "OBJECTID": 1822, "stop_id": 19412, "route_count": 2, "route_stop": "MT051, MT055", "lat": 34.021571381373001, "lon": -118.26131238422001, "heat_layer": 5.8868086029989204, "socioeconomic_layer": 4.0330421822376605, "heat_socio_layer": 9.91985078523658, "heat_socio_public_layer": 0.88309311344866104 }, "geometry": { "type": "Point", "coordinates": [ -13164789.075155628845096, 4031698.90352718019858 ] } },
{ "type": "Feature", "properties": { "OBJECTID": 1834, "stop_id": 19830, "route_count": 2, "route_stop": "MT066, DA  D", "lat": 34.042755492147997, "lon": -118.25317576245, "heat_layer": 0.82948883042870625, "socioeconomic_layer": 2.9428400705885887, "heat_socio_layer": 3.7723289010172949, "heat_socio_public_layer": 0.53080228076308189 }, "geometry": { "type": "Point", "coordinates": [ -13163883.310563415288925, 4034544.489964127074927 ] } },
{ "type": "Feature", "properties": { "OBJECTID": 1957, "stop_id": 19910, "route_count": 2, "route_stop": "MT801, MT804", "lat": 34.054695652592002, "lon": -118.25152818716001, "heat_layer": -5.5465994931267844, "socioeconomic_layer": 3.3203270081293916, "heat_socio_layer": -2.2262724849973927, "heat_socio_public_layer": 0.23961384110642087 }, "geometry": { "type": "Point", "coordinates": [ -13163699.903321087360382, 4036148.682564653456211 ] } },
{ "type": "Feature", "properties": { "OBJECTID": 1958, "stop_id": 20465, "route_count": 2, "route_stop": "MT801, MT804", "lat": 34.048832820290002, "lon": -118.23880111331999, "heat_layer": 2.5665529394292097, "socioeconomic_layer": 3.2433726938556786, "heat_socio_layer": 5.8099256332848883, "heat_socio_public_layer": 0.65180545811941837 }, "geometry": { "type": "Point", "coordinates": [ -13162283.131941929459572, 4035360.967081078328192 ] } },
{ "type": "Feature", "properties": { "OBJECTID": 1969, "stop_id": 20602, "route_count": 2, "route_stop": "MT045, DA  B", "lat": 34.066760162949997, "lon": -118.23586080337, "heat_layer": 1.7541667055814674, "socioeconomic_layer": 3.5983727676734714, "heat_socio_layer": 5.3525394732549385, "heat_socio_public_layer": 0.59521496440834476 }, "geometry": { "type": "Point", "coordinates": [ -13161955.818135524168611, 4037769.81142536457628 ] } },
{ "type": "Feature", "properties": { "OBJECTID": 1974, "stop_id": 20151, "route_count": 3, "route_stop": "MT055, MT060, DA  B", "lat": 34.058143718567997, "lon": -118.246441002, "heat_layer": -2.6987557897115151, "socioeconomic_layer": 3.1333546019351481, "heat_socio_layer": 0.43459881222363306, "heat_socio_public_layer": 0.46257342977595428 }, "geometry": { "type": "Point", "coordinates": [ -13163133.600459506735206, 4036611.981526899617165 ] } }
]
}
