{
"type": "FeatureCollection",
"name": "optimized_shades_TopSocio_Inglewood_20",
"crs": { "type": "name", "properties": { "name": "urn:ogc:def:crs:EPSG::3857" } },
"features": [
{ "type": "Feature", "properties": { "id": "9398", "STOPNUM": 15907, "STOPNAME": "Century / Freeman", "LAT": 33.945595, "LONG": -118.348102, "LINE_DIR1": "117-W", "LINE_DIR2": null, "LINE_DIR3": 0, "LINE_DIR4": 0, "LINE_DIR5": 0, "LINE_DIR6": 0, "LINE_DIR7": 0, "LINE_DIR8": 0, "LINE_DIR9": 0, "LINE_DIR10": 0, "LINE_DIR11": 0, "LINE_DIR12": 0, "LINE_DIR13": 0, "LINE_DIR14": 0, "layer_id": "bus_stops", "feature_name": "Bus Stop", "heat_layer": 4.4258612417923091, "socioeconomic_layer": 3.8075842051299014, "heat_socio_layer": 8.2334454469222109, "heat_socio_public_layer": 0.93288944663020024 }, "geometry": { "type": "Point", "coordinates": [ -13174450.450990401208401, 4021499.10119887534529 ] } },
{ "type": "Feature", "properties": { "id": "4693", "STOPNUM": 7559, "STOPNAME": "Century / Freeman", "LAT": 33.945338, "LONG": -118.347937, "LINE_DIR1": "117-E", "LINE_DIR2": null, "LINE_DIR3": 0, "LINE_DIR4": 0, "LINE_DIR5": 0, "LINE_DIR6": 0, "LINE_DIR7": 0, "LINE_DIR8": 0, "LINE_DIR9": 0, "LINE_DIR10": 0, "LINE_DIR11": 0, "LINE_DIR12": 0, "LINE_DIR13": 0, "LINE_DIR14": 0, "layer_id": "bus_stops", "feature_name": "Bus Stop", "heat_layer": 4.3608995955423469, "socioeconomic_layer": 3.803172399144791, "heat_socio_layer": 8.1640719946871378, "heat_socio_public_layer": 0.92619241599940061 }, "geometry": { "type": "Point", "coordinates": [ -13174432.08327442035079, 4021464.61450243415311 ] } },
{ "type": "Feature", "properties": { "id": "906", "STOPNUM": 1563, "STOPNAME": "Manchester / Market", "LAT": 33.961669, "LONG": -118.351615, "LINE_DIR1": "115-E", "LINE_DIR2": "212-S", "LINE_DIR3": 0, "LINE_DIR4": 0, "LINE_DIR5": 0, "LINE_DIR6": 0, "LINE_DIR7": 0, "LINE_DIR8": 0, "LINE_DIR9": 0, "LINE_DIR10": 0, "LINE_DIR11": 0, "LINE_DIR12": 0, "LINE_DIR13": 0, "LINE_DIR14": 0, "layer_id": "bus_stops", "feature_name": "Bus Stop", "heat_layer": 2.4744893168840596, "socioeconomic_layer": 3.7889614703368588, "heat_socio_layer": 6.2634507872209184, "heat_socio_public_layer": 0.98169870574706675 }, "geometry": { "type": "Point", "coordinates": [ -13174841.516361556947231, 4023656.269878678955138 ] } },
{ "type": "Feature", "properties": { "id": "905", "STOPNUM": 1562, "STOPNAME": "Manchester / Market", "LAT": 33.961924, "LONG": -118.351755, "LINE_DIR1": "115-W", "LINE_DIR2": "212-N", "LINE_DIR3": 0, "LINE_DIR4": 0, "LINE_DIR5": 0, "LINE_DIR6": 0, "LINE_DIR7": 0, "LINE_DIR8": 0, "LINE_DIR9": 0, "LINE_DIR10": 0, "LINE_DIR11": 0, "LINE_DIR12": 0, "LINE_DIR13": 0, "LINE_DIR14": 0, "layer_id": "bus_stops", "feature_name": "Bus Stop", "heat_layer": 2.3802860598189861, "socioeconomic_layer": 3.7867722037426668, "heat_socio_layer": 6.1670582635616533, "heat_socio_public_layer": 0.97875841846009037 }, "geometry": { "type": "Point", "coordinates": [ -13174857.101090271025896, 4023690.494763553142548 ] } },
{ "type": "Feature", "properties": { "id": "11794", "STOPNUM": 25400175, "STOPNAME": "La Brea / Manchester", "LAT": 33.962323, "LONG": -118.353185, "LINE_DIR1": "40-N", "LINE_DIR2": "111-E", "LINE_DIR3": 0, "LINE_DIR4": 0, "LINE_DIR5": 0, "LINE_DIR6": 0, "LINE_DIR7": 0, "LINE_DIR8": 0, "LINE_DIR9": 0, "LINE_DIR10": 0, "LINE_DIR11": 0, "LINE_DIR12": 0, "LINE_DIR13": 0, "LINE_DIR14": 0, "layer_id": "bus_stops", "feature_name": "Bus Stop", "heat_layer": 2.3056400444220726, "socioeconomic_layer": 3.7859503062156175, "heat_socio_layer": 6.0915903506376896, "heat_socio_public_layer": 0.99031824374328092 }, "geometry": { "type": "Point", "coordinates": [ -13175016.287962103262544, 4023744.046848093159497 ] } },
{ "type": "Feature", "properties": { "id": "11793", "STOPNUM": 25400168, "STOPNAME": "Hillcrest / Nutwood", "LAT": 33.960582, "LONG": -118.349972, "LINE_DIR1": "212-N", "LINE_DIR2": "212-S", "LINE_DIR3": 0, "LINE_DIR4": 0, "LINE_DIR5": 0, "LINE_DIR6": 0, "LINE_DIR7": 0, "LINE_DIR8": 0, "LINE_DIR9": 0, "LINE_DIR10": 0, "LINE_DIR11": 0, "LINE_DIR12": 0, "LINE_DIR13": 0, "LINE_DIR14": 0, "layer_id": "bus_stops", "feature_name": "Bus Stop", "heat_layer": 3.043439103396758, "socioeconomic_layer": 3.7761119781559889, "heat_socio_layer": 6.8195510815527474, "heat_socio_public_layer": 0.79037268574167918 }, "geometry": { "type": "Point", "coordinates": [ -13174658.618438186123967, 4023510.379069214686751 ] } },
{ "type": "Feature", "properties": { "id": "8014", "STOPNUM": 13682, "STOPNAME": "Locust / Manchester", "LAT": 33.962019, "LONG": -118.350281, "LINE_DIR1": "211-S", "LINE_DIR2": null, "LINE_DIR3": 0, "LINE_DIR4": 0, "LINE_DIR5": 0, "LINE_DIR6": 0, "LINE_DIR7": 0, "LINE_DIR8": 0, "LINE_DIR9": 0, "LINE_DIR10": 0, "LINE_DIR11": 0, "LINE_DIR12": 0, "LINE_DIR13": 0, "LINE_DIR14": 0, "layer_id": "bus_stops", "feature_name": "Bus Stop", "heat_layer": 2.3836701236218421, "socioeconomic_layer": 3.7696683288723669, "heat_socio_layer": 6.153338452494209, "heat_socio_public_layer": 0.72235573540451603 }, "geometry": { "type": "Point", "coordinates": [ -13174693.016160840168595, 4023703.245237088762224 ] } },
{ "type": "Feature", "properties": { "id": "11087", "STOPNUM": 30004, "STOPNAME": "Inglewood Transit Center", "LAT": 33.959841, "LONG": -118.352686, "LINE_DIR1": "111-W", "LINE_DIR2": "111-E", "LINE_DIR3": 0, "LINE_DIR4": 0, "LINE_DIR5": 0, "LINE_DIR6": 0, "LINE_DIR7": 0, "LINE_DIR8": 0, "LINE_DIR9": 0, "LINE_DIR10": 0, "LINE_DIR11": 0, "LINE_DIR12": 0, "LINE_DIR13": 0, "LINE_DIR14": 0, "layer_id": "bus_stops", "feature_name": "Bus Stop", "heat_layer": 3.2162461129936046, "socioeconomic_layer": 3.7693772839952024, "heat_socio_layer": 6.9856233969888066, "heat_socio_public_layer": 0.80818771819996826 }, "geometry": { "type": "Point", "coordinates": [ -13174960.739536197856069, 4023410.927433213219047 ] } },
{ "type": "Feature", "properties": { "id": "901", "STOPNUM": 1558, "STOPNAME": "Manchester / Grevillea", "LAT": 33.961632, "LONG": -118.354784, "LINE_DIR1": "115-E", "LINE_DIR2": "211-S", "LINE_DIR3": 0, "LINE_DIR4": 0, "LINE_DIR5": 0, "LINE_DIR6": 0, "LINE_DIR7": 0, "LINE_DIR8": 0, "LINE_DIR9": 0, "LINE_DIR10": 0, "LINE_DIR11": 0, "LINE_DIR12": 0, "LINE_DIR13": 0, "LINE_DIR14": 0, "layer_id": "bus_stops", "feature_name": "Bus Stop", "heat_layer": 2.5368506959751027, "socioeconomic_layer": 3.7690444724168422, "heat_socio_layer": 6.3058951683919453, "heat_socio_public_layer": 1.2260469925298372 }, "geometry": { "type": "Point", "coordinates": [ -13175194.287827882915735, 4023651.303923514205962 ] } },
{ "type": "Feature", "properties": { "id": "4695", "STOPNUM": 7561, "STOPNAME": "Century / La Brea", "LAT": 33.945355, "LONG": -118.352279, "LINE_DIR1": "117-E", "LINE_DIR2": null, "LINE_DIR3": 0, "LINE_DIR4": 0, "LINE_DIR5": 0, "LINE_DIR6": 0, "LINE_DIR7": 0, "LINE_DIR8": 0, "LINE_DIR9": 0, "LINE_DIR10": 0, "LINE_DIR11": 0, "LINE_DIR12": 0, "LINE_DIR13": 0, "LINE_DIR14": 0, "layer_id": "bus_stops", "feature_name": "Bus Stop", "heat_layer": 4.4074268014028473, "socioeconomic_layer": 3.7675380936044807, "heat_socio_layer": 8.1749648950073279, "heat_socio_public_layer": 0.93098900199745738 }, "geometry": { "type": "Point", "coordinates": [ -13174915.432503445073962, 4021466.895720382686704 ] } },
{ "type": "Feature", "properties": { "id": "9400", "STOPNUM": 15909, "STOPNAME": "Century / La Brea", "LAT": 33.945588, "LONG": -118.352445, "LINE_DIR1": "117-W", "LINE_DIR2": null, "LINE_DIR3": 0, "LINE_DIR4": 0, "LINE_DIR5": 0, "LINE_DIR6": 0, "LINE_DIR7": 0, "LINE_DIR8": 0, "LINE_DIR9": 0, "LINE_DIR10": 0, "LINE_DIR11": 0, "LINE_DIR12": 0, "LINE_DIR13": 0, "LINE_DIR14": 0, "layer_id": "bus_stops", "feature_name": "Bus Stop", "heat_layer": 4.4013515054195622, "socioeconomic_layer": 3.7660142166922599, "heat_socio_layer": 8.1673657221118212, "heat_socio_public_layer": 0.93036268715416226 }, "geometry": { "type": "Point", "coordinates": [ -13174933.911538917571306, 4021498.161871134769171 ] } },
{ "type": "Feature", "properties": { "id": "3157", "STOPNUM": 5201, "STOPNAME": "La Brea / Century", "LAT": 33.945734, "LONG": -118.352491, "LINE_DIR1": "40-N", "LINE_DIR2": null, "LINE_DIR3": 0, "LINE_DIR4": 0, "LINE_DIR5": 0, "LINE_DIR6": 0, "LINE_DIR7": 0, "LINE_DIR8": 0, "LINE_DIR9": 0, "LINE_DIR10": 0, "LINE_DIR11": 0, "LINE_DIR12": 0, "LINE_DIR13": 0, "LINE_DIR14": 0, "layer_id": "bus_stops", "feature_name": "Bus Stop", "heat_layer": 4.4055587411345805, "socioeconomic_layer": 3.7650610167229863, "heat_socio_layer": 8.1706197578575672, "heat_socio_public_layer": 0.93079641979612848 }, "geometry": { "type": "Point", "coordinates": [ -13174939.032235492020845, 4021517.75358002865687 ] } },
{ "type": "Feature", "properties": { "id": "902", "STOPNUM": 1559, "STOPNAME": "Manchester / Hillcrest", "LAT": 33.961673, "LONG": -118.349083, "LINE_DIR1": "115-E", "LINE_DIR2": "212-S", "LINE_DIR3": 0, "LINE_DIR4": 0, "LINE_DIR5": 0, "LINE_DIR6": 0, "LINE_DIR7": 0, "LINE_DIR8": 0, "LINE_DIR9": 0, "LINE_DIR10": 0, "LINE_DIR11": 0, "LINE_DIR12": 0, "LINE_DIR13": 0, "LINE_DIR14": 0, "layer_id": "bus_stops", "feature_name": "Bus Stop", "heat_layer": 2.5226110489955595, "socioeconomic_layer": 3.7627816841447146, "heat_socio_layer": 6.2853927331402737, "heat_socio_public_layer": 0.73667944311227707 }, "geometry": { "type": "Point", "coordinates": [ -13174559.655410869047046, 4023656.806738825514913 ] } },
{ "type": "Feature", "properties": { "id": "3137", "STOPNUM": 5180, "STOPNAME": "La Brea / Queen", "LAT": 33.962763, "LONG": -118.353196, "LINE_DIR1": "212-N", "LINE_DIR2": null, "LINE_DIR3": 0, "LINE_DIR4": 0, "LINE_DIR5": 0, "LINE_DIR6": 0, "LINE_DIR7": 0, "LINE_DIR8": 0, "LINE_DIR9": 0, "LINE_DIR10": 0, "LINE_DIR11": 0, "LINE_DIR12": 0, "LINE_DIR13": 0, "LINE_DIR14": 0, "layer_id": "bus_stops", "feature_name": "Bus Stop", "heat_layer": 2.225137062932526, "socioeconomic_layer": 3.7551222337393466, "heat_socio_layer": 5.9802592966718731, "heat_socio_public_layer": 0.98854947444376484 }, "geometry": { "type": "Point", "coordinates": [ -13175017.51247650384903, 4023803.102069647051394 ] } },
{ "type": "Feature", "properties": { "id": "6109", "STOPNUM": 10103, "STOPNAME": "Manchester / Hillcrest", "LAT": 33.961931, "LONG": -118.349087, "LINE_DIR1": "115-W", "LINE_DIR2": "212-N", "LINE_DIR3": 0, "LINE_DIR4": 0, "LINE_DIR5": 0, "LINE_DIR6": 0, "LINE_DIR7": 0, "LINE_DIR8": 0, "LINE_DIR9": 0, "LINE_DIR10": 0, "LINE_DIR11": 0, "LINE_DIR12": 0, "LINE_DIR13": 0, "LINE_DIR14": 0, "layer_id": "bus_stops", "feature_name": "Bus Stop", "heat_layer": 2.4185260137365208, "socioeconomic_layer": 3.7540340144572748, "heat_socio_layer": 6.1725600281937956, "heat_socio_public_layer": 0.72594910129403778 }, "geometry": { "type": "Point", "coordinates": [ -13174560.100688831880689, 4023691.434271642472595 ] } },
{ "type": "Feature", "properties": { "id": "7957", "STOPNUM": 13588, "STOPNAME": "Hawthorne / Century", "LAT": 33.945046, "LONG": -118.352795, "LINE_DIR1": "40-S", "LINE_DIR2": null, "LINE_DIR3": 0, "LINE_DIR4": 0, "LINE_DIR5": 0, "LINE_DIR6": 0, "LINE_DIR7": 0, "LINE_DIR8": 0, "LINE_DIR9": 0, "LINE_DIR10": 0, "LINE_DIR11": 0, "LINE_DIR12": 0, "LINE_DIR13": 0, "LINE_DIR14": 0, "layer_id": "bus_stops", "feature_name": "Bus Stop", "heat_layer": 4.3273729728080861, "socioeconomic_layer": 3.7508895801567044, "heat_socio_layer": 8.0782625529647909, "heat_socio_public_layer": 0.92273608703669763 }, "geometry": { "type": "Point", "coordinates": [ -13174972.873360693454742, 4021425.431300541386008 ] } },
{ "type": "Feature", "properties": { "id": "6108", "STOPNUM": 10102, "STOPNAME": "Manchester / Grevillea", "LAT": 33.96188, "LONG": -118.355366, "LINE_DIR1": "211-N", "LINE_DIR2": "115-W", "LINE_DIR3": 0, "LINE_DIR4": 0, "LINE_DIR5": 0, "LINE_DIR6": 0, "LINE_DIR7": 0, "LINE_DIR8": 0, "LINE_DIR9": 0, "LINE_DIR10": 0, "LINE_DIR11": 0, "LINE_DIR12": 0, "LINE_DIR13": 0, "LINE_DIR14": 0, "layer_id": "bus_stops", "feature_name": "Bus Stop", "heat_layer": 2.5053821934513381, "socioeconomic_layer": 3.7373967360560147, "heat_socio_layer": 6.2427789295073524, "heat_socio_public_layer": 1.4524616200566036 }, "geometry": { "type": "Point", "coordinates": [ -13175259.075771525502205, 4023684.589285897091031 ] } },
{ "type": "Feature", "properties": { "id": "4697", "STOPNUM": 7563, "STOPNAME": "Century / La Cienega", "LAT": 33.945292, "LONG": -118.36972, "LINE_DIR1": "117-E", "LINE_DIR2": null, "LINE_DIR3": 0, "LINE_DIR4": 0, "LINE_DIR5": 0, "LINE_DIR6": 0, "LINE_DIR7": 0, "LINE_DIR8": 0, "LINE_DIR9": 0, "LINE_DIR10": 0, "LINE_DIR11": 0, "LINE_DIR12": 0, "LINE_DIR13": 0, "LINE_DIR14": 0, "layer_id": "bus_stops", "feature_name": "Bus Stop", "heat_layer": 0.52847265218178185, "socioeconomic_layer": 3.7144864939376832, "heat_socio_layer": 4.2429591461194649, "heat_socio_public_layer": 0.76847490098761584 }, "geometry": { "type": "Point", "coordinates": [ -13176856.955742370337248, 4021458.44179732631892 ] } },
{ "type": "Feature", "properties": { "id": "11392", "STOPNUM": 141031, "STOPNAME": "Prairie / 104th", "LAT": 33.942113, "LONG": -118.343759, "LINE_DIR1": "211-N", "LINE_DIR2": "212-N", "LINE_DIR3": 0, "LINE_DIR4": 0, "LINE_DIR5": 0, "LINE_DIR6": 0, "LINE_DIR7": 0, "LINE_DIR8": 0, "LINE_DIR9": 0, "LINE_DIR10": 0, "LINE_DIR11": 0, "LINE_DIR12": 0, "LINE_DIR13": 0, "LINE_DIR14": 0, "layer_id": "bus_stops", "feature_name": "Bus Stop", "heat_layer": 2.6867473986443708, "socioeconomic_layer": 3.6796444181329626, "heat_socio_layer": 6.3663918167773339, "heat_socio_public_layer": 0.75360059928181267 }, "geometry": { "type": "Point", "coordinates": [ -13173966.990441884845495, 4021031.862279470078647 ] } },
{ "type": "Feature", "properties": { "id": "2978", "STOPNUM": 4951, "STOPNAME": "Eucalyptus / Kelso", "LAT": 33.958941, "LONG": -118.359581, "LINE_DIR1": "211-N", "LINE_DIR2": null, "LINE_DIR3": 0, "LINE_DIR4": 0, "LINE_DIR5": 0, "LINE_DIR6": 0, "LINE_DIR7": 0, "LINE_DIR8": 0, "LINE_DIR9": 0, "LINE_DIR10": 0, "LINE_DIR11": 0, "LINE_DIR12": 0, "LINE_DIR13": 0, "LINE_DIR14": 0, "layer_id": "bus_stops", "feature_name": "Bus Stop", "heat_layer": 3.6817737663514616, "socioeconomic_layer": 3.6738519289951745, "heat_socio_layer": 7.3556256953466361, "heat_socio_public_layer": 0.85617992797287967 }, "geometry": { "type": "Point", "coordinates": [ -13175728.28742521815002, 4023290.137137469369918 ] } }
]
}
