{
"type": "FeatureCollection",
"name": "optimized_shades_MILP_DTLA_20_200",
"crs": { "type": "name", "properties": { "name": "urn:ogc:def:crs:EPSG::3857" } },
"features": [
{ "type": "Feature", "properties": { "OBJECTID": 1039, "stop_id": 18997, "route_count": 2, "route_stop": "MT040, MT045", "lat": 34.022265491713, "lon": -118.27176599806, "heat_layer": 7.4985905727932796, "socioeconomic_layer": 3.987941847104989, "heat_socio_layer": 11.486532419898268, "heat_socio_public_layer": 1.1757784467095731 }, "geometry": { "type": "Point", "coordinates": [ -13165952.766125245019794, 4031792.129649397451431 ] } },
{ "type": "Feature", "properties": { "OBJECTID": 1040, "stop_id": 19059, "route_count": 2, "route_stop": "MT040, MT045", "lat": 34.025342107740002, "lon": -118.26975624693, "heat_layer": 6.5637794583349596, "socioeconomic_layer": 4.0478297890090928, "heat_socio_layer": 10.611609247344052, "heat_socio_public_layer": 0.93506873202749663 }, "geometry": { "type": "Point", "coordinates": [ -13165729.041652832180262, 4032205.359847676474601 ] } },
{ "type": "Feature", "properties": { "OBJECTID": 1112, "stop_id": 18907, "route_count": 4, "route_stop": "MT081, MT603, MT910, DA  F", "lat": 34.030750490658001, "lon": -118.27437119947, "heat_layer": 1.0648371479605794, "socioeconomic_layer": 4.1049664472983904, "heat_socio_layer": 5.16980359525897, "heat_socio_public_layer": 0.92734059839736194 }, "geometry": { "type": "Point", "coordinates": [ -13166242.775819620117545, 4032931.813477199990302 ] } },
{ "type": "Feature", "properties": { "OBJECTID": 1124, "stop_id": 20385, "route_count": 3, "route_stop": "MT081, MT090, MT094", "lat": 34.062760247531003, "lon": -118.23955403843, "heat_layer": 2.8811746040164321, "socioeconomic_layer": 4.2210522297585982, "heat_socio_layer": 7.1022268337750303, "heat_socio_public_layer": 0.86343987732587091 }, "geometry": { "type": "Point", "coordinates": [ -13162366.947181779891253, 4037232.310386332217604 ] } },
{ "type": "Feature", "properties": { "OBJECTID": 1138, "stop_id": 19103, "route_count": 5, "route_stop": "DAPIC, MT603, MT035, DA  D, MT055", "lat": 34.032632605640998, "lon": -118.26833412038999, "heat_layer": 3.4836583887784425, "socioeconomic_layer": 3.7948722196686102, "heat_socio_layer": 7.2785306084470527, "heat_socio_public_layer": 1.0827418772803452 }, "geometry": { "type": "Point", "coordinates": [ -13165570.731250556185842, 4033184.629896038211882 ] } },
{ "type": "Feature", "properties": { "OBJECTID": 1144, "stop_id": 18815, "route_count": 2, "route_stop": "DAPIC, MT030", "lat": 34.044635145834, "lon": -118.27690897756, "heat_layer": 3.6716338564949758, "socioeconomic_layer": 4.1260147214773539, "heat_socio_layer": 7.7976485779723301, "heat_socio_public_layer": 1.2689967958605672 }, "geometry": { "type": "Point", "coordinates": [ -13166525.279984347522259, 4034797.011500256601721 ] } },
{ "type": "Feature", "properties": { "OBJECTID": 1145, "stop_id": 18925, "route_count": 2, "route_stop": "DAPIC, MT028", "lat": 34.049213795207002, "lon": -118.27419075956, "heat_layer": 2.5151030939174368, "socioeconomic_layer": 4.2705700788319865, "heat_socio_layer": 6.7856731727494228, "heat_socio_public_layer": 1.1773815620110248 }, "geometry": { "type": "Point", "coordinates": [ -13166222.689340719953179, 4035412.152263194322586 ] } },
{ "type": "Feature", "properties": { "OBJECTID": 1149, "stop_id": 19003, "route_count": 2, "route_stop": "DAPIC, MT018", "lat": 34.058021355576003, "lon": -118.27146945918, "heat_layer": 4.927716894782165, "socioeconomic_layer": 4.4518074491332111, "heat_socio_layer": 9.3795243439153761, "heat_socio_public_layer": 1.1315484779048712 }, "geometry": { "type": "Point", "coordinates": [ -13165919.755568122491241, 4036595.539915935602039 ] } },
{ "type": "Feature", "properties": { "OBJECTID": 1153, "stop_id": 19406, "route_count": 2, "route_stop": "DAPIC, MT016", "lat": 34.058301360493999, "lon": -118.26163510700999, "heat_layer": 0.53884278327802282, "socioeconomic_layer": 3.7725969013920948, "heat_socio_layer": 4.311439684670118, "heat_socio_public_layer": 1.4176688414405862 }, "geometry": { "type": "Point", "coordinates": [ -13164825.000492276623845, 4036633.163515490014106 ] } },
{ "type": "Feature", "properties": { "OBJECTID": 1155, "stop_id": 19221, "route_count": 2, "route_stop": "DAPIC, MT016", "lat": 34.059889341990001, "lon": -118.26554255668, "heat_layer": 2.4814998121380167, "socioeconomic_layer": 4.3295074048554847, "heat_socio_layer": 6.8110072169935014, "heat_socio_public_layer": 0.83752093794815552 }, "geometry": { "type": "Point", "coordinates": [ -13165259.975799841806293, 4036846.539190154522657 ] } },
{ "type": "Feature", "properties": { "OBJECTID": 1156, "stop_id": 19034, "route_count": 2, "route_stop": "DAPIC, MT016", "lat": 34.061868472157002, "lon": -118.27019759282, "heat_layer": 3.9793186402664835, "socioeconomic_layer": 4.3378115943452489, "heat_socio_layer": 8.3171302346117315, "heat_socio_public_layer": 0.76769502553030278 }, "geometry": { "type": "Point", "coordinates": [ -13165778.172052573412657, 4037112.478763583116233 ] } },
{ "type": "Feature", "properties": { "OBJECTID": 1169, "stop_id": 19022, "route_count": 4, "route_stop": "MT603, MT014, DA  D, MT055", "lat": 34.029184558042999, "lon": -118.27056402459, "heat_layer": 3.8024341140315441, "socioeconomic_layer": 3.8748582111812317, "heat_socio_layer": 7.6772923252127754, "heat_socio_public_layer": 0.93495185214450161 }, "geometry": { "type": "Point", "coordinates": [ -13165818.963050618767738, 4032721.472751379944384 ] } },
{ "type": "Feature", "properties": { "OBJECTID": 1484, "stop_id": 20215, "route_count": 3, "route_stop": "MT720, MT053, MT018", "lat": 34.044203443980003, "lon": -118.24391431181, "heat_layer": 5.028436195940305, "socioeconomic_layer": 4.166432857936532, "heat_socio_layer": 9.1948690538768361, "heat_socio_public_layer": 1.8356375099938331 }, "geometry": { "type": "Point", "coordinates": [ -13162852.330594163388014, 4034739.014143196865916 ] } },
{ "type": "Feature", "properties": { "OBJECTID": 1695, "stop_id": 18723, "route_count": 2, "route_stop": "MT002, MT028", "lat": 34.051726106794, "lon": -118.27984747001, "heat_layer": 4.4677924169493544, "socioeconomic_layer": 4.3845408953687839, "heat_socio_layer": 8.8523333123181374, "heat_socio_public_layer": 0.79932934784562304 }, "geometry": { "type": "Point", "coordinates": [ -13166852.391467580571771, 4035749.695010797586292 ] } },
{ "type": "Feature", "properties": { "OBJECTID": 1725, "stop_id": 20212, "route_count": 2, "route_stop": "MT066, MT053", "lat": 34.032029917416999, "lon": -118.24416267286, "heat_layer": 7.5664, "socioeconomic_layer": 3.8850682986319809, "heat_socio_layer": 11.45146829863198, "heat_socio_public_layer": 0.99999999935238437 }, "geometry": { "type": "Point", "coordinates": [ -13162879.978019781410694, 4033103.672766049392521 ] } },
{ "type": "Feature", "properties": { "OBJECTID": 1740, "stop_id": 20227, "route_count": 2, "route_stop": "MT018, MT053", "lat": 34.041252817627999, "lon": -118.24362843895, "heat_layer": 6.5060917576982469, "socioeconomic_layer": 4.3180461408613962, "heat_socio_layer": 10.824137898559643, "heat_socio_public_layer": 1.4041108217487062 }, "geometry": { "type": "Point", "coordinates": [ -13162820.50737295486033, 4034342.617611710913479 ] } },
{ "type": "Feature", "properties": { "OBJECTID": 1741, "stop_id": 20346, "route_count": 2, "route_stop": "MT018, MT720", "lat": 34.039341029018999, "lon": -118.24052674039, "heat_layer": 6.9856552614429734, "socioeconomic_layer": 4.1988379600769079, "heat_socio_layer": 11.184493221519881, "heat_socio_public_layer": 1.1214698298483754 }, "geometry": { "type": "Point", "coordinates": [ -13162475.227868661284447, 4034085.789210012648255 ] } },
{ "type": "Feature", "properties": { "OBJECTID": 1810, "stop_id": 18965, "route_count": 2, "route_stop": "MT051, DA  E", "lat": 34.054928241178999, "lon": -118.27346997431, "heat_layer": 4.8729347635648601, "socioeconomic_layer": 4.3063340949421542, "heat_socio_layer": 9.1792688585070152, "heat_socio_public_layer": 1.5025464823158856 }, "geometry": { "type": "Point", "coordinates": [ -13166142.451893720775843, 4036179.933708895463496 ] } },
{ "type": "Feature", "properties": { "OBJECTID": 1820, "stop_id": 19572, "route_count": 2, "route_stop": "MT051, DA  E", "lat": 34.027627705863999, "lon": -118.25745671823999, "heat_layer": 7.3462610484956476, "socioeconomic_layer": 4.3154270429294526, "heat_socio_layer": 11.6616880914251, "heat_socio_public_layer": 1.1495913145123342 }, "geometry": { "type": "Point", "coordinates": [ -13164359.86438206396997, 4032512.355584840290248 ] } },
{ "type": "Feature", "properties": { "OBJECTID": 1822, "stop_id": 19412, "route_count": 2, "route_stop": "MT051, MT055", "lat": 34.021571381373001, "lon": -118.26131238422001, "heat_layer": 5.9526269274555155, "socioeconomic_layer": 4.0541071473224148, "heat_socio_layer": 10.006734074777931, "heat_socio_public_layer": 0.89548954258368785 }, "geometry": { "type": "Point", "coordinates": [ -13164789.075155628845096, 4031698.90352718019858 ] } }
]
}
