{
"type": "FeatureCollection",
"name": "optimized_shades_MILPHeatSocioPublic_Inglewood_20",
"crs": { "type": "name", "properties": { "name": "urn:ogc:def:crs:EPSG::3857" } },
"features": [
{ "type": "Feature", "properties": { "id": "876", "STOPNUM": 1520, "STOPNAME": "La Brea / Market", "LAT": 33.957338, "LONG": -118.352418, "LINE_DIR1": "40-N", "LINE_DIR2": "111-E", "LINE_DIR3": 0, "LINE_DIR4": 0, "LINE_DIR5": 0, "LINE_DIR6": 0, "LINE_DIR7": 0, "LINE_DIR8": 0, "LINE_DIR9": 0, "LINE_DIR10": 0, "LINE_DIR11": 0, "LINE_DIR12": 0, "LINE_DIR13": 0, "LINE_DIR14": 0, "layer_id": "bus_stops", "feature_name": "Bus Stop", "heat_layer": 4.2037288242326341, "socioeconomic_layer": 3.6172299868484781, "heat_socio_layer": 7.8209588110811126, "heat_socio_public_layer": 1.144556251821824 }, "geometry": { "type": "Point", "coordinates": [ -13174930.905912665650249, 4023074.999364355579019 ] } },
{ "type": "Feature", "properties": { "id": "901", "STOPNUM": 1558, "STOPNAME": "Manchester / Grevillea", "LAT": 33.961632, "LONG": -118.354784, "LINE_DIR1": "115-E", "LINE_DIR2": "211-S", "LINE_DIR3": 0, "LINE_DIR4": 0, "LINE_DIR5": 0, "LINE_DIR6": 0, "LINE_DIR7": 0, "LINE_DIR8": 0, "LINE_DIR9": 0, "LINE_DIR10": 0, "LINE_DIR11": 0, "LINE_DIR12": 0, "LINE_DIR13": 0, "LINE_DIR14": 0, "layer_id": "bus_stops", "feature_name": "Bus Stop", "heat_layer": 2.5368506959751027, "socioeconomic_layer": 3.7690444724168422, "heat_socio_layer": 6.3058951683919453, "heat_socio_public_layer": 1.2260469925298372 }, "geometry": { "type": "Point", "coordinates": [ -13175194.287827882915735, 4023651.303923514205962 ] } },
{ "type": "Feature", "properties": { "id": "905", "STOPNUM": 1562, "STOPNAME": "Manchester / Market", "LAT": 33.961924, "LONG": -118.351755, "LINE_DIR1": "115-W", "LINE_DIR2": "212-N", "LINE_DIR3": 0, "LINE_DIR4": 0, "LINE_DIR5": 0, "LINE_DIR6": 0, "LINE_DIR7": 0, "LINE_DIR8": 0, "LINE_DIR9": 0, "LINE_DIR10": 0, "LINE_DIR11": 0, "LINE_DIR12": 0, "LINE_DIR13": 0, "LINE_DIR14": 0, "layer_id": "bus_stops", "feature_name": "Bus Stop", "heat_layer": 2.3802860598189861, "socioeconomic_layer": 3.7867722037426668, "heat_socio_layer": 6.1670582635616533, "heat_socio_public_layer": 0.97875841846009037 }, "geometry": { "type": "Point", "coordinates": [ -13174857.101090271025896, 4023690.494763553142548 ] } },
{ "type": "Feature", "properties": { "id": "906", "STOPNUM": 1563, "STOPNAME": "Manchester / Market", "LAT": 33.961669, "LONG": -118.351615, "LINE_DIR1": "115-E", "LINE_DIR2": "212-S", "LINE_DIR3": 0, "LINE_DIR4": 0, "LINE_DIR5": 0, "LINE_DIR6": 0, "LINE_DIR7": 0, "LINE_DIR8": 0, "LINE_DIR9": 0, "LINE_DIR10": 0, "LINE_DIR11": 0, "LINE_DIR12": 0, "LINE_DIR13": 0, "LINE_DIR14": 0, "layer_id": "bus_stops", "feature_name": "Bus Stop", "heat_layer": 2.4744893168840596, "socioeconomic_layer": 3.7889614703368588, "heat_socio_layer": 6.2634507872209184, "heat_socio_public_layer": 0.98169870574706675 }, "geometry": { "type": "Point", "coordinates": [ -13174841.516361556947231, 4023656.269878678955138 ] } },
{ "type": "Feature", "properties": { "id": "1637", "STOPNUM": 2767, "STOPNAME": "La Brea / Arbor Vitae", "LAT": 33.952975, "LONG": -118.352469, "LINE_DIR1": "111-E", "LINE_DIR2": "40-N", "LINE_DIR3": 0, "LINE_DIR4": 0, "LINE_DIR5": 0, "LINE_DIR6": 0, "LINE_DIR7": 0, "LINE_DIR8": 0, "LINE_DIR9": 0, "LINE_DIR10": 0, "LINE_DIR11": 0, "LINE_DIR12": 0, "LINE_DIR13": 0, "LINE_DIR14": 0, "layer_id": "bus_stops", "feature_name": "Bus Stop", "heat_layer": 5.0768381001969844, "socioeconomic_layer": 3.4707371834228757, "heat_socio_layer": 8.5475752836198602, "heat_socio_public_layer": 1.2536821195073973 }, "geometry": { "type": "Point", "coordinates": [ -13174936.583206696435809, 4022489.463995466940105 ] } },
{ "type": "Feature", "properties": { "id": "2979", "STOPNUM": 4953, "STOPNAME": "Eucalyptus / Manchester", "LAT": 33.961425, "LONG": -118.359615, "LINE_DIR1": "211-N", "LINE_DIR2": null, "LINE_DIR3": 0, "LINE_DIR4": 0, "LINE_DIR5": 0, "LINE_DIR6": 0, "LINE_DIR7": 0, "LINE_DIR8": 0, "LINE_DIR9": 0, "LINE_DIR10": 0, "LINE_DIR11": 0, "LINE_DIR12": 0, "LINE_DIR13": 0, "LINE_DIR14": 0, "layer_id": "bus_stops", "feature_name": "Bus Stop", "heat_layer": 2.8954929531715812, "socioeconomic_layer": 3.6489043577939606, "heat_socio_layer": 6.5443973109655413, "heat_socio_public_layer": 1.046726793345039 }, "geometry": { "type": "Point", "coordinates": [ -13175732.07228790409863, 4023623.521457437891513 ] } },
{ "type": "Feature", "properties": { "id": "3137", "STOPNUM": 5180, "STOPNAME": "La Brea / Queen", "LAT": 33.962763, "LONG": -118.353196, "LINE_DIR1": "212-N", "LINE_DIR2": null, "LINE_DIR3": 0, "LINE_DIR4": 0, "LINE_DIR5": 0, "LINE_DIR6": 0, "LINE_DIR7": 0, "LINE_DIR8": 0, "LINE_DIR9": 0, "LINE_DIR10": 0, "LINE_DIR11": 0, "LINE_DIR12": 0, "LINE_DIR13": 0, "LINE_DIR14": 0, "layer_id": "bus_stops", "feature_name": "Bus Stop", "heat_layer": 2.225137062932526, "socioeconomic_layer": 3.7551222337393466, "heat_socio_layer": 5.9802592966718731, "heat_socio_public_layer": 0.98854947444376484 }, "geometry": { "type": "Point", "coordinates": [ -13175017.51247650384903, 4023803.102069647051394 ] } },
{ "type": "Feature", "properties": { "id": "3157", "STOPNUM": 5201, "STOPNAME": "La Brea / Century", "LAT": 33.945734, "LONG": -118.352491, "LINE_DIR1": "40-N", "LINE_DIR2": null, "LINE_DIR3": 0, "LINE_DIR4": 0, "LINE_DIR5": 0, "LINE_DIR6": 0, "LINE_DIR7": 0, "LINE_DIR8": 0, "LINE_DIR9": 0, "LINE_DIR10": 0, "LINE_DIR11": 0, "LINE_DIR12": 0, "LINE_DIR13": 0, "LINE_DIR14": 0, "layer_id": "bus_stops", "feature_name": "Bus Stop", "heat_layer": 4.4055587411345805, "socioeconomic_layer": 3.7650610167229863, "heat_socio_layer": 8.1706197578575672, "heat_socio_public_layer": 0.93079641979612848 }, "geometry": { "type": "Point", "coordinates": [ -13174939.032235492020845, 4021517.75358002865687 ] } },
{ "type": "Feature", "properties": { "id": "4693", "STOPNUM": 7559, "STOPNAME": "Century / Freeman", "LAT": 33.945338, "LONG": -118.347937, "LINE_DIR1": "117-E", "LINE_DIR2": null, "LINE_DIR3": 0, "LINE_DIR4": 0, "LINE_DIR5": 0, "LINE_DIR6": 0, "LINE_DIR7": 0, "LINE_DIR8": 0, "LINE_DIR9": 0, "LINE_DIR10": 0, "LINE_DIR11": 0, "LINE_DIR12": 0, "LINE_DIR13": 0, "LINE_DIR14": 0, "layer_id": "bus_stops", "feature_name": "Bus Stop", "heat_layer": 4.3608995955423469, "socioeconomic_layer": 3.803172399144791, "heat_socio_layer": 8.1640719946871378, "heat_socio_public_layer": 0.92619241599940061 }, "geometry": { "type": "Point", "coordinates": [ -13174432.08327442035079, 4021464.61450243415311 ] } },
{ "type": "Feature", "properties": { "id": "4695", "STOPNUM": 7561, "STOPNAME": "Century / La Brea", "LAT": 33.945355, "LONG": -118.352279, "LINE_DIR1": "117-E", "LINE_DIR2": null, "LINE_DIR3": 0, "LINE_DIR4": 0, "LINE_DIR5": 0, "LINE_DIR6": 0, "LINE_DIR7": 0, "LINE_DIR8": 0, "LINE_DIR9": 0, "LINE_DIR10": 0, "LINE_DIR11": 0, "LINE_DIR12": 0, "LINE_DIR13": 0, "LINE_DIR14": 0, "layer_id": "bus_stops", "feature_name": "Bus Stop", "heat_layer": 4.4074268014028473, "socioeconomic_layer": 3.7675380936044807, "heat_socio_layer": 8.1749648950073279, "heat_socio_public_layer": 0.93098900199745738 }, "geometry": { "type": "Point", "coordinates": [ -13174915.432503445073962, 4021466.895720382686704 ] } },
{ "type": "Feature", "properties": { "id": "4860", "STOPNUM": 7835, "STOPNAME": "Manchester / Inglewood", "LAT": 33.961552, "LONG": -118.361396, "LINE_DIR1": "115-E", "LINE_DIR2": null, "LINE_DIR3": 0, "LINE_DIR4": 0, "LINE_DIR5": 0, "LINE_DIR6": 0, "LINE_DIR7": 0, "LINE_DIR8": 0, "LINE_DIR9": 0, "LINE_DIR10": 0, "LINE_DIR11": 0, "LINE_DIR12": 0, "LINE_DIR13": 0, "LINE_DIR14": 0, "layer_id": "bus_stops", "feature_name": "Bus Stop", "heat_layer": 3.1271489276189115, "socioeconomic_layer": 3.6337221725011606, "heat_socio_layer": 6.7608711001200721, "heat_socio_public_layer": 1.0647394782472559 }, "geometry": { "type": "Point", "coordinates": [ -13175930.332301005721092, 4023640.566730542108417 ] } },
{ "type": "Feature", "properties": { "id": "6029", "STOPNUM": 9939, "STOPNAME": "Florence / Centinela", "LAT": 33.96969, "LONG": -118.347672, "LINE_DIR1": "40-S", "LINE_DIR2": "111-W", "LINE_DIR3": 0, "LINE_DIR4": 0, "LINE_DIR5": 0, "LINE_DIR6": 0, "LINE_DIR7": 0, "LINE_DIR8": 0, "LINE_DIR9": 0, "LINE_DIR10": 0, "LINE_DIR11": 0, "LINE_DIR12": 0, "LINE_DIR13": 0, "LINE_DIR14": 0, "layer_id": "bus_stops", "feature_name": "Bus Stop", "heat_layer": 0.28877610342578913, "socioeconomic_layer": 3.2614875986321148, "heat_socio_layer": 3.550263702057904, "heat_socio_public_layer": 1.5063887699811778 }, "geometry": { "type": "Point", "coordinates": [ -13174402.58360935933888, 4024732.859423676505685 ] } },
{ "type": "Feature", "properties": { "id": "6108", "STOPNUM": 10102, "STOPNAME": "Manchester / Grevillea", "LAT": 33.96188, "LONG": -118.355366, "LINE_DIR1": "211-N", "LINE_DIR2": "115-W", "LINE_DIR3": 0, "LINE_DIR4": 0, "LINE_DIR5": 0, "LINE_DIR6": 0, "LINE_DIR7": 0, "LINE_DIR8": 0, "LINE_DIR9": 0, "LINE_DIR10": 0, "LINE_DIR11": 0, "LINE_DIR12": 0, "LINE_DIR13": 0, "LINE_DIR14": 0, "layer_id": "bus_stops", "feature_name": "Bus Stop", "heat_layer": 2.5053821934513381, "socioeconomic_layer": 3.7373967360560147, "heat_socio_layer": 6.2427789295073524, "heat_socio_public_layer": 1.4524616200566036 }, "geometry": { "type": "Point", "coordinates": [ -13175259.075771525502205, 4023684.589285897091031 ] } },
{ "type": "Feature", "properties": { "id": "6719", "STOPNUM": 11261, "STOPNAME": "La Brea / Arbor Vitae", "LAT": 33.952855, "LONG": -118.352789, "LINE_DIR1": "40-S", "LINE_DIR2": "111-W", "LINE_DIR3": 0, "LINE_DIR4": 0, "LINE_DIR5": 0, "LINE_DIR6": 0, "LINE_DIR7": 0, "LINE_DIR8": 0, "LINE_DIR9": 0, "LINE_DIR10": 0, "LINE_DIR11": 0, "LINE_DIR12": 0, "LINE_DIR13": 0, "LINE_DIR14": 0, "layer_id": "bus_stops", "feature_name": "Bus Stop", "heat_layer": 5.0649413643853043, "socioeconomic_layer": 3.466182023655243, "heat_socio_layer": 8.5311233880405482, "heat_socio_public_layer": 1.2599953471520307 }, "geometry": { "type": "Point", "coordinates": [ -13174972.205443749204278, 4022473.359848470427096 ] } },
{ "type": "Feature", "properties": { "id": "7164", "STOPNUM": 12143, "STOPNAME": "La Brea / Plymouth", "LAT": 33.974727, "LONG": -118.357798, "LINE_DIR1": "212-S", "LINE_DIR2": null, "LINE_DIR3": 0, "LINE_DIR4": 0, "LINE_DIR5": 0, "LINE_DIR6": 0, "LINE_DIR7": 0, "LINE_DIR8": 0, "LINE_DIR9": 0, "LINE_DIR10": 0, "LINE_DIR11": 0, "LINE_DIR12": 0, "LINE_DIR13": 0, "LINE_DIR14": 0, "layer_id": "bus_stops", "feature_name": "Bus Stop", "heat_layer": 3.616138374263453, "socioeconomic_layer": 3.3573742841977188, "heat_socio_layer": 6.9735126584611713, "heat_socio_public_layer": 1.4020727689169239 }, "geometry": { "type": "Point", "coordinates": [ -13175529.804773133248091, 4025408.98432923713699 ] } },
{ "type": "Feature", "properties": { "id": "7957", "STOPNUM": 13588, "STOPNAME": "Hawthorne / Century", "LAT": 33.945046, "LONG": -118.352795, "LINE_DIR1": "40-S", "LINE_DIR2": null, "LINE_DIR3": 0, "LINE_DIR4": 0, "LINE_DIR5": 0, "LINE_DIR6": 0, "LINE_DIR7": 0, "LINE_DIR8": 0, "LINE_DIR9": 0, "LINE_DIR10": 0, "LINE_DIR11": 0, "LINE_DIR12": 0, "LINE_DIR13": 0, "LINE_DIR14": 0, "layer_id": "bus_stops", "feature_name": "Bus Stop", "heat_layer": 4.3273729728080861, "socioeconomic_layer": 3.7508895801567044, "heat_socio_layer": 8.0782625529647909, "heat_socio_public_layer": 0.92273608703669763 }, "geometry": { "type": "Point", "coordinates": [ -13174972.873360693454742, 4021425.431300541386008 ] } },
{ "type": "Feature", "properties": { "id": "9398", "STOPNUM": 15907, "STOPNAME": "Century / Freeman", "LAT": 33.945595, "LONG": -118.348102, "LINE_DIR1": "117-W", "LINE_DIR2": null, "LINE_DIR3": 0, "LINE_DIR4": 0, "LINE_DIR5": 0, "LINE_DIR6": 0, "LINE_DIR7": 0, "LINE_DIR8": 0, "LINE_DIR9": 0, "LINE_DIR10": 0, "LINE_DIR11": 0, "LINE_DIR12": 0, "LINE_DIR13": 0, "LINE_DIR14": 0, "layer_id": "bus_stops", "feature_name": "Bus Stop", "heat_layer": 4.4258612417923091, "socioeconomic_layer": 3.8075842051299014, "heat_socio_layer": 8.2334454469222109, "heat_socio_public_layer": 0.93288944663020024 }, "geometry": { "type": "Point", "coordinates": [ -13174450.450990401208401, 4021499.10119887534529 ] } },
{ "type": "Feature", "properties": { "id": "9400", "STOPNUM": 15909, "STOPNAME": "Century / La Brea", "LAT": 33.945588, "LONG": -118.352445, "LINE_DIR1": "117-W", "LINE_DIR2": null, "LINE_DIR3": 0, "LINE_DIR4": 0, "LINE_DIR5": 0, "LINE_DIR6": 0, "LINE_DIR7": 0, "LINE_DIR8": 0, "LINE_DIR9": 0, "LINE_DIR10": 0, "LINE_DIR11": 0, "LINE_DIR12": 0, "LINE_DIR13": 0, "LINE_DIR14": 0, "layer_id": "bus_stops", "feature_name": "Bus Stop", "heat_layer": 4.4013515054195622, "socioeconomic_layer": 3.7660142166922599, "heat_socio_layer": 8.1673657221118212, "heat_socio_public_layer": 0.93036268715416226 }, "geometry": { "type": "Point", "coordinates": [ -13174933.911538917571306, 4021498.161871134769171 ] } },
{ "type": "Feature", "properties": { "id": "11370", "STOPNUM": 140974, "STOPNAME": "La Brea / Plymouth", "LAT": 33.974401, "LONG": -118.357487, "LINE_DIR1": "212-N", "LINE_DIR2": null, "LINE_DIR3": 0, "LINE_DIR4": 0, "LINE_DIR5": 0, "LINE_DIR6": 0, "LINE_DIR7": 0, "LINE_DIR8": 0, "LINE_DIR9": 0, "LINE_DIR10": 0, "LINE_DIR11": 0, "LINE_DIR12": 0, "LINE_DIR13": 0, "LINE_DIR14": 0, "layer_id": "bus_stops", "feature_name": "Bus Stop", "heat_layer": 3.6769234969144136, "socioeconomic_layer": 3.3941201670474728, "heat_socio_layer": 7.0710436639618859, "heat_socio_public_layer": 1.429141690757628 }, "geometry": { "type": "Point", "coordinates": [ -13175495.184411495923996, 4025365.22359364759177 ] } },
{ "type": "Feature", "properties": { "id": "11794", "STOPNUM": 25400175, "STOPNAME": "La Brea / Manchester", "LAT": 33.962323, "LONG": -118.353185, "LINE_DIR1": "40-N", "LINE_DIR2": "111-E", "LINE_DIR3": 0, "LINE_DIR4": 0, "LINE_DIR5": 0, "LINE_DIR6": 0, "LINE_DIR7": 0, "LINE_DIR8": 0, "LINE_DIR9": 0, "LINE_DIR10": 0, "LINE_DIR11": 0, "LINE_DIR12": 0, "LINE_DIR13": 0, "LINE_DIR14": 0, "layer_id": "bus_stops", "feature_name": "Bus Stop", "heat_layer": 2.3056400444220726, "socioeconomic_layer": 3.7859503062156175, "heat_socio_layer": 6.0915903506376896, "heat_socio_public_layer": 0.99031824374328092 }, "geometry": { "type": "Point", "coordinates": [ -13175016.287962103262544, 4023744.046848093159497 ] } }
]
}
