{
"type": "FeatureCollection",
"name": "optimized_shades_MILP_Inglewood_50_150",
"crs": { "type": "name", "properties": { "name": "urn:ogc:def:crs:EPSG::3857" } },
"features": [
{ "type": "Feature", "properties": { "id": "371", "STOPNUM": 617, "STOPNAME": "Centinela / Edgewood", "LAT": 33.975842, "LONG": -118.354594, "LINE_DIR1": "110-E", "LINE_DIR2": null, "LINE_DIR3": 0, "LINE_DIR4": 0, "LINE_DIR5": 0, "LINE_DIR6": 0, "LINE_DIR7": 0, "LINE_DIR8": 0, "LINE_DIR9": 0, "LINE_DIR10": 0, "LINE_DIR11": 0, "LINE_DIR12": 0, "LINE_DIR13": 0, "LINE_DIR14": 0, "layer_id": "bus_stops", "feature_name": "Bus Stop", "heat_layer": 2.2856253415014369, "socioeconomic_layer": 3.4029612570806727, "heat_socio_layer": 5.6885865985821091, "heat_socio_public_layer": 0.75248370119102648 }, "geometry": { "type": "Point", "coordinates": [ -13175173.137124633416533, 4025558.658052122220397 ] } },
{ "type": "Feature", "properties": { "id": "376", "STOPNUM": 623, "STOPNAME": "Centinela / Inglewood", "LAT": 33.976453, "LONG": -118.36149, "LINE_DIR1": "110-E", "LINE_DIR2": null, "LINE_DIR3": 0, "LINE_DIR4": 0, "LINE_DIR5": 0, "LINE_DIR6": 0, "LINE_DIR7": 0, "LINE_DIR8": 0, "LINE_DIR9": 0, "LINE_DIR10": 0, "LINE_DIR11": 0, "LINE_DIR12": 0, "LINE_DIR13": 0, "LINE_DIR14": 0, "layer_id": "bus_stops", "feature_name": "Bus Stop", "heat_layer": 3.9218679505381897, "socioeconomic_layer": 3.254495092230751, "heat_socio_layer": 7.1763630427689407, "heat_socio_public_layer": 0.90416609522750757 }, "geometry": { "type": "Point", "coordinates": [ -13175940.796333141624928, 4025640.677400046959519 ] } },
{ "type": "Feature", "properties": { "id": "740", "STOPNUM": 1280, "STOPNAME": "Arbor Vitae / Grevillea", "LAT": 33.952607, "LONG": -118.355122, "LINE_DIR1": "111-E", "LINE_DIR2": null, "LINE_DIR3": 0, "LINE_DIR4": 0, "LINE_DIR5": 0, "LINE_DIR6": 0, "LINE_DIR7": 0, "LINE_DIR8": 0, "LINE_DIR9": 0, "LINE_DIR10": 0, "LINE_DIR11": 0, "LINE_DIR12": 0, "LINE_DIR13": 0, "LINE_DIR14": 0, "layer_id": "bus_stops", "feature_name": "Bus Stop", "heat_layer": 4.812050453312354, "socioeconomic_layer": 3.2721565665749957, "heat_socio_layer": 8.0842070198873497, "heat_socio_public_layer": 1.2514553973738134 }, "geometry": { "type": "Point", "coordinates": [ -13175231.913815768435597, 4022440.07801664294675 ] } },
{ "type": "Feature", "properties": { "id": "823", "STOPNUM": 1422, "STOPNAME": "Florence / Hillcrest", "LAT": 33.968814, "LONG": -118.348925, "LINE_DIR1": "40-N", "LINE_DIR2": "111-E", "LINE_DIR3": 0, "LINE_DIR4": 0, "LINE_DIR5": 0, "LINE_DIR6": 0, "LINE_DIR7": 0, "LINE_DIR8": 0, "LINE_DIR9": 0, "LINE_DIR10": 0, "LINE_DIR11": 0, "LINE_DIR12": 0, "LINE_DIR13": 0, "LINE_DIR14": 0, "layer_id": "bus_stops", "feature_name": "Bus Stop", "heat_layer": 1.4764639707108742, "socioeconomic_layer": 3.2436968182108092, "heat_socio_layer": 4.7201607889216834, "heat_socio_public_layer": 1.2031665300637318 }, "geometry": { "type": "Point", "coordinates": [ -13174542.066931322216988, 4024615.276571693364531 ] } },
{ "type": "Feature", "properties": { "id": "876", "STOPNUM": 1520, "STOPNAME": "La Brea / Market", "LAT": 33.957338, "LONG": -118.352418, "LINE_DIR1": "40-N", "LINE_DIR2": "111-E", "LINE_DIR3": 0, "LINE_DIR4": 0, "LINE_DIR5": 0, "LINE_DIR6": 0, "LINE_DIR7": 0, "LINE_DIR8": 0, "LINE_DIR9": 0, "LINE_DIR10": 0, "LINE_DIR11": 0, "LINE_DIR12": 0, "LINE_DIR13": 0, "LINE_DIR14": 0, "layer_id": "bus_stops", "feature_name": "Bus Stop", "heat_layer": 4.1518062046381408, "socioeconomic_layer": 3.5916211714596891, "heat_socio_layer": 7.7434273760978298, "heat_socio_public_layer": 1.1600486474930478 }, "geometry": { "type": "Point", "coordinates": [ -13174930.905912665650249, 4023074.999364355579019 ] } },
{ "type": "Feature", "properties": { "id": "1377", "STOPNUM": 2343, "STOPNAME": "La Brea / Regent", "LAT": 33.964598, "LONG": -118.353524, "LINE_DIR1": "40-S", "LINE_DIR2": "212-S", "LINE_DIR3": 0, "LINE_DIR4": 0, "LINE_DIR5": 0, "LINE_DIR6": 0, "LINE_DIR7": 0, "LINE_DIR8": 0, "LINE_DIR9": 0, "LINE_DIR10": 0, "LINE_DIR11": 0, "LINE_DIR12": 0, "LINE_DIR13": 0, "LINE_DIR14": 0, "layer_id": "bus_stops", "feature_name": "Bus Stop", "heat_layer": 1.6616556394290378, "socioeconomic_layer": 3.5641609393355731, "heat_socio_layer": 5.2258165787646114, "heat_socio_public_layer": 0.93473142959653688 }, "geometry": { "type": "Point", "coordinates": [ -13175054.025269482284784, 4024049.392480323556811 ] } },
{ "type": "Feature", "properties": { "id": "1637", "STOPNUM": 2767, "STOPNAME": "La Brea / Arbor Vitae", "LAT": 33.952975, "LONG": -118.352469, "LINE_DIR1": "111-E", "LINE_DIR2": "40-N", "LINE_DIR3": 0, "LINE_DIR4": 0, "LINE_DIR5": 0, "LINE_DIR6": 0, "LINE_DIR7": 0, "LINE_DIR8": 0, "LINE_DIR9": 0, "LINE_DIR10": 0, "LINE_DIR11": 0, "LINE_DIR12": 0, "LINE_DIR13": 0, "LINE_DIR14": 0, "layer_id": "bus_stops", "feature_name": "Bus Stop", "heat_layer": 4.9496343588596128, "socioeconomic_layer": 3.4456272271949269, "heat_socio_layer": 8.3952615860545396, "heat_socio_public_layer": 1.2531238603820252 }, "geometry": { "type": "Point", "coordinates": [ -13174936.583206696435809, 4022489.463995466940105 ] } },
{ "type": "Feature", "properties": { "id": "2180", "STOPNUM": 3650, "STOPNAME": "La Brea / Hyde Park", "LAT": 33.971585, "LONG": -118.35735, "LINE_DIR1": "212-N", "LINE_DIR2": null, "LINE_DIR3": 0, "LINE_DIR4": 0, "LINE_DIR5": 0, "LINE_DIR6": 0, "LINE_DIR7": 0, "LINE_DIR8": 0, "LINE_DIR9": 0, "LINE_DIR10": 0, "LINE_DIR11": 0, "LINE_DIR12": 0, "LINE_DIR13": 0, "LINE_DIR14": 0, "layer_id": "bus_stops", "feature_name": "Bus Stop", "heat_layer": 4.1798954771991328, "socioeconomic_layer": 3.5718423551340841, "heat_socio_layer": 7.7517378323332169, "heat_socio_public_layer": 0.92808567338485926 }, "geometry": { "type": "Point", "coordinates": [ -13175479.933641256764531, 4024987.223732779733837 ] } },
{ "type": "Feature", "properties": { "id": "2937", "STOPNUM": 4883, "STOPNAME": "Century / Prairie", "LAT": 33.945596, "LONG": -118.344248, "LINE_DIR1": "117-W", "LINE_DIR2": null, "LINE_DIR3": 0, "LINE_DIR4": 0, "LINE_DIR5": 0, "LINE_DIR6": 0, "LINE_DIR7": 0, "LINE_DIR8": 0, "LINE_DIR9": 0, "LINE_DIR10": 0, "LINE_DIR11": 0, "LINE_DIR12": 0, "LINE_DIR13": 0, "LINE_DIR14": 0, "layer_id": "bus_stops", "feature_name": "Bus Stop", "heat_layer": 2.5323953530344343, "socioeconomic_layer": 3.6854927590816406, "heat_socio_layer": 6.217888112116075, "heat_socio_public_layer": 0.77535968909099351 }, "geometry": { "type": "Point", "coordinates": [ -13174021.425672883167863, 4021499.23538856068626 ] } },
{ "type": "Feature", "properties": { "id": "2980", "STOPNUM": 4954, "STOPNAME": "Eucalyptus / Spruce", "LAT": 33.955493, "LONG": -118.359533, "LINE_DIR1": "211-N", "LINE_DIR2": null, "LINE_DIR3": 0, "LINE_DIR4": 0, "LINE_DIR5": 0, "LINE_DIR6": 0, "LINE_DIR7": 0, "LINE_DIR8": 0, "LINE_DIR9": 0, "LINE_DIR10": 0, "LINE_DIR11": 0, "LINE_DIR12": 0, "LINE_DIR13": 0, "LINE_DIR14": 0, "layer_id": "bus_stops", "feature_name": "Bus Stop", "heat_layer": 4.4293973855861122, "socioeconomic_layer": 3.6548349639220183, "heat_socio_layer": 8.084232349508131, "heat_socio_public_layer": 0.95121491263813052 }, "geometry": { "type": "Point", "coordinates": [ -13175722.944089658558369, 4022827.387917995452881 ] } },
{ "type": "Feature", "properties": { "id": "3096", "STOPNUM": 5122, "STOPNAME": "Hawthorne / 104th", "LAT": 33.942104, "LONG": -118.352486, "LINE_DIR1": "40-N", "LINE_DIR2": null, "LINE_DIR3": 0, "LINE_DIR4": 0, "LINE_DIR5": 0, "LINE_DIR6": 0, "LINE_DIR7": 0, "LINE_DIR8": 0, "LINE_DIR9": 0, "LINE_DIR10": 0, "LINE_DIR11": 0, "LINE_DIR12": 0, "LINE_DIR13": 0, "LINE_DIR14": 0, "layer_id": "bus_stops", "feature_name": "Bus Stop", "heat_layer": 4.360133973924067, "socioeconomic_layer": 3.6427446892143034, "heat_socio_layer": 8.0028786631383699, "heat_socio_public_layer": 0.94479407990708586 }, "geometry": { "type": "Point", "coordinates": [ -13174938.475638039410114, 4021030.654621789231896 ] } },
{ "type": "Feature", "properties": { "id": "3136", "STOPNUM": 5176, "STOPNAME": "La Brea / Hardy", "LAT": 33.948952, "LONG": -118.352489, "LINE_DIR1": "40-N", "LINE_DIR2": null, "LINE_DIR3": 0, "LINE_DIR4": 0, "LINE_DIR5": 0, "LINE_DIR6": 0, "LINE_DIR7": 0, "LINE_DIR8": 0, "LINE_DIR9": 0, "LINE_DIR10": 0, "LINE_DIR11": 0, "LINE_DIR12": 0, "LINE_DIR13": 0, "LINE_DIR14": 0, "layer_id": "bus_stops", "feature_name": "Bus Stop", "heat_layer": 4.7475935966327576, "socioeconomic_layer": 3.6258469898951424, "heat_socio_layer": 8.3734405865279005, "heat_socio_public_layer": 0.98071222727737328 }, "geometry": { "type": "Point", "coordinates": [ -13174938.809596512466669, 4021949.584848005790263 ] } },
{ "type": "Feature", "properties": { "id": "4690", "STOPNUM": 7556, "STOPNAME": "Century / Felton", "LAT": 33.945316, "LONG": -118.365358, "LINE_DIR1": "117-E", "LINE_DIR2": null, "LINE_DIR3": 0, "LINE_DIR4": 0, "LINE_DIR5": 0, "LINE_DIR6": 0, "LINE_DIR7": 0, "LINE_DIR8": 0, "LINE_DIR9": 0, "LINE_DIR10": 0, "LINE_DIR11": 0, "LINE_DIR12": 0, "LINE_DIR13": 0, "LINE_DIR14": 0, "layer_id": "bus_stops", "feature_name": "Bus Stop", "heat_layer": 1.7986452618784032, "socioeconomic_layer": 3.6388288509101843, "heat_socio_layer": 5.4374741127885873, "heat_socio_public_layer": 0.70733984298971586 }, "geometry": { "type": "Point", "coordinates": [ -13176371.380123531445861, 4021461.662338704336435 ] } },
{ "type": "Feature", "properties": { "id": "4692", "STOPNUM": 7558, "STOPNAME": "Century / Firmona", "LAT": 33.945327, "LONG": -118.357139, "LINE_DIR1": "117-E", "LINE_DIR2": null, "LINE_DIR3": 0, "LINE_DIR4": 0, "LINE_DIR5": 0, "LINE_DIR6": 0, "LINE_DIR7": 0, "LINE_DIR8": 0, "LINE_DIR9": 0, "LINE_DIR10": 0, "LINE_DIR11": 0, "LINE_DIR12": 0, "LINE_DIR13": 0, "LINE_DIR14": 0, "layer_id": "bus_stops", "feature_name": "Bus Stop", "heat_layer": 3.6674163130810684, "socioeconomic_layer": 3.7087102689771041, "heat_socio_layer": 7.3761265820581725, "heat_socio_public_layer": 0.8805780079091361 }, "geometry": { "type": "Point", "coordinates": [ -13175456.445228699594736, 4021463.138420474715531 ] } },
{ "type": "Feature", "properties": { "id": "4695", "STOPNUM": 7561, "STOPNAME": "Century / La Brea", "LAT": 33.945355, "LONG": -118.352279, "LINE_DIR1": "117-E", "LINE_DIR2": null, "LINE_DIR3": 0, "LINE_DIR4": 0, "LINE_DIR5": 0, "LINE_DIR6": 0, "LINE_DIR7": 0, "LINE_DIR8": 0, "LINE_DIR9": 0, "LINE_DIR10": 0, "LINE_DIR11": 0, "LINE_DIR12": 0, "LINE_DIR13": 0, "LINE_DIR14": 0, "layer_id": "bus_stops", "feature_name": "Bus Stop", "heat_layer": 4.3854364591994477, "socioeconomic_layer": 3.8116363056486837, "heat_socio_layer": 8.1970727648481319, "heat_socio_public_layer": 0.94713966210892175 }, "geometry": { "type": "Point", "coordinates": [ -13174915.432503445073962, 4021466.895720382686704 ] } },
{ "type": "Feature", "properties": { "id": "4697", "STOPNUM": 7563, "STOPNAME": "Century / La Cienega", "LAT": 33.945292, "LONG": -118.36972, "LINE_DIR1": "117-E", "LINE_DIR2": null, "LINE_DIR3": 0, "LINE_DIR4": 0, "LINE_DIR5": 0, "LINE_DIR6": 0, "LINE_DIR7": 0, "LINE_DIR8": 0, "LINE_DIR9": 0, "LINE_DIR10": 0, "LINE_DIR11": 0, "LINE_DIR12": 0, "LINE_DIR13": 0, "LINE_DIR14": 0, "layer_id": "bus_stops", "feature_name": "Bus Stop", "heat_layer": 0.47001192009915299, "socioeconomic_layer": 3.882014876096445, "heat_socio_layer": 4.3520267961955978, "heat_socio_public_layer": 0.82154865095794971 }, "geometry": { "type": "Point", "coordinates": [ -13176856.955742370337248, 4021458.44179732631892 ] } },
{ "type": "Feature", "properties": { "id": "4784", "STOPNUM": 7735, "STOPNAME": "Imperial / Yukon", "LAT": 33.930843, "LONG": -118.335313, "LINE_DIR1": "120-E", "LINE_DIR2": null, "LINE_DIR3": 0, "LINE_DIR4": 0, "LINE_DIR5": 0, "LINE_DIR6": 0, "LINE_DIR7": 0, "LINE_DIR8": 0, "LINE_DIR9": 0, "LINE_DIR10": 0, "LINE_DIR11": 0, "LINE_DIR12": 0, "LINE_DIR13": 0, "LINE_DIR14": 0, "layer_id": "bus_stops", "feature_name": "Bus Stop", "heat_layer": 0.025310127529043346, "socioeconomic_layer": 3.3321033277817174, "heat_socio_layer": 3.3574134553107609, "heat_socio_public_layer": 0.82582244947687855 }, "geometry": { "type": "Point", "coordinates": [ -13173026.786022646352649, 4019519.706495236139745 ] } },
{ "type": "Feature", "properties": { "id": "4858", "STOPNUM": 7833, "STOPNAME": "Manchester / Fir", "LAT": 33.961596, "LONG": -118.357528, "LINE_DIR1": "115-E", "LINE_DIR2": "211-S", "LINE_DIR3": 0, "LINE_DIR4": 0, "LINE_DIR5": 0, "LINE_DIR6": 0, "LINE_DIR7": 0, "LINE_DIR8": 0, "LINE_DIR9": 0, "LINE_DIR10": 0, "LINE_DIR11": 0, "LINE_DIR12": 0, "LINE_DIR13": 0, "LINE_DIR14": 0, "layer_id": "bus_stops", "feature_name": "Bus Stop", "heat_layer": 2.6623044315988467, "socioeconomic_layer": 3.6941678798227375, "heat_socio_layer": 6.3564723114215838, "heat_socio_public_layer": 1.0305591816269486 }, "geometry": { "type": "Point", "coordinates": [ -13175499.748510619625449, 4023646.472185427322984 ] } },
{ "type": "Feature", "properties": { "id": "4860", "STOPNUM": 7835, "STOPNAME": "Manchester / Inglewood", "LAT": 33.961552, "LONG": -118.361396, "LINE_DIR1": "115-E", "LINE_DIR2": null, "LINE_DIR3": 0, "LINE_DIR4": 0, "LINE_DIR5": 0, "LINE_DIR6": 0, "LINE_DIR7": 0, "LINE_DIR8": 0, "LINE_DIR9": 0, "LINE_DIR10": 0, "LINE_DIR11": 0, "LINE_DIR12": 0, "LINE_DIR13": 0, "LINE_DIR14": 0, "layer_id": "bus_stops", "feature_name": "Bus Stop", "heat_layer": 3.3221001853815109, "socioeconomic_layer": 3.6726015165082351, "heat_socio_layer": 6.9947017018897455, "heat_socio_public_layer": 1.1143036055606959 }, "geometry": { "type": "Point", "coordinates": [ -13175930.332301005721092, 4023640.566730542108417 ] } },
{ "type": "Feature", "properties": { "id": "4861", "STOPNUM": 7836, "STOPNAME": "Manchester / La Cienega", "LAT": 33.961481, "LONG": -118.370247, "LINE_DIR1": "115-E", "LINE_DIR2": null, "LINE_DIR3": 0, "LINE_DIR4": 0, "LINE_DIR5": 0, "LINE_DIR6": 0, "LINE_DIR7": 0, "LINE_DIR8": 0, "LINE_DIR9": 0, "LINE_DIR10": 0, "LINE_DIR11": 0, "LINE_DIR12": 0, "LINE_DIR13": 0, "LINE_DIR14": 0, "layer_id": "bus_stops", "feature_name": "Bus Stop", "heat_layer": 2.9240120151895623, "socioeconomic_layer": 3.4684607128124236, "heat_socio_layer": 6.3924727280019855, "heat_socio_public_layer": 0.81166320088820487 }, "geometry": { "type": "Point", "coordinates": [ -13176915.621114017441869, 4023631.037480236962438 ] } },
{ "type": "Feature", "properties": { "id": "5765", "STOPNUM": 9392, "STOPNAME": "Crenshaw / 111th", "LAT": 33.934021, "LONG": -118.326633, "LINE_DIR1": "210-S", "LINE_DIR2": null, "LINE_DIR3": 0, "LINE_DIR4": 0, "LINE_DIR5": 0, "LINE_DIR6": 0, "LINE_DIR7": 0, "LINE_DIR8": 0, "LINE_DIR9": 0, "LINE_DIR10": 0, "LINE_DIR11": 0, "LINE_DIR12": 0, "LINE_DIR13": 0, "LINE_DIR14": 0, "layer_id": "bus_stops", "feature_name": "Bus Stop", "heat_layer": 1.0266646095394585, "socioeconomic_layer": 3.5251537897204281, "heat_socio_layer": 4.5518183992598864, "heat_socio_public_layer": 0.63577596068405384 }, "geometry": { "type": "Point", "coordinates": [ -13172060.532842561602592, 4019946.095380862243474 ] } },
{ "type": "Feature", "properties": { "id": "5779", "STOPNUM": 9426, "STOPNAME": "Crenshaw / 104th", "LAT": 33.941575, "LONG": -118.326629, "LINE_DIR1": "210-S", "LINE_DIR2": null, "LINE_DIR3": 0, "LINE_DIR4": 0, "LINE_DIR5": 0, "LINE_DIR6": 0, "LINE_DIR7": 0, "LINE_DIR8": 0, "LINE_DIR9": 0, "LINE_DIR10": 0, "LINE_DIR11": 0, "LINE_DIR12": 0, "LINE_DIR13": 0, "LINE_DIR14": 0, "layer_id": "bus_stops", "feature_name": "Bus Stop", "heat_layer": 0.75278301464565001, "socioeconomic_layer": 3.5821210834237323, "heat_socio_layer": 4.3349040980693818, "heat_socio_public_layer": 0.61038668419987852 }, "geometry": { "type": "Point", "coordinates": [ -13172060.087564596906304, 4020959.671411212999374 ] } },
{ "type": "Feature", "properties": { "id": "6107", "STOPNUM": 10100, "STOPNAME": "Manchester / Spruce", "LAT": 33.960914, "LONG": -118.347282, "LINE_DIR1": "115-W", "LINE_DIR2": "212-N", "LINE_DIR3": 0, "LINE_DIR4": 0, "LINE_DIR5": 0, "LINE_DIR6": 0, "LINE_DIR7": 0, "LINE_DIR8": 0, "LINE_DIR9": 0, "LINE_DIR10": 0, "LINE_DIR11": 0, "LINE_DIR12": 0, "LINE_DIR13": 0, "LINE_DIR14": 0, "layer_id": "bus_stops", "feature_name": "Bus Stop", "heat_layer": 3.084194748086039, "socioeconomic_layer": 3.6692158817710765, "heat_socio_layer": 6.7534106298571155, "heat_socio_public_layer": 0.82651240495785516 }, "geometry": { "type": "Point", "coordinates": [ -13174359.169007951393723, 4023554.937977958470583 ] } },
{ "type": "Feature", "properties": { "id": "6840", "STOPNUM": 11449, "STOPNAME": "Prairie / Lennox", "LAT": 33.938356, "LONG": -118.344057, "LINE_DIR1": "211-S", "LINE_DIR2": "212-S", "LINE_DIR3": 0, "LINE_DIR4": 0, "LINE_DIR5": 0, "LINE_DIR6": 0, "LINE_DIR7": 0, "LINE_DIR8": 0, "LINE_DIR9": 0, "LINE_DIR10": 0, "LINE_DIR11": 0, "LINE_DIR12": 0, "LINE_DIR13": 0, "LINE_DIR14": 0, "layer_id": "bus_stops", "feature_name": "Bus Stop", "heat_layer": 3.0630207331567294, "socioeconomic_layer": 3.6446221513434245, "heat_socio_layer": 6.7076428845001539, "heat_socio_public_layer": 0.82454953878012338 }, "geometry": { "type": "Point", "coordinates": [ -13174000.163650142028928, 4020527.743386207148433 ] } },
{ "type": "Feature", "properties": { "id": "6913", "STOPNUM": 11616, "STOPNAME": "Manchester / Crenshaw Drive", "LAT": 33.960114, "LONG": -118.331981, "LINE_DIR1": "115-W", "LINE_DIR2": null, "LINE_DIR3": 0, "LINE_DIR4": 0, "LINE_DIR5": 0, "LINE_DIR6": 0, "LINE_DIR7": 0, "LINE_DIR8": 0, "LINE_DIR9": 0, "LINE_DIR10": 0, "LINE_DIR11": 0, "LINE_DIR12": 0, "LINE_DIR13": 0, "LINE_DIR14": 0, "layer_id": "bus_stops", "feature_name": "Bus Stop", "heat_layer": -1.3321762313119985, "socioeconomic_layer": 3.2904206236653963, "heat_socio_layer": 1.9582443923533979, "heat_socio_public_layer": 0.69703019405289912 }, "geometry": { "type": "Point", "coordinates": [ -13172655.869479320943356, 4023447.567408852279186 ] } },
{ "type": "Feature", "properties": { "id": "7162", "STOPNUM": 12141, "STOPNAME": "La Brea / Hazel", "LAT": 33.968935, "LONG": -118.355834, "LINE_DIR1": "212-S", "LINE_DIR2": null, "LINE_DIR3": 0, "LINE_DIR4": 0, "LINE_DIR5": 0, "LINE_DIR6": 0, "LINE_DIR7": 0, "LINE_DIR8": 0, "LINE_DIR9": 0, "LINE_DIR10": 0, "LINE_DIR11": 0, "LINE_DIR12": 0, "LINE_DIR13": 0, "LINE_DIR14": 0, "layer_id": "bus_stops", "feature_name": "Bus Stop", "heat_layer": 3.2637758033666904, "socioeconomic_layer": 3.54343606355611, "heat_socio_layer": 6.8072118669228008, "heat_socio_public_layer": 0.8431598655716589 }, "geometry": { "type": "Point", "coordinates": [ -13175311.173293216153979, 4024631.51796659687534 ] } },
{ "type": "Feature", "properties": { "id": "7183", "STOPNUM": 12180, "STOPNAME": "Locust / Regent", "LAT": 33.964343, "LONG": -118.350317, "LINE_DIR1": "211-S", "LINE_DIR2": null, "LINE_DIR3": 0, "LINE_DIR4": 0, "LINE_DIR5": 0, "LINE_DIR6": 0, "LINE_DIR7": 0, "LINE_DIR8": 0, "LINE_DIR9": 0, "LINE_DIR10": 0, "LINE_DIR11": 0, "LINE_DIR12": 0, "LINE_DIR13": 0, "LINE_DIR14": 0, "layer_id": "bus_stops", "feature_name": "Bus Stop", "heat_layer": 1.6600695528852798, "socioeconomic_layer": 3.6934417176991632, "heat_socio_layer": 5.353511270584443, "heat_socio_public_layer": 0.69449364574531469 }, "geometry": { "type": "Point", "coordinates": [ -13174697.023662507534027, 4024015.166519549675286 ] } },
{ "type": "Feature", "properties": { "id": "7184", "STOPNUM": 12181, "STOPNAME": "Locust / Grace", "LAT": 33.966596, "LONG": -118.35036, "LINE_DIR1": "211-S", "LINE_DIR2": null, "LINE_DIR3": 0, "LINE_DIR4": 0, "LINE_DIR5": 0, "LINE_DIR6": 0, "LINE_DIR7": 0, "LINE_DIR8": 0, "LINE_DIR9": 0, "LINE_DIR10": 0, "LINE_DIR11": 0, "LINE_DIR12": 0, "LINE_DIR13": 0, "LINE_DIR14": 0, "layer_id": "bus_stops", "feature_name": "Bus Stop", "heat_layer": 1.0221608084195255, "socioeconomic_layer": 3.1762515956540827, "heat_socio_layer": 4.1984124040736077, "heat_socio_public_layer": 0.91557391618091111 }, "geometry": { "type": "Point", "coordinates": [ -13174701.810400610789657, 4024317.56650118669495 ] } },
{ "type": "Feature", "properties": { "id": "7249", "STOPNUM": 12316, "STOPNAME": "Grace / Prairie", "LAT": 33.968568, "LONG": -118.345068, "LINE_DIR1": "211-N", "LINE_DIR2": null, "LINE_DIR3": 0, "LINE_DIR4": 0, "LINE_DIR5": 0, "LINE_DIR6": 0, "LINE_DIR7": 0, "LINE_DIR8": 0, "LINE_DIR9": 0, "LINE_DIR10": 0, "LINE_DIR11": 0, "LINE_DIR12": 0, "LINE_DIR13": 0, "LINE_DIR14": 0, "layer_id": "bus_stops", "feature_name": "Bus Stop", "heat_layer": -1.9553582591873262, "socioeconomic_layer": 3.0526690862844705, "heat_socio_layer": 1.0973108270971443, "heat_socio_public_layer": 0.89776057587870239 }, "geometry": { "type": "Point", "coordinates": [ -13174112.707655334845185, 4024582.256947516463697 ] } },
{ "type": "Feature", "properties": { "id": "7527", "STOPNUM": 12863, "STOPNAME": "Prairie / Hardy", "LAT": 33.949278, "LONG": -118.344075, "LINE_DIR1": "211-S", "LINE_DIR2": "212-S", "LINE_DIR3": 0, "LINE_DIR4": 0, "LINE_DIR5": 0, "LINE_DIR6": 0, "LINE_DIR7": 0, "LINE_DIR8": 0, "LINE_DIR9": 0, "LINE_DIR10": 0, "LINE_DIR11": 0, "LINE_DIR12": 0, "LINE_DIR13": 0, "LINE_DIR14": 0, "layer_id": "bus_stops", "feature_name": "Bus Stop", "heat_layer": 1.7808269104059702, "socioeconomic_layer": 3.5303088021864526, "heat_socio_layer": 5.3111357125924226, "heat_socio_public_layer": 0.70568805236026078 }, "geometry": { "type": "Point", "coordinates": [ -13174002.167400976642966, 4021993.332493854686618 ] } },
{ "type": "Feature", "properties": { "id": "7528", "STOPNUM": 12864, "STOPNAME": "Prairie / Kelso", "LAT": 33.956505, "LONG": -118.344089, "LINE_DIR1": "211-S", "LINE_DIR2": "212-S", "LINE_DIR3": 0, "LINE_DIR4": 0, "LINE_DIR5": 0, "LINE_DIR6": 0, "LINE_DIR7": 0, "LINE_DIR8": 0, "LINE_DIR9": 0, "LINE_DIR10": 0, "LINE_DIR11": 0, "LINE_DIR12": 0, "LINE_DIR13": 0, "LINE_DIR14": 0, "layer_id": "bus_stops", "feature_name": "Bus Stop", "heat_layer": 0.98220146995581592, "socioeconomic_layer": 3.2564881833149193, "heat_socio_layer": 4.2386896532707352, "heat_socio_public_layer": 0.89730242033463958 }, "geometry": { "type": "Point", "coordinates": [ -13174003.725873848423362, 4022963.204480094835162 ] } },
{ "type": "Feature", "properties": { "id": "7529", "STOPNUM": 12866, "STOPNAME": "Prairie / 111th", "LAT": 33.934712, "LONG": -118.344055, "LINE_DIR1": "212-S", "LINE_DIR2": "211-S", "LINE_DIR3": 0, "LINE_DIR4": 0, "LINE_DIR5": 0, "LINE_DIR6": 0, "LINE_DIR7": 0, "LINE_DIR8": 0, "LINE_DIR9": 0, "LINE_DIR10": 0, "LINE_DIR11": 0, "LINE_DIR12": 0, "LINE_DIR13": 0, "LINE_DIR14": 0, "layer_id": "bus_stops", "feature_name": "Bus Stop", "heat_layer": 2.5886205769911088, "socioeconomic_layer": 3.6059416945376035, "heat_socio_layer": 6.1945622715287119, "heat_socio_public_layer": 0.78057186027385139 }, "geometry": { "type": "Point", "coordinates": [ -13173999.941011160612106, 4020038.808223242405802 ] } },
{ "type": "Feature", "properties": { "id": "7973", "STOPNUM": 13619, "STOPNAME": "Inglewood / Century", "LAT": 33.945175, "LONG": -118.36117, "LINE_DIR1": "211-S", "LINE_DIR2": null, "LINE_DIR3": 0, "LINE_DIR4": 0, "LINE_DIR5": 0, "LINE_DIR6": 0, "LINE_DIR7": 0, "LINE_DIR8": 0, "LINE_DIR9": 0, "LINE_DIR10": 0, "LINE_DIR11": 0, "LINE_DIR12": 0, "LINE_DIR13": 0, "LINE_DIR14": 0, "layer_id": "bus_stops", "feature_name": "Bus Stop", "heat_layer": 2.7445576389976449, "socioeconomic_layer": 3.5324963529132813, "heat_socio_layer": 6.2770539919109263, "heat_socio_public_layer": 0.79502748363528619 }, "geometry": { "type": "Point", "coordinates": [ -13175905.174096088856459, 4021442.741671103984118 ] } },
{ "type": "Feature", "properties": { "id": "8011", "STOPNUM": 13675, "STOPNAME": "La Tijera / Fairview", "LAT": 33.980042, "LONG": -118.369537, "LINE_DIR1": "102-W", "LINE_DIR2": null, "LINE_DIR3": 0, "LINE_DIR4": 0, "LINE_DIR5": 0, "LINE_DIR6": 0, "LINE_DIR7": 0, "LINE_DIR8": 0, "LINE_DIR9": 0, "LINE_DIR10": 0, "LINE_DIR11": 0, "LINE_DIR12": 0, "LINE_DIR13": 0, "LINE_DIR14": 0, "layer_id": "bus_stops", "feature_name": "Bus Stop", "heat_layer": 1.274137685819108, "socioeconomic_layer": 3.0192175900745108, "heat_socio_layer": 4.2933552758936191, "heat_socio_public_layer": 0.92009241114627505 }, "geometry": { "type": "Point", "coordinates": [ -13176836.584275554865599, 4026122.469071069266647 ] } },
{ "type": "Feature", "properties": { "id": "8014", "STOPNUM": 13682, "STOPNAME": "Locust / Manchester", "LAT": 33.962019, "LONG": -118.350281, "LINE_DIR1": "211-S", "LINE_DIR2": null, "LINE_DIR3": 0, "LINE_DIR4": 0, "LINE_DIR5": 0, "LINE_DIR6": 0, "LINE_DIR7": 0, "LINE_DIR8": 0, "LINE_DIR9": 0, "LINE_DIR10": 0, "LINE_DIR11": 0, "LINE_DIR12": 0, "LINE_DIR13": 0, "LINE_DIR14": 0, "layer_id": "bus_stops", "feature_name": "Bus Stop", "heat_layer": 2.6048040739194693, "socioeconomic_layer": 4.1857460478731978, "heat_socio_layer": 6.7905501217926671, "heat_socio_public_layer": 0.78207209718518633 }, "geometry": { "type": "Point", "coordinates": [ -13174693.016160840168595, 4023703.245237088762224 ] } },
{ "type": "Feature", "properties": { "id": "8096", "STOPNUM": 13826, "STOPNAME": "Prairie / 104th", "LAT": 33.941562, "LONG": -118.34406, "LINE_DIR1": "212-S", "LINE_DIR2": "211-S", "LINE_DIR3": 0, "LINE_DIR4": 0, "LINE_DIR5": 0, "LINE_DIR6": 0, "LINE_DIR7": 0, "LINE_DIR8": 0, "LINE_DIR9": 0, "LINE_DIR10": 0, "LINE_DIR11": 0, "LINE_DIR12": 0, "LINE_DIR13": 0, "LINE_DIR14": 0, "layer_id": "bus_stops", "feature_name": "Bus Stop", "heat_layer": 3.1278030687173479, "socioeconomic_layer": 3.6884171116924045, "heat_socio_layer": 6.8162201804097524, "heat_socio_public_layer": 0.83055496835079934 }, "geometry": { "type": "Point", "coordinates": [ -13174000.497608613222837, 4020957.927027848083526 ] } },
{ "type": "Feature", "properties": { "id": "8186", "STOPNUM": 13992, "STOPNAME": "Van Ness / 111th", "LAT": 33.933638, "LONG": -118.317885, "LINE_DIR1": "209-S", "LINE_DIR2": null, "LINE_DIR3": 0, "LINE_DIR4": 0, "LINE_DIR5": 0, "LINE_DIR6": 0, "LINE_DIR7": 0, "LINE_DIR8": 0, "LINE_DIR9": 0, "LINE_DIR10": 0, "LINE_DIR11": 0, "LINE_DIR12": 0, "LINE_DIR13": 0, "LINE_DIR14": 0, "layer_id": "bus_stops", "feature_name": "Bus Stop", "heat_layer": 2.7142717706419663, "socioeconomic_layer": 3.4563759937936949, "heat_socio_layer": 6.1706477644356612, "heat_socio_public_layer": 0.79221993358598919 }, "geometry": { "type": "Point", "coordinates": [ -13171086.709937101230025, 4019894.707834250759333 ] } },
{ "type": "Feature", "properties": { "id": "9369", "STOPNUM": 15856, "STOPNAME": "Arbor Vitae / La Cienega", "LAT": 33.95274, "LONG": -118.370205, "LINE_DIR1": "111-W", "LINE_DIR2": null, "LINE_DIR3": 0, "LINE_DIR4": 0, "LINE_DIR5": 0, "LINE_DIR6": 0, "LINE_DIR7": 0, "LINE_DIR8": 0, "LINE_DIR9": 0, "LINE_DIR10": 0, "LINE_DIR11": 0, "LINE_DIR12": 0, "LINE_DIR13": 0, "LINE_DIR14": 0, "layer_id": "bus_stops", "feature_name": "Bus Stop", "heat_layer": 0.92687012293391269, "socioeconomic_layer": 3.5481343387334365, "heat_socio_layer": 4.475004461667349, "heat_socio_public_layer": 0.62652484684777388 }, "geometry": { "type": "Point", "coordinates": [ -13176910.945695405825973, 4022457.926728909369558 ] } },
{ "type": "Feature", "properties": { "id": "9398", "STOPNUM": 15907, "STOPNAME": "Century / Freeman", "LAT": 33.945595, "LONG": -118.348102, "LINE_DIR1": "117-W", "LINE_DIR2": null, "LINE_DIR3": 0, "LINE_DIR4": 0, "LINE_DIR5": 0, "LINE_DIR6": 0, "LINE_DIR7": 0, "LINE_DIR8": 0, "LINE_DIR9": 0, "LINE_DIR10": 0, "LINE_DIR11": 0, "LINE_DIR12": 0, "LINE_DIR13": 0, "LINE_DIR14": 0, "layer_id": "bus_stops", "feature_name": "Bus Stop", "heat_layer": 4.8023676700336821, "socioeconomic_layer": 3.871960329888573, "heat_socio_layer": 8.6743279999222551, "heat_socio_public_layer": 0.98578987440543164 }, "geometry": { "type": "Point", "coordinates": [ -13174450.450990401208401, 4021499.10119887534529 ] } },
{ "type": "Feature", "properties": { "id": "9522", "STOPNUM": 16121, "STOPNAME": "Manchester / Hindry", "LAT": 33.960116, "LONG": -118.3734, "LINE_DIR1": "115-W", "LINE_DIR2": null, "LINE_DIR3": 0, "LINE_DIR4": 0, "LINE_DIR5": 0, "LINE_DIR6": 0, "LINE_DIR7": 0, "LINE_DIR8": 0, "LINE_DIR9": 0, "LINE_DIR10": 0, "LINE_DIR11": 0, "LINE_DIR12": 0, "LINE_DIR13": 0, "LINE_DIR14": 0, "layer_id": "bus_stops", "feature_name": "Bus Stop", "heat_layer": 2.9446187924043667, "socioeconomic_layer": 3.4741513644667741, "heat_socio_layer": 6.4187701568711404, "heat_socio_public_layer": 0.8135734831923418 }, "geometry": { "type": "Point", "coordinates": [ -13177266.611468490213156, 4023447.835834016557783 ] } },
{ "type": "Feature", "properties": { "id": "9525", "STOPNUM": 16124, "STOPNAME": "Manchester / Oak", "LAT": 33.961758, "LONG": -118.366014, "LINE_DIR1": "115-W", "LINE_DIR2": null, "LINE_DIR3": 0, "LINE_DIR4": 0, "LINE_DIR5": 0, "LINE_DIR6": 0, "LINE_DIR7": 0, "LINE_DIR8": 0, "LINE_DIR9": 0, "LINE_DIR10": 0, "LINE_DIR11": 0, "LINE_DIR12": 0, "LINE_DIR13": 0, "LINE_DIR14": 0, "layer_id": "bus_stops", "feature_name": "Bus Stop", "heat_layer": 3.3942942717269062, "socioeconomic_layer": 3.5348154481756264, "heat_socio_layer": 6.9291097199025327, "heat_socio_public_layer": 0.85525914329338182 }, "geometry": { "type": "Point", "coordinates": [ -13176444.405709490180016, 4023668.215022921096534 ] } },
{ "type": "Feature", "properties": { "id": "11079", "STOPNUM": 28280, "STOPNAME": "Hyde Park / Marlborough", "LAT": 33.9767, "LONG": -118.346467, "LINE_DIR1": "110-W", "LINE_DIR2": null, "LINE_DIR3": 0, "LINE_DIR4": 0, "LINE_DIR5": 0, "LINE_DIR6": 0, "LINE_DIR7": 0, "LINE_DIR8": 0, "LINE_DIR9": 0, "LINE_DIR10": 0, "LINE_DIR11": 0, "LINE_DIR12": 0, "LINE_DIR13": 0, "LINE_DIR14": 0, "layer_id": "bus_stops", "feature_name": "Bus Stop", "heat_layer": 0.18368575282916966, "socioeconomic_layer": 3.3273984295218253, "heat_socio_layer": 3.5110841823509951, "heat_socio_public_layer": 0.82175806982175503 }, "geometry": { "type": "Point", "coordinates": [ -13174268.443622956052423, 4025673.834325023461133 ] } },
{ "type": "Feature", "properties": { "id": "11087", "STOPNUM": 30004, "STOPNAME": "Inglewood Transit Center", "LAT": 33.959841, "LONG": -118.352686, "LINE_DIR1": "111-W", "LINE_DIR2": "111-E", "LINE_DIR3": 0, "LINE_DIR4": 0, "LINE_DIR5": 0, "LINE_DIR6": 0, "LINE_DIR7": 0, "LINE_DIR8": 0, "LINE_DIR9": 0, "LINE_DIR10": 0, "LINE_DIR11": 0, "LINE_DIR12": 0, "LINE_DIR13": 0, "LINE_DIR14": 0, "layer_id": "bus_stops", "feature_name": "Bus Stop", "heat_layer": 2.99787685542216, "socioeconomic_layer": 3.9690333312622688, "heat_socio_layer": 6.9669101866844283, "heat_socio_public_layer": 0.81851059365241008 }, "geometry": { "type": "Point", "coordinates": [ -13174960.739536197856069, 4023410.927433213219047 ] } },
{ "type": "Feature", "properties": { "id": "11306", "STOPNUM": 140802, "STOPNAME": "Imperial / Ardath", "LAT": 33.931105, "LONG": -118.323737, "LINE_DIR1": "120-W", "LINE_DIR2": "209-S", "LINE_DIR3": 0, "LINE_DIR4": 0, "LINE_DIR5": 0, "LINE_DIR6": 0, "LINE_DIR7": 0, "LINE_DIR8": 0, "LINE_DIR9": 0, "LINE_DIR10": 0, "LINE_DIR11": 0, "LINE_DIR12": 0, "LINE_DIR13": 0, "LINE_DIR14": 0, "layer_id": "bus_stops", "feature_name": "Bus Stop", "heat_layer": 2.4391834725145118, "socioeconomic_layer": 3.3244132607734262, "heat_socio_layer": 5.7635967332879385, "heat_socio_public_layer": 0.76671879371776541 }, "geometry": { "type": "Point", "coordinates": [ -13171738.151597222313285, 4019554.858155235182494 ] } },
{ "type": "Feature", "properties": { "id": "11310", "STOPNUM": 140806, "STOPNAME": "Imperial / Prairie", "LAT": 33.931086, "LONG": -118.34373, "LINE_DIR1": "120-W", "LINE_DIR2": null, "LINE_DIR3": 0, "LINE_DIR4": 0, "LINE_DIR5": 0, "LINE_DIR6": 0, "LINE_DIR7": 0, "LINE_DIR8": 0, "LINE_DIR9": 0, "LINE_DIR10": 0, "LINE_DIR11": 0, "LINE_DIR12": 0, "LINE_DIR13": 0, "LINE_DIR14": 0, "layer_id": "bus_stops", "feature_name": "Bus Stop", "heat_layer": 1.7122637355538179, "socioeconomic_layer": 3.5570723479717761, "heat_socio_layer": 5.2693360835255945, "heat_socio_public_layer": 0.69933213273875749 }, "geometry": { "type": "Point", "coordinates": [ -13173963.762176651507616, 4019552.308985414914787 ] } },
{ "type": "Feature", "properties": { "id": "11350", "STOPNUM": 140937, "STOPNAME": "Imperial / Crenshaw", "LAT": 33.931102, "LONG": -118.326819, "LINE_DIR1": "120-W", "LINE_DIR2": null, "LINE_DIR3": 0, "LINE_DIR4": 0, "LINE_DIR5": 0, "LINE_DIR6": 0, "LINE_DIR7": 0, "LINE_DIR8": 0, "LINE_DIR9": 0, "LINE_DIR10": 0, "LINE_DIR11": 0, "LINE_DIR12": 0, "LINE_DIR13": 0, "LINE_DIR14": 0, "layer_id": "bus_stops", "feature_name": "Bus Stop", "heat_layer": 1.8115687952531294, "socioeconomic_layer": 3.3783409093775933, "heat_socio_layer": 5.1899097046307228, "heat_socio_public_layer": 0.70853787589196549 }, "geometry": { "type": "Point", "coordinates": [ -13172081.238267848268151, 4019554.455654699821025 ] } },
{ "type": "Feature", "properties": { "id": "11370", "STOPNUM": 140974, "STOPNAME": "La Brea / Plymouth", "LAT": 33.974401, "LONG": -118.357487, "LINE_DIR1": "212-N", "LINE_DIR2": null, "LINE_DIR3": 0, "LINE_DIR4": 0, "LINE_DIR5": 0, "LINE_DIR6": 0, "LINE_DIR7": 0, "LINE_DIR8": 0, "LINE_DIR9": 0, "LINE_DIR10": 0, "LINE_DIR11": 0, "LINE_DIR12": 0, "LINE_DIR13": 0, "LINE_DIR14": 0, "layer_id": "bus_stops", "feature_name": "Bus Stop", "heat_layer": 4.5804614979386766, "socioeconomic_layer": 3.6028996789167058, "heat_socio_layer": 8.1833611768553816, "heat_socio_public_layer": 1.5386805926179119 }, "geometry": { "type": "Point", "coordinates": [ -13175495.184411495923996, 4025365.22359364759177 ] } },
{ "type": "Feature", "properties": { "id": "11413", "STOPNUM": 141075, "STOPNAME": "Eucalyptus / Arbor Vitae", "LAT": 33.952976, "LONG": -118.359328, "LINE_DIR1": "211-S", "LINE_DIR2": null, "LINE_DIR3": 0, "LINE_DIR4": 0, "LINE_DIR5": 0, "LINE_DIR6": 0, "LINE_DIR7": 0, "LINE_DIR8": 0, "LINE_DIR9": 0, "LINE_DIR10": 0, "LINE_DIR11": 0, "LINE_DIR12": 0, "LINE_DIR13": 0, "LINE_DIR14": 0, "layer_id": "bus_stops", "feature_name": "Bus Stop", "heat_layer": 3.9347665221525188, "socioeconomic_layer": 3.3953524949396994, "heat_socio_layer": 7.3301190170922181, "heat_socio_public_layer": 1.136905221188266 }, "geometry": { "type": "Point", "coordinates": [ -13175700.123594047501683, 4022489.598196787294 ] } },
{ "type": "Feature", "properties": { "id": "11415", "STOPNUM": 141077, "STOPNAME": "Eucalyptus / Kelso", "LAT": 33.958667, "LONG": -118.359408, "LINE_DIR1": "211-S", "LINE_DIR2": null, "LINE_DIR3": 0, "LINE_DIR4": 0, "LINE_DIR5": 0, "LINE_DIR6": 0, "LINE_DIR7": 0, "LINE_DIR8": 0, "LINE_DIR9": 0, "LINE_DIR10": 0, "LINE_DIR11": 0, "LINE_DIR12": 0, "LINE_DIR13": 0, "LINE_DIR14": 0, "layer_id": "bus_stops", "feature_name": "Bus Stop", "heat_layer": 3.6504270833363139, "socioeconomic_layer": 3.7310466724914022, "heat_socio_layer": 7.3814737558277166, "heat_socio_public_layer": 0.87900307823410628 }, "geometry": { "type": "Point", "coordinates": [ -13175709.029153309762478, 4023253.363456716760993 ] } },
{ "type": "Feature", "properties": { "id": "11794", "STOPNUM": 25400175, "STOPNAME": "La Brea / Manchester", "LAT": 33.962323, "LONG": -118.353185, "LINE_DIR1": "40-N", "LINE_DIR2": "111-E", "LINE_DIR3": 0, "LINE_DIR4": 0, "LINE_DIR5": 0, "LINE_DIR6": 0, "LINE_DIR7": 0, "LINE_DIR8": 0, "LINE_DIR9": 0, "LINE_DIR10": 0, "LINE_DIR11": 0, "LINE_DIR12": 0, "LINE_DIR13": 0, "LINE_DIR14": 0, "layer_id": "bus_stops", "feature_name": "Bus Stop", "heat_layer": 2.232160728201392, "socioeconomic_layer": 3.9175250477764827, "heat_socio_layer": 6.1496857759778747, "heat_socio_public_layer": 1.0235342339621627 }, "geometry": { "type": "Point", "coordinates": [ -13175016.287962103262544, 4023744.046848093159497 ] } }
]
}
