{
"type": "FeatureCollection",
"name": "optimized_shades_Greedy_DTLA_20_300",
"crs": { "type": "name", "properties": { "name": "urn:ogc:def:crs:EPSG::3857" } },
"features": [
{ "type": "Feature", "properties": { "OBJECTID": 1484, "stop_id": 20215, "route_count": 3, "route_stop": "MT720, MT053, MT018", "lat": 34.044203443980003, "lon": -118.24391431181, "heat_layer": 4.5916908865601025, "socioeconomic_layer": 4.0512820594614567, "heat_socio_layer": 8.6429729460215583, "heat_socio_public_layer": 1.7928757396636463 }, "geometry": { "type": "Point", "coordinates": [ -13162852.330594163388014, 4034739.014143196865916 ] } },
{ "type": "Feature", "properties": { "OBJECTID": 1810, "stop_id": 18965, "route_count": 2, "route_stop": "MT051, DA  E", "lat": 34.054928241178999, "lon": -118.27346997431, "heat_layer": 4.3784273654037431, "socioeconomic_layer": 4.2683071273894351, "heat_socio_layer": 8.6467344927931791, "heat_socio_public_layer": 1.4549993769544853 }, "geometry": { "type": "Point", "coordinates": [ -13166142.451893720775843, 4036179.933708895463496 ] } },
{ "type": "Feature", "properties": { "OBJECTID": 1145, "stop_id": 18925, "route_count": 2, "route_stop": "DAPIC, MT028", "lat": 34.049213795207002, "lon": -118.27419075956, "heat_layer": 3.199946847914068, "socioeconomic_layer": 4.174562881945465, "heat_socio_layer": 7.3745097298595326, "heat_socio_public_layer": 1.2004388344462176 }, "geometry": { "type": "Point", "coordinates": [ -13166222.689340719953179, 4035412.152263194322586 ] } },
{ "type": "Feature", "properties": { "OBJECTID": 1144, "stop_id": 18815, "route_count": 2, "route_stop": "DAPIC, MT030", "lat": 34.044635145834, "lon": -118.27690897756, "heat_layer": 3.3613978283678003, "socioeconomic_layer": 4.0672923888072203, "heat_socio_layer": 7.4286902171750206, "heat_socio_public_layer": 1.2284019448807375 }, "geometry": { "type": "Point", "coordinates": [ -13166525.279984347522259, 4034797.011500256601721 ] } },
{ "type": "Feature", "properties": { "OBJECTID": 1153, "stop_id": 19406, "route_count": 2, "route_stop": "DAPIC, MT016", "lat": 34.058301360493999, "lon": -118.26163510700999, "heat_layer": 0.60345404898295729, "socioeconomic_layer": 3.775950985301646, "heat_socio_layer": 4.3794050342846029, "heat_socio_public_layer": 1.3878411791925431 }, "geometry": { "type": "Point", "coordinates": [ -13164825.000492276623845, 4036633.163515490014106 ] } },
{ "type": "Feature", "properties": { "OBJECTID": 1039, "stop_id": 18997, "route_count": 2, "route_stop": "MT040, MT045", "lat": 34.022265491713, "lon": -118.27176599806, "heat_layer": 7.3090647105870152, "socioeconomic_layer": 4.005283135054829, "heat_socio_layer": 11.314347845641844, "heat_socio_public_layer": 1.1623367852638853 }, "geometry": { "type": "Point", "coordinates": [ -13165952.766125245019794, 4031792.129649397451431 ] } },
{ "type": "Feature", "properties": { "OBJECTID": 1820, "stop_id": 19572, "route_count": 2, "route_stop": "MT051, DA  E", "lat": 34.027627705863999, "lon": -118.25745671823999, "heat_layer": 7.0415262427235659, "socioeconomic_layer": 4.0303186364395707, "heat_socio_layer": 11.071844879163137, "heat_socio_public_layer": 1.12737812967865 }, "geometry": { "type": "Point", "coordinates": [ -13164359.86438206396997, 4032512.355584840290248 ] } },
{ "type": "Feature", "properties": { "OBJECTID": 1170, "stop_id": 18973, "route_count": 3, "route_stop": "MT603, MT910, MT950", "lat": 34.030181932578003, "lon": -118.27304916654001, "heat_layer": 2.1946827810527489, "socioeconomic_layer": 3.9729660516256509, "heat_socio_layer": 6.1676488326783998, "heat_socio_public_layer": 1.0896954411408131 }, "geometry": { "type": "Point", "coordinates": [ -13166095.607787042856216, 4032855.442616184707731 ] } },
{ "type": "Feature", "properties": { "OBJECTID": 1741, "stop_id": 20346, "route_count": 2, "route_stop": "MT018, MT720", "lat": 34.039341029018999, "lon": -118.24052674039, "heat_layer": 6.7318475688502284, "socioeconomic_layer": 3.7850564106853364, "heat_socio_layer": 10.516903979535565, "heat_socio_public_layer": 1.1010379471184875 }, "geometry": { "type": "Point", "coordinates": [ -13162475.227868661284447, 4034085.789210012648255 ] } },
{ "type": "Feature", "properties": { "OBJECTID": 1695, "stop_id": 18723, "route_count": 2, "route_stop": "MT002, MT028", "lat": 34.051726106794, "lon": -118.27984747001, "heat_layer": 4.4071170245894429, "socioeconomic_layer": 4.316104044744649, "heat_socio_layer": 8.723221069334091, "heat_socio_public_layer": 0.78001840160168001 }, "geometry": { "type": "Point", "coordinates": [ -13166852.391467580571771, 4035749.695010797586292 ] } },
{ "type": "Feature", "properties": { "OBJECTID": 1168, "stop_id": 19120, "route_count": 3, "route_stop": "DAPIC, MT014, MT035", "lat": 34.032296254597, "lon": -118.26759702925, "heat_layer": 4.0707519860607002, "socioeconomic_layer": 3.8001699335141987, "heat_socio_layer": 7.870921919574899, "heat_socio_public_layer": 1.0812576890419794 }, "geometry": { "type": "Point", "coordinates": [ -13165488.678640183061361, 4033139.448893908411264 ] } },
{ "type": "Feature", "properties": { "OBJECTID": 1725, "stop_id": 20212, "route_count": 2, "route_stop": "MT066, MT053", "lat": 34.032029917416999, "lon": -118.24416267286, "heat_layer": 7.5650682979098045, "socioeconomic_layer": 3.8717893961307843, "heat_socio_layer": 11.436857694040588, "heat_socio_public_layer": 0.999999999303404 }, "geometry": { "type": "Point", "coordinates": [ -13162879.978019781410694, 4033103.672766049392521 ] } },
{ "type": "Feature", "properties": { "OBJECTID": 1822, "stop_id": 19412, "route_count": 2, "route_stop": "MT051, MT055", "lat": 34.021571381373001, "lon": -118.26131238422001, "heat_layer": 5.8868086029989204, "socioeconomic_layer": 4.0330421822376605, "heat_socio_layer": 9.91985078523658, "heat_socio_public_layer": 0.88309311344866104 }, "geometry": { "type": "Point", "coordinates": [ -13164789.075155628845096, 4031698.90352718019858 ] } },
{ "type": "Feature", "properties": { "OBJECTID": 1156, "stop_id": 19034, "route_count": 2, "route_stop": "DAPIC, MT016", "lat": 34.061868472157002, "lon": -118.27019759282, "heat_layer": 3.2025107010299374, "socioeconomic_layer": 4.279180271882443, "heat_socio_layer": 7.4816909729123804, "heat_socio_public_layer": 0.69610601641164505 }, "geometry": { "type": "Point", "coordinates": [ -13165778.172052573412657, 4037112.478763583116233 ] } },
{ "type": "Feature", "properties": { "OBJECTID": 1124, "stop_id": 20385, "route_count": 3, "route_stop": "MT081, MT090, MT094", "lat": 34.062760247531003, "lon": -118.23955403843, "heat_layer": 2.567481349799928, "socioeconomic_layer": 3.9884103978181815, "heat_socio_layer": 6.5558917476181096, "heat_socio_public_layer": 0.81873250016385057 }, "geometry": { "type": "Point", "coordinates": [ -13162366.947181779891253, 4037232.310386332217604 ] } },
{ "type": "Feature", "properties": { "OBJECTID": 1141, "stop_id": 18803, "route_count": 2, "route_stop": "DAPIC, MT035", "lat": 34.036903750706003, "lon": -118.27762934909001, "heat_layer": 2.0015921554407043, "socioeconomic_layer": 3.7730893034414659, "heat_socio_layer": 5.7746814588821707, "heat_socio_public_layer": 0.92624920312855119 }, "geometry": { "type": "Point", "coordinates": [ -13166605.471376249566674, 4033758.375267410185188 ] } },
{ "type": "Feature", "properties": { "OBJECTID": 1150, "stop_id": 19129, "route_count": 2, "route_stop": "DAPIC, MT018", "lat": 34.056222574027998, "lon": -118.26729389211999, "heat_layer": 2.639260650645249, "socioeconomic_layer": 4.0971660672984287, "heat_socio_layer": 6.7364267179436776, "heat_socio_public_layer": 0.65687024762825796 }, "geometry": { "type": "Point", "coordinates": [ -13165454.933569232001901, 4036353.844851277302951 ] } },
{ "type": "Feature", "properties": { "OBJECTID": 1819, "stop_id": 19798, "route_count": 2, "route_stop": "MT051, DA  E", "lat": 34.032767989219998, "lon": -118.25402018547, "heat_layer": 7.1633018878568748, "socioeconomic_layer": 2.9945473472715252, "heat_socio_layer": 10.157849235128399, "heat_socio_public_layer": 1.3054962517503963 }, "geometry": { "type": "Point", "coordinates": [ -13163977.31130401417613, 4033202.815606727730483 ] } },
{ "type": "Feature", "properties": { "OBJECTID": 1179, "stop_id": 18887, "route_count": 3, "route_stop": "MT603, MT002, MT018", "lat": 34.059533207373001, "lon": -118.27488159582001, "heat_layer": 2.35968620582844, "socioeconomic_layer": 4.1124309002248998, "heat_socio_layer": 6.4721171060533393, "heat_socio_public_layer": 0.6373952058291773 }, "geometry": { "type": "Point", "coordinates": [ -13166299.59288140758872, 4036798.68534765439108 ] } },
{ "type": "Feature", "properties": { "OBJECTID": 1634, "stop_id": 19358, "route_count": 2, "route_stop": "MT004, MT094", "lat": 34.036080965380997, "lon": -118.26343710499, "heat_layer": 3.9085135126370307, "socioeconomic_layer": 3.3793315243625699, "heat_socio_layer": 7.2878450369996006, "heat_socio_public_layer": 1.0669210680626511 }, "geometry": { "type": "Point", "coordinates": [ -13165025.597989823669195, 4033647.847795418463647 ] } }
]
}
