{
"type": "FeatureCollection",
"name": "optimized_shades_Greedy_DTLA_10_200",
"crs": { "type": "name", "properties": { "name": "urn:ogc:def:crs:EPSG::3857" } },
"features": [
{ "type": "Feature", "properties": { "OBJECTID": 1484, "stop_id": 20215, "route_count": 3, "route_stop": "MT720, MT053, MT018", "lat": 34.044203443980003, "lon": -118.24391431181, "heat_layer": 5.028436195940305, "socioeconomic_layer": 4.166432857936532, "heat_socio_layer": 9.1948690538768361 }, "geometry": { "type": "Point", "coordinates": [ -13162852.330594163388014, 4034739.014143196865916 ] } },
{ "type": "Feature", "properties": { "OBJECTID": 1810, "stop_id": 18965, "route_count": 2, "route_stop": "MT051, DA  E", "lat": 34.054928241178999, "lon": -118.27346997431, "heat_layer": 4.8729347635648601, "socioeconomic_layer": 4.3063340949421542, "heat_socio_layer": 9.1792688585070152 }, "geometry": { "type": "Point", "coordinates": [ -13166142.451893720775843, 4036179.933708895463496 ] } },
{ "type": "Feature", "properties": { "OBJECTID": 1153, "stop_id": 19406, "route_count": 2, "route_stop": "DAPIC, MT016", "lat": 34.058301360493999, "lon": -118.26163510700999, "heat_layer": 0.53884278327802282, "socioeconomic_layer": 3.7725969013920948, "heat_socio_layer": 4.311439684670118 }, "geometry": { "type": "Point", "coordinates": [ -13164825.000492276623845, 4036633.163515490014106 ] } },
{ "type": "Feature", "properties": { "OBJECTID": 1144, "stop_id": 18815, "route_count": 2, "route_stop": "DAPIC, MT030", "lat": 34.044635145834, "lon": -118.27690897756, "heat_layer": 3.6716338564949758, "socioeconomic_layer": 4.1260147214773539, "heat_socio_layer": 7.7976485779723301 }, "geometry": { "type": "Point", "coordinates": [ -13166525.279984347522259, 4034797.011500256601721 ] } },
{ "type": "Feature", "properties": { "OBJECTID": 1820, "stop_id": 19572, "route_count": 2, "route_stop": "MT051, DA  E", "lat": 34.027627705863999, "lon": -118.25745671823999, "heat_layer": 7.3462610484956476, "socioeconomic_layer": 4.3154270429294526, "heat_socio_layer": 11.6616880914251 }, "geometry": { "type": "Point", "coordinates": [ -13164359.86438206396997, 4032512.355584840290248 ] } },
{ "type": "Feature", "properties": { "OBJECTID": 1740, "stop_id": 20227, "route_count": 2, "route_stop": "MT018, MT053", "lat": 34.041252817627999, "lon": -118.24362843895, "heat_layer": 6.5060917576982469, "socioeconomic_layer": 4.3180461408613962, "heat_socio_layer": 10.824137898559643 }, "geometry": { "type": "Point", "coordinates": [ -13162820.50737295486033, 4034342.617611710913479 ] } },
{ "type": "Feature", "properties": { "OBJECTID": 1039, "stop_id": 18997, "route_count": 2, "route_stop": "MT040, MT045", "lat": 34.022265491713, "lon": -118.27176599806, "heat_layer": 7.4985905727932796, "socioeconomic_layer": 3.987941847104989, "heat_socio_layer": 11.486532419898268 }, "geometry": { "type": "Point", "coordinates": [ -13165952.766125245019794, 4031792.129649397451431 ] } },
{ "type": "Feature", "properties": { "OBJECTID": 1145, "stop_id": 18925, "route_count": 2, "route_stop": "DAPIC, MT028", "lat": 34.049213795207002, "lon": -118.27419075956, "heat_layer": 2.5151030939174368, "socioeconomic_layer": 4.2705700788319865, "heat_socio_layer": 6.7856731727494228 }, "geometry": { "type": "Point", "coordinates": [ -13166222.689340719953179, 4035412.152263194322586 ] } },
{ "type": "Feature", "properties": { "OBJECTID": 1741, "stop_id": 20346, "route_count": 2, "route_stop": "MT018, MT720", "lat": 34.039341029018999, "lon": -118.24052674039, "heat_layer": 6.9856552614429734, "socioeconomic_layer": 4.1988379600769079, "heat_socio_layer": 11.184493221519881 }, "geometry": { "type": "Point", "coordinates": [ -13162475.227868661284447, 4034085.789210012648255 ] } },
{ "type": "Feature", "properties": { "OBJECTID": 1149, "stop_id": 19003, "route_count": 2, "route_stop": "DAPIC, MT018", "lat": 34.058021355576003, "lon": -118.27146945918, "heat_layer": 4.927716894782165, "socioeconomic_layer": 4.4518074491332111, "heat_socio_layer": 9.3795243439153761 }, "geometry": { "type": "Point", "coordinates": [ -13165919.755568122491241, 4036595.539915935602039 ] } }
]
}
