{
"type": "FeatureCollection",
"name": "optimized_shades_Random_Inglewood_10",
"crs": { "type": "name", "properties": { "name": "urn:ogc:def:crs:EPSG::3857" } },
"features": [
{ "type": "Feature", "properties": { "id": "902", "STOPNUM": 1559, "STOPNAME": "Manchester / Hillcrest", "LAT": 33.961673, "LONG": -118.349083, "LINE_DIR1": "115-E", "LINE_DIR2": "212-S", "LINE_DIR3": 0, "LINE_DIR4": 0, "LINE_DIR5": 0, "LINE_DIR6": 0, "LINE_DIR7": 0, "LINE_DIR8": 0, "LINE_DIR9": 0, "LINE_DIR10": 0, "LINE_DIR11": 0, "LINE_DIR12": 0, "LINE_DIR13": 0, "LINE_DIR14": 0, "layer_id": "bus_stops", "feature_name": "Bus Stop", "heat_layer": 2.5226110489955595, "socioeconomic_layer": 3.7627816841447146, "heat_socio_layer": 6.2853927331402737, "heat_socio_public_layer": 0.73667944311227707 }, "geometry": { "type": "Point", "coordinates": [ -13174559.655410869047046, 4023656.806738825514913 ] } },
{ "type": "Feature", "properties": { "id": "905", "STOPNUM": 1562, "STOPNAME": "Manchester / Market", "LAT": 33.961924, "LONG": -118.351755, "LINE_DIR1": "115-W", "LINE_DIR2": "212-N", "LINE_DIR3": 0, "LINE_DIR4": 0, "LINE_DIR5": 0, "LINE_DIR6": 0, "LINE_DIR7": 0, "LINE_DIR8": 0, "LINE_DIR9": 0, "LINE_DIR10": 0, "LINE_DIR11": 0, "LINE_DIR12": 0, "LINE_DIR13": 0, "LINE_DIR14": 0, "layer_id": "bus_stops", "feature_name": "Bus Stop", "heat_layer": 2.3802860598189861, "socioeconomic_layer": 3.7867722037426668, "heat_socio_layer": 6.1670582635616533, "heat_socio_public_layer": 0.97875841846009037 }, "geometry": { "type": "Point", "coordinates": [ -13174857.101090271025896, 4023690.494763553142548 ] } },
{ "type": "Feature", "properties": { "id": "907", "STOPNUM": 1564, "STOPNAME": "Manchester / Tamarack", "LAT": 33.959996, "LONG": -118.346576, "LINE_DIR1": "115-E", "LINE_DIR2": "212-S", "LINE_DIR3": 0, "LINE_DIR4": 0, "LINE_DIR5": 0, "LINE_DIR6": 0, "LINE_DIR7": 0, "LINE_DIR8": 0, "LINE_DIR9": 0, "LINE_DIR10": 0, "LINE_DIR11": 0, "LINE_DIR12": 0, "LINE_DIR13": 0, "LINE_DIR14": 0, "layer_id": "bus_stops", "feature_name": "Bus Stop", "heat_layer": 1.4574007000899936, "socioeconomic_layer": 3.5565041390422532, "heat_socio_layer": 5.0139048391322465, "heat_socio_public_layer": 0.62686470246645343 }, "geometry": { "type": "Point", "coordinates": [ -13174280.577447449788451, 4023431.730335357133299 ] } },
{ "type": "Feature", "properties": { "id": "2961", "STOPNUM": 4917, "STOPNAME": "Crenshaw / Hardy", "LAT": 33.949396, "LONG": -118.326327, "LINE_DIR1": "210-N", "LINE_DIR2": null, "LINE_DIR3": 0, "LINE_DIR4": 0, "LINE_DIR5": 0, "LINE_DIR6": 0, "LINE_DIR7": 0, "LINE_DIR8": 0, "LINE_DIR9": 0, "LINE_DIR10": 0, "LINE_DIR11": 0, "LINE_DIR12": 0, "LINE_DIR13": 0, "LINE_DIR14": 0, "layer_id": "bus_stops", "feature_name": "Bus Stop", "heat_layer": -1.3978457319407431, "socioeconomic_layer": 3.1106197678569778, "heat_socio_layer": 1.7127740359162347, "heat_socio_public_layer": 0.33251143530610411 }, "geometry": { "type": "Point", "coordinates": [ -13172026.469078376889229, 4022009.167572614736855 ] } },
{ "type": "Feature", "properties": { "id": "4858", "STOPNUM": 7833, "STOPNAME": "Manchester / Fir", "LAT": 33.961596, "LONG": -118.357528, "LINE_DIR1": "115-E", "LINE_DIR2": "211-S", "LINE_DIR3": 0, "LINE_DIR4": 0, "LINE_DIR5": 0, "LINE_DIR6": 0, "LINE_DIR7": 0, "LINE_DIR8": 0, "LINE_DIR9": 0, "LINE_DIR10": 0, "LINE_DIR11": 0, "LINE_DIR12": 0, "LINE_DIR13": 0, "LINE_DIR14": 0, "layer_id": "bus_stops", "feature_name": "Bus Stop", "heat_layer": 2.6450012840329844, "socioeconomic_layer": 3.6707508711160628, "heat_socio_layer": 6.3157521551490472, "heat_socio_public_layer": 0.99245361213646643 }, "geometry": { "type": "Point", "coordinates": [ -13175499.748510619625449, 4023646.472185427322984 ] } },
{ "type": "Feature", "properties": { "id": "4859", "STOPNUM": 7834, "STOPNAME": "Manchester / Glasgow", "LAT": 33.960918, "LONG": -118.371976, "LINE_DIR1": "115-E", "LINE_DIR2": null, "LINE_DIR3": 0, "LINE_DIR4": 0, "LINE_DIR5": 0, "LINE_DIR6": 0, "LINE_DIR7": 0, "LINE_DIR8": 0, "LINE_DIR9": 0, "LINE_DIR10": 0, "LINE_DIR11": 0, "LINE_DIR12": 0, "LINE_DIR13": 0, "LINE_DIR14": 0, "layer_id": "bus_stops", "feature_name": "Bus Stop", "heat_layer": 2.33227329349485, "socioeconomic_layer": 3.188489506041237, "heat_socio_layer": 5.5207627995360866, "heat_socio_public_layer": 0.71705712975708502 }, "geometry": { "type": "Point", "coordinates": [ -13177108.092513602226973, 4023555.474833340849727 ] } },
{ "type": "Feature", "properties": { "id": "7526", "STOPNUM": 12862, "STOPNAME": "Prairie / Arbor Vitae", "LAT": 33.952455, "LONG": -118.344078, "LINE_DIR1": "212-S", "LINE_DIR2": "211-S", "LINE_DIR3": 0, "LINE_DIR4": 0, "LINE_DIR5": 0, "LINE_DIR6": 0, "LINE_DIR7": 0, "LINE_DIR8": 0, "LINE_DIR9": 0, "LINE_DIR10": 0, "LINE_DIR11": 0, "LINE_DIR12": 0, "LINE_DIR13": 0, "LINE_DIR14": 0, "layer_id": "bus_stops", "feature_name": "Bus Stop", "heat_layer": 1.2726445146088907, "socioeconomic_layer": 3.3819374219828773, "heat_socio_layer": 4.654581936591768, "heat_socio_public_layer": 0.60781780472258085 }, "geometry": { "type": "Point", "coordinates": [ -13174002.501359449699521, 4022419.679522497113794 ] } },
{ "type": "Feature", "properties": { "id": "7973", "STOPNUM": 13619, "STOPNAME": "Inglewood / Century", "LAT": 33.945175, "LONG": -118.36117, "LINE_DIR1": "211-S", "LINE_DIR2": null, "LINE_DIR3": 0, "LINE_DIR4": 0, "LINE_DIR5": 0, "LINE_DIR6": 0, "LINE_DIR7": 0, "LINE_DIR8": 0, "LINE_DIR9": 0, "LINE_DIR10": 0, "LINE_DIR11": 0, "LINE_DIR12": 0, "LINE_DIR13": 0, "LINE_DIR14": 0, "layer_id": "bus_stops", "feature_name": "Bus Stop", "heat_layer": 2.8460176441349585, "socioeconomic_layer": 3.5674133822519152, "heat_socio_layer": 6.4134310263868741, "heat_socio_public_layer": 0.77002009869722443 }, "geometry": { "type": "Point", "coordinates": [ -13175905.174096088856459, 4021442.741671103984118 ] } },
{ "type": "Feature", "properties": { "id": "8196", "STOPNUM": 14003, "STOPNAME": "Van Ness / Arbor Vitae", "LAT": 33.952895, "LONG": -118.31785, "LINE_DIR1": "209-S", "LINE_DIR2": null, "LINE_DIR3": 0, "LINE_DIR4": 0, "LINE_DIR5": 0, "LINE_DIR6": 0, "LINE_DIR7": 0, "LINE_DIR8": 0, "LINE_DIR9": 0, "LINE_DIR10": 0, "LINE_DIR11": 0, "LINE_DIR12": 0, "LINE_DIR13": 0, "LINE_DIR14": 0, "layer_id": "bus_stops", "feature_name": "Bus Stop", "heat_layer": 0.10765733676449241, "socioeconomic_layer": 3.1422909419501197, "heat_socio_layer": 3.2499482787146121, "heat_socio_public_layer": 0.48771686416925708 }, "geometry": { "type": "Point", "coordinates": [ -13171082.813754925504327, 4022478.72789494600147 ] } },
{ "type": "Feature", "properties": { "id": "9521", "STOPNUM": 16120, "STOPNAME": "Manchester / Glasgow", "LAT": 33.96114, "LONG": -118.372151, "LINE_DIR1": "115-W", "LINE_DIR2": null, "LINE_DIR3": 0, "LINE_DIR4": 0, "LINE_DIR5": 0, "LINE_DIR6": 0, "LINE_DIR7": 0, "LINE_DIR8": 0, "LINE_DIR9": 0, "LINE_DIR10": 0, "LINE_DIR11": 0, "LINE_DIR12": 0, "LINE_DIR13": 0, "LINE_DIR14": 0, "layer_id": "bus_stops", "feature_name": "Bus Stop", "heat_layer": 2.2377888947877516, "socioeconomic_layer": 3.1472977496340651, "heat_socio_layer": 5.3850866444218166, "heat_socio_public_layer": 0.70731653744143852 }, "geometry": { "type": "Point", "coordinates": [ -13177127.573424488306046, 4023585.270346645265818 ] } }
]
}
