{
"type": "FeatureCollection",
"name": "optimized_shades_Random_DTLA_50",
"crs": { "type": "name", "properties": { "name": "urn:ogc:def:crs:EPSG::3857" } },
"features": [
{ "type": "Feature", "properties": { "OBJECTID": 993, "stop_id": 20724, "route_count": 6, "route_stop": "MT078, MT040, MT106, MT070, MT028, MT033", "lat": 34.056589879306003, "lon": -118.23183076068, "heat_layer": 0.563, "index_right": 1408, "socioeconomic_layer": 2.7759465506022822, "heat_socio_layer": 3.338946550602282 }, "geometry": { "type": "Point", "coordinates": [ -13161507.195835394784808, 4036403.19777208706364 ] } },
{ "type": "Feature", "properties": { "OBJECTID": 1005, "stop_id": 20347, "route_count": 4, "route_stop": "MT078, MT070, MT028, MT045", "lat": 34.057127898719997, "lon": -118.24054816448999, "heat_layer": 1.9144, "index_right": 1425, "socioeconomic_layer": 4.2907955447235571, "heat_socio_layer": 6.2051955447235567 }, "geometry": { "type": "Point", "coordinates": [ -13162477.612788563594222, 4036475.489059261977673 ] } },
{ "type": "Feature", "properties": { "OBJECTID": 1006, "stop_id": 20285, "route_count": 2, "route_stop": "MT078, MT028", "lat": 34.055283376117998, "lon": -118.24227610125, "heat_layer": -3.6198, "index_right": 1437, "socioeconomic_layer": 3.0344124037054612, "heat_socio_layer": -0.58538759629453896 }, "geometry": { "type": "Point", "coordinates": [ -13162669.965828809887171, 4036227.650631816126406 ] } },
{ "type": "Feature", "properties": { "OBJECTID": 1008, "stop_id": 19963, "route_count": 4, "route_stop": "MT078, MT076, MT070, DA  B", "lat": 34.054465498718002, "lon": -118.24988340885, "heat_layer": -8.6848, "index_right": 1441, "socioeconomic_layer": 3.8868018623141598, "heat_socio_layer": -4.7979981376858394 }, "geometry": { "type": "Point", "coordinates": [ -13163516.807437149807811, 4036117.7586385239847 ] } },
{ "type": "Feature", "properties": { "OBJECTID": 1009, "stop_id": 19915, "route_count": 10, "route_stop": "MT078, MT014, MT076, MT910, MT950, MT070, MT053, MT055, MT060, DA  B", "lat": 34.053044588600997, "lon": -118.25133504809, "heat_layer": -8.6848, "index_right": 1441, "socioeconomic_layer": 3.8868018623141598, "heat_socio_layer": -4.7979981376858394 }, "geometry": { "type": "Point", "coordinates": [ -13163678.403178162872791, 4035926.844226212706417 ] } },
{ "type": "Feature", "properties": { "OBJECTID": 1015, "stop_id": 19391, "route_count": 4, "route_stop": "MT078, MT014, MT076, MT070", "lat": 34.041552391728999, "lon": -118.26197554088, "heat_layer": -1.6806, "index_right": 1448, "socioeconomic_layer": 2.5038461711343887, "heat_socio_layer": 0.82324617113438858 }, "geometry": { "type": "Point", "coordinates": [ -13164862.897417336702347, 4034382.862720510456711 ] } },
{ "type": "Feature", "properties": { "OBJECTID": 1045, "stop_id": 19450, "route_count": 5, "route_stop": "MT040, MT004, MT030, DA  D, MT045", "lat": 34.038176205649997, "lon": -118.2602716933, "heat_layer": 2.222, "index_right": 1447, "socioeconomic_layer": 2.8582636218966657, "heat_socio_layer": 5.0802636218966661 }, "geometry": { "type": "Point", "coordinates": [ -13164673.225972341373563, 4033929.310456539038569 ] } },
{ "type": "Feature", "properties": { "OBJECTID": 1046, "stop_id": 19593, "route_count": 3, "route_stop": "MT040, MT004, MT045", "lat": 34.041447834019003, "lon": -118.25692488948, "heat_layer": 2.222, "index_right": 1447, "socioeconomic_layer": 2.8582636218966657, "heat_socio_layer": 5.0802636218966661 }, "geometry": { "type": "Point", "coordinates": [ -13164300.661475313827395, 4034368.816308492794633 ] } },
{ "type": "Feature", "properties": { "OBJECTID": 1056, "stop_id": 19604, "route_count": 3, "route_stop": "MT040, MT045, MT055", "lat": 34.040467309901999, "lon": -118.25670732515, "heat_layer": 2.222, "index_right": 1447, "socioeconomic_layer": 2.8582636218966657, "heat_socio_layer": 5.0802636218966661 }, "geometry": { "type": "Point", "coordinates": [ -13164276.442324884235859, 4034237.092329094652086 ] } },
{ "type": "Feature", "properties": { "OBJECTID": 1121, "stop_id": 20024, "route_count": 5, "route_stop": "MT081, MT004, MT010, MT094, MT028", "lat": 34.051669780076999, "lon": -118.24910586359, "heat_layer": -4.0374, "index_right": 1440, "socioeconomic_layer": 4.6396840073877597, "heat_socio_layer": 0.60228400738775978 }, "geometry": { "type": "Point", "coordinates": [ -13163430.251494739204645, 4035742.127099914010614 ] } },
{ "type": "Feature", "properties": { "OBJECTID": 1140, "stop_id": 18861, "route_count": 2, "route_stop": "DAPIC, MT035", "lat": 34.036105450876001, "lon": -118.27585094758, "heat_layer": 1.58, "index_right": 1820, "socioeconomic_layer": 4.6002973851431905, "heat_socio_layer": 6.1802973851431906 }, "geometry": { "type": "Point", "coordinates": [ -13166407.500625729560852, 4033651.136997409164906 ] } },
{ "type": "Feature", "properties": { "OBJECTID": 1146, "stop_id": 18991, "route_count": 2, "route_stop": "DAPIC, MT066", "lat": 34.052315186561003, "lon": -118.27218053071999, "heat_layer": 4.5312, "index_right": 1499, "socioeconomic_layer": 4.4017347385864394, "heat_socio_layer": 8.9329347385864395 }, "geometry": { "type": "Point", "coordinates": [ -13165998.911689873784781, 4035828.842534158378839 ] } },
{ "type": "Feature", "properties": { "OBJECTID": 1147, "stop_id": 18905, "route_count": 2, "route_stop": "DAPIC, MT066", "lat": 34.053378890112, "lon": -118.2744850233, "heat_layer": 4.5814, "index_right": 1498, "socioeconomic_layer": 4.205270453721929, "heat_socio_layer": 8.7866704537219285 }, "geometry": { "type": "Point", "coordinates": [ -13166255.446630416437984, 4035971.76090792985633 ] } },
{ "type": "Feature", "properties": { "OBJECTID": 1150, "stop_id": 19129, "route_count": 2, "route_stop": "DAPIC, MT018", "lat": 34.056222574027998, "lon": -118.26729389211999, "heat_layer": 2.823, "index_right": 1487, "socioeconomic_layer": 4.7619211667069266, "heat_socio_layer": 7.584921166706927 }, "geometry": { "type": "Point", "coordinates": [ -13165454.933569232001901, 4036353.844851277302951 ] } },
{ "type": "Feature", "properties": { "OBJECTID": 1156, "stop_id": 19034, "route_count": 2, "route_stop": "DAPIC, MT016", "lat": 34.061868472157002, "lon": -118.27019759282, "heat_layer": 6.719, "index_right": 1483, "socioeconomic_layer": 4.4870798736572794, "heat_socio_layer": 11.206079873657281 }, "geometry": { "type": "Point", "coordinates": [ -13165778.172052573412657, 4037112.478763583116233 ] } },
{ "type": "Feature", "properties": { "OBJECTID": 1159, "stop_id": 19033, "route_count": 3, "route_stop": "DAPIC, MT014, MT002", "lat": 34.066679737180003, "lon": -118.27030888737001, "heat_layer": 2.0244, "index_right": 1464, "socioeconomic_layer": 3.7952664553950282, "heat_socio_layer": 5.8196664553950281 }, "geometry": { "type": "Point", "coordinates": [ -13165790.561305208131671, 4037759.003713150043041 ] } },
{ "type": "Feature", "properties": { "OBJECTID": 1161, "stop_id": 19437, "route_count": 2, "route_stop": "DAPIC, MT010", "lat": 34.068126670551997, "lon": -118.26085356602, "heat_layer": -0.7708, "index_right": 1451, "socioeconomic_layer": 3.8650799580144048, "heat_socio_layer": 3.0942799580144049 }, "geometry": { "type": "Point", "coordinates": [ -13164737.999747237190604, 4037953.44593712547794 ] } },
{ "type": "Feature", "properties": { "OBJECTID": 1166, "stop_id": 19012, "route_count": 2, "route_stop": "DAPIC, MT018", "lat": 34.057879187034999, "lon": -118.27114875093, "heat_layer": 6.1928, "index_right": 1479, "socioeconomic_layer": 4.0806350335640422, "heat_socio_layer": 10.273435033564041 }, "geometry": { "type": "Point", "coordinates": [ -13165884.05448904260993, 4036576.437112408224493 ] } },
{ "type": "Feature", "properties": { "OBJECTID": 1167, "stop_id": 18876, "route_count": 2, "route_stop": "DAPIC, MT035", "lat": 34.035864883782999, "lon": -118.27530554788, "heat_layer": 1.2426, "index_right": 1818, "socioeconomic_layer": 3.3345767925953593, "heat_socio_layer": 4.5771767925953597 }, "geometry": { "type": "Point", "coordinates": [ -13166346.787008844316006, 4033618.821017956826836 ] } },
{ "type": "Feature", "properties": { "OBJECTID": 1186, "stop_id": 19183, "route_count": 3, "route_stop": "MT603, MT004, MT002", "lat": 34.077823742813997, "lon": -118.26596274812999, "heat_layer": 1.6512, "index_right": 1261, "socioeconomic_layer": 2.9690946177193887, "heat_socio_layer": 4.6202946177193889 }, "geometry": { "type": "Point", "coordinates": [ -13165306.75129809230566, 4039256.64645126555115 ] } },
{ "type": "Feature", "properties": { "OBJECTID": 1259, "stop_id": 19921, "route_count": 2, "route_stop": "MT802, MT805", "lat": 34.049612659192, "lon": -118.25126201626, "heat_layer": -4.0374, "index_right": 1440, "socioeconomic_layer": 4.6396840073877597, "heat_socio_layer": 0.60228400738775978 }, "geometry": { "type": "Point", "coordinates": [ -13163670.273312037810683, 4035465.741144480649382 ] } },
{ "type": "Feature", "properties": { "OBJECTID": 1537, "stop_id": 19264, "route_count": 2, "route_stop": "FZ707, DA  F", "lat": 34.043694093249002, "lon": -118.26524028826, "heat_layer": -4.5012, "index_right": 1442, "socioeconomic_layer": 2.2883277220234759, "heat_socio_layer": -2.212872277976524 }, "geometry": { "type": "Point", "coordinates": [ -13165226.327433247119188, 4034670.585360610857606 ] } },
{ "type": "Feature", "properties": { "OBJECTID": 1539, "stop_id": 20238, "route_count": 5, "route_stop": "FZ707, MT910, MT950, MT070, DA  D", "lat": 34.053928832094002, "lon": -118.24356631048001, "heat_layer": -3.6198, "index_right": 1437, "socioeconomic_layer": 3.0344124037054612, "heat_socio_layer": -0.58538759629453896 }, "geometry": { "type": "Point", "coordinates": [ -13162813.591263310983777, 4036045.65138398623094 ] } },
{ "type": "Feature", "properties": { "OBJECTID": 1549, "stop_id": 19485, "route_count": 2, "route_stop": "FZ707, MT066", "lat": 34.044424193292997, "lon": -118.25929753216001, "heat_layer": 2.222, "index_right": 1447, "socioeconomic_layer": 2.8582636218966657, "heat_socio_layer": 5.0802636218966661 }, "geometry": { "type": "Point", "coordinates": [ -13164564.782850287854671, 4034768.670862720813602 ] } },
{ "type": "Feature", "properties": { "OBJECTID": 1550, "stop_id": 20245, "route_count": 5, "route_stop": "MT076, MT030, MT033, DA  D, DA  A", "lat": 34.052217269537003, "lon": -118.24338966080001, "heat_layer": -3.6198, "index_right": 1437, "socioeconomic_layer": 3.0344124037054612, "heat_socio_layer": -0.58538759629453896 }, "geometry": { "type": "Point", "coordinates": [ -13162793.926710886880755, 4035815.686569842509925 ] } },
{ "type": "Feature", "properties": { "OBJECTID": 1552, "stop_id": 20453, "route_count": 3, "route_stop": "MT076, MT030, DA  A", "lat": 34.049214091567997, "lon": -118.23914552319999, "heat_layer": 3.886, "index_right": 1418, "socioeconomic_layer": 4.0514704839207818, "heat_socio_layer": 7.9374704839207819 }, "geometry": { "type": "Point", "coordinates": [ -13162321.471474396064878, 4035412.192080318927765 ] } },
{ "type": "Feature", "properties": { "OBJECTID": 1629, "stop_id": 19946, "route_count": 2, "route_stop": "MT004, MT010", "lat": 34.050251750621001, "lon": -118.25049805431, "heat_layer": -4.0374, "index_right": 1440, "socioeconomic_layer": 4.6396840073877597, "heat_socio_layer": 0.60228400738775978 }, "geometry": { "type": "Point", "coordinates": [ -13163585.229456778615713, 4035551.6060148216784 ] } },
{ "type": "Feature", "properties": { "OBJECTID": 1635, "stop_id": 20286, "route_count": 3, "route_stop": "MT004, MT028, MT045", "lat": 34.057143741706, "lon": -118.24224517240999, "heat_layer": 1.9144, "index_right": 1425, "socioeconomic_layer": 4.2907955447235571, "heat_socio_layer": 6.2051955447235567 }, "geometry": { "type": "Point", "coordinates": [ -13162666.522846091538668, 4036477.617818118538707 ] } },
{ "type": "Feature", "properties": { "OBJECTID": 1662, "stop_id": 18884, "route_count": 2, "route_stop": "MT910, MT950", "lat": 34.027679815296999, "lon": -118.27494859017, "heat_layer": -1.5528, "index_right": 1821, "socioeconomic_layer": 4.3877959607664865, "heat_socio_layer": 2.8349959607664865 }, "geometry": { "type": "Point", "coordinates": [ -13166307.050658334046602, 4032519.354887989815325 ] } },
{ "type": "Feature", "properties": { "OBJECTID": 1663, "stop_id": 19462, "route_count": 5, "route_stop": "MT910, MT051, DA  E, DA  A, DA  F", "lat": 34.049388286088003, "lon": -118.25990052614, "heat_layer": -4.5012, "index_right": 1442, "socioeconomic_layer": 2.2883277220234759, "heat_socio_layer": -2.212872277976524 }, "geometry": { "type": "Point", "coordinates": [ -13164631.907833090052009, 4035435.595740385819227 ] } },
{ "type": "Feature", "properties": { "OBJECTID": 1665, "stop_id": 19136, "route_count": 3, "route_stop": "MT910, MT950, MT030", "lat": 34.040057806954003, "lon": -118.26687916764, "heat_layer": 1.8752, "index_right": 1809, "socioeconomic_layer": 3.2906005355624188, "heat_socio_layer": 5.1658005355624184 }, "geometry": { "type": "Point", "coordinates": [ -13165408.76665130071342, 4034182.079999536741525 ] } },
{ "type": "Feature", "properties": { "OBJECTID": 1666, "stop_id": 19014, "route_count": 2, "route_stop": "MT910, MT950", "lat": 34.033802903375999, "lon": -118.27092551569, "heat_layer": 2.8998, "index_right": 1810, "socioeconomic_layer": 3.7749837642375321, "heat_socio_layer": 6.6747837642375316 }, "geometry": { "type": "Point", "coordinates": [ -13165859.204055795446038, 4033341.833790314383805 ] } },
{ "type": "Feature", "properties": { "OBJECTID": 1709, "stop_id": 19446, "route_count": 3, "route_stop": "MT010, MT033, MT055", "lat": 34.036351445328997, "lon": -118.26035513578, "heat_layer": 5.397, "index_right": 1808, "socioeconomic_layer": 3.5578625043066285, "heat_socio_layer": 8.9548625043066288 }, "geometry": { "type": "Point", "coordinates": [ -13164682.514746723696589, 4033684.182142477016896 ] } },
{ "type": "Feature", "properties": { "OBJECTID": 1716, "stop_id": 19931, "route_count": 8, "route_stop": "MT016, MT018, MT030, MT033, MT028, DA  D, MT053, MT060", "lat": 34.045947609595999, "lon": -118.25097372283, "heat_layer": -3.8898, "index_right": 1430, "socioeconomic_layer": 3.4779708806552887, "heat_socio_layer": -0.41182911934471145 }, "geometry": { "type": "Point", "coordinates": [ -13163638.180634209886193, 4034973.337387061212212 ] } },
{ "type": "Feature", "properties": { "OBJECTID": 1718, "stop_id": 20167, "route_count": 3, "route_stop": "MT016, MT053, MT018", "lat": 34.044897494036, "lon": -118.24584081819, "heat_layer": 3.047, "index_right": 1419, "socioeconomic_layer": 4.2611475813781556, "heat_socio_layer": 7.3081475813781562 }, "geometry": { "type": "Point", "coordinates": [ -13163066.788303393870592, 4034832.257039438933134 ] } },
{ "type": "Feature", "properties": { "OBJECTID": 1732, "stop_id": 19958, "route_count": 4, "route_stop": "MT020, DA  D, MT060, MT720", "lat": 34.045279264667002, "lon": -118.24994510224001, "heat_layer": -2.2382, "index_right": 1436, "socioeconomic_layer": 2.3911429839274474, "heat_socio_layer": 0.15294298392744743 }, "geometry": { "type": "Point", "coordinates": [ -13163523.675113910809159, 4034883.546748054679483 ] } },
{ "type": "Feature", "properties": { "OBJECTID": 1739, "stop_id": 20119, "route_count": 2, "route_stop": "MT018, MT053", "lat": 34.043465959434002, "lon": -118.24713718417, "heat_layer": 3.047, "index_right": 1419, "socioeconomic_layer": 4.2611475813781556, "heat_socio_layer": 7.3081475813781562 }, "geometry": { "type": "Point", "coordinates": [ -13163211.099104167893529, 4034639.936830239370465 ] } },
{ "type": "Feature", "properties": { "OBJECTID": 1764, "stop_id": 20290, "route_count": 2, "route_stop": "MT053, MT018", "lat": 34.043033939588, "lon": -118.24200956897, "heat_layer": 7.2614, "index_right": 1422, "socioeconomic_layer": 4.5922241777298698, "heat_socio_layer": 11.85362417772987 }, "geometry": { "type": "Point", "coordinates": [ -13162640.295591123402119, 4034581.897552561946213 ] } },
{ "type": "Feature", "properties": { "OBJECTID": 1773, "stop_id": 20476, "route_count": 2, "route_stop": "MT018, MT720", "lat": 34.038163599628, "lon": -118.23843399127, "heat_layer": 7.2614, "index_right": 1422, "socioeconomic_layer": 4.5922241777298698, "heat_socio_layer": 11.85362417772987 }, "geometry": { "type": "Point", "coordinates": [ -13162242.264102265238762, 4033927.617014450952411 ] } },
{ "type": "Feature", "properties": { "OBJECTID": 1777, "stop_id": 20652, "route_count": 2, "route_stop": "MT030, DA  D", "lat": 34.050344213248003, "lon": -118.23456006519, "heat_layer": 3.2978, "index_right": 1412, "socioeconomic_layer": 2.6415830528515021, "heat_socio_layer": 5.9393830528515021 }, "geometry": { "type": "Point", "coordinates": [ -13161811.020623667165637, 4035564.028847252484411 ] } },
{ "type": "Feature", "properties": { "OBJECTID": 1779, "stop_id": 20099, "route_count": 3, "route_stop": "MT030, MT033, MT028", "lat": 34.049529420428001, "lon": -118.2476601752, "heat_layer": -2.3792, "index_right": 1432, "socioeconomic_layer": 2.0400542158268973, "heat_socio_layer": -0.3391457841731027 }, "geometry": { "type": "Point", "coordinates": [ -13163269.318199317902327, 4035454.557681664358824 ] } },
{ "type": "Feature", "properties": { "OBJECTID": 1782, "stop_id": 19530, "route_count": 3, "route_stop": "MT030, MT033, MT055", "lat": 34.039090326599002, "lon": -118.25813893681, "heat_layer": 2.222, "index_right": 1447, "socioeconomic_layer": 2.8582636218966657, "heat_socio_layer": 5.0802636218966661 }, "geometry": { "type": "Point", "coordinates": [ -13164435.808605886995792, 4034052.110444107092917 ] } },
{ "type": "Feature", "properties": { "OBJECTID": 1790, "stop_id": 19912, "route_count": 5, "route_stop": "MT033, MT051, DA  D, MT055, DA  E", "lat": 34.043932580629999, "lon": -118.25138029927, "heat_layer": -2.2382, "index_right": 1436, "socioeconomic_layer": 2.3911429839274474, "heat_socio_layer": 0.15294298392744743 }, "geometry": { "type": "Point", "coordinates": [ -13163683.440516479313374, 4034702.624924094881862 ] } },
{ "type": "Feature", "properties": { "OBJECTID": 1809, "stop_id": 18894, "route_count": 2, "route_stop": "MT051, DA  E", "lat": 34.057390323588997, "lon": -118.27468306826999, "heat_layer": 3.0338, "index_right": 1481, "socioeconomic_layer": 4.3185886164257381, "heat_socio_layer": 7.3523886164257384 }, "geometry": { "type": "Point", "coordinates": [ -13166277.492895629256964, 4036510.750093805603683 ] } },
{ "type": "Feature", "properties": { "OBJECTID": 1813, "stop_id": 19175, "route_count": 2, "route_stop": "MT051, DA  E", "lat": 34.051707231260004, "lon": -118.26632209819, "heat_layer": 3.6936, "index_right": 1492, "socioeconomic_layer": 3.9405036833007205, "heat_socio_layer": 7.6341036833007205 }, "geometry": { "type": "Point", "coordinates": [ -13165346.75396379083395, 4035747.158942687790841 ] } },
{ "type": "Feature", "properties": { "OBJECTID": 1822, "stop_id": 19412, "route_count": 2, "route_stop": "MT051, MT055", "lat": 34.021571381373001, "lon": -118.26131238422001, "heat_layer": 6.601, "index_right": 1830, "socioeconomic_layer": 4.0418143881437949, "heat_socio_layer": 10.642814388143794 }, "geometry": { "type": "Point", "coordinates": [ -13164789.075155628845096, 4031698.90352718019858 ] } },
{ "type": "Feature", "properties": { "OBJECTID": 1835, "stop_id": 19453, "route_count": 2, "route_stop": "MT066, DA  F", "lat": 34.047249986280001, "lon": -118.26011505743, "heat_layer": -4.5012, "index_right": 1442, "socioeconomic_layer": 2.2883277220234759, "heat_socio_layer": -2.212872277976524 }, "geometry": { "type": "Point", "coordinates": [ -13164655.789347050711513, 4035148.310800492763519 ] } },
{ "type": "Feature", "properties": { "OBJECTID": 1957, "stop_id": 19910, "route_count": 2, "route_stop": "MT801, MT804", "lat": 34.054695652592002, "lon": -118.25152818716001, "heat_layer": -8.6848, "index_right": 1441, "socioeconomic_layer": 3.8868018623141598, "heat_socio_layer": -4.7979981376858394 }, "geometry": { "type": "Point", "coordinates": [ -13163699.903321087360382, 4036148.682564653456211 ] } },
{ "type": "Feature", "properties": { "OBJECTID": 1958, "stop_id": 20465, "route_count": 2, "route_stop": "MT801, MT804", "lat": 34.048832820290002, "lon": -118.23880111331999, "heat_layer": 3.886, "index_right": 1418, "socioeconomic_layer": 4.0514704839207818, "heat_socio_layer": 7.9374704839207819 }, "geometry": { "type": "Point", "coordinates": [ -13162283.131941929459572, 4035360.967081078328192 ] } },
{ "type": "Feature", "properties": { "OBJECTID": 1966, "stop_id": 20337, "route_count": 2, "route_stop": "DA  D, DA  B", "lat": 34.053428598511999, "lon": -118.24088747016, "heat_layer": -3.6198, "index_right": 1437, "socioeconomic_layer": 3.0344124037054612, "heat_socio_layer": -0.58538759629453896 }, "geometry": { "type": "Point", "coordinates": [ -13162515.384122971445322, 4035978.439733375329524 ] } }
]
}
