{
"type": "FeatureCollection",
"name": "optimized_shades_Greedy_DTLA_100",
"crs": { "type": "name", "properties": { "name": "urn:ogc:def:crs:EPSG::3857" } },
"features": [
{ "type": "Feature", "properties": { "STOPNUM": 6198, "STOPNAME": "5th / San Pedro", "LAT": 34.044397, "LONG": -118.244139, "LINE_DIR1": "18-W", "LINE_DIR2": "720-W", "LINE_DIR3": 0, "LINE_DIR4": 0, "LINE_DIR5": 0, "LINE_DIR6": 0, "LINE_DIR7": 0, "LINE_DIR8": 0, "LINE_DIR9": 0, "LINE_DIR10": 0, "LINE_DIR11": 0, "LINE_DIR12": 0, "LINE_DIR13": 0, "LINE_DIR14": 0, "layer_id": "bus_stops", "feature_name": "Bus Stop", "heat_layer": 6.4696, "index_right": 1416, "socioeconomic_layer": 3.9230401485131328, "heat_socio_layer": 10.392640148513133 }, "geometry": { "type": "Point", "coordinates": [ -13162877.342769060283899, 4034765.017556747421622 ] } },
{ "type": "Feature", "properties": { "STOPNUM": 3749, "STOPNAME": "3rd / Lucas", "LAT": 34.058125, "LONG": -118.261518, "LINE_DIR1": "16-E", "LINE_DIR2": null, "LINE_DIR3": 0, "LINE_DIR4": 0, "LINE_DIR5": 0, "LINE_DIR6": 0, "LINE_DIR7": 0, "LINE_DIR8": 0, "LINE_DIR9": 0, "LINE_DIR10": 0, "LINE_DIR11": 0, "LINE_DIR12": 0, "LINE_DIR13": 0, "LINE_DIR14": 0, "layer_id": "bus_stops", "feature_name": "Bus Stop", "heat_layer": -0.9524, "index_right": 1490, "socioeconomic_layer": 3.5458646948496546, "heat_socio_layer": 2.5934646948496547 }, "geometry": { "type": "Point", "coordinates": [ -13164811.964199556037784, 4036609.466357925441116 ] } },
{ "type": "Feature", "properties": { "STOPNUM": 8992, "STOPNAME": "Beverly / Belmont", "LAT": 34.06323, "LONG": -118.262961, "LINE_DIR1": "14-S", "LINE_DIR2": null, "LINE_DIR3": 0, "LINE_DIR4": 0, "LINE_DIR5": 0, "LINE_DIR6": 0, "LINE_DIR7": 0, "LINE_DIR8": 0, "LINE_DIR9": 0, "LINE_DIR10": 0, "LINE_DIR11": 0, "LINE_DIR12": 0, "LINE_DIR13": 0, "LINE_DIR14": 0, "layer_id": "bus_stops", "feature_name": "Bus Stop", "heat_layer": 2.5358, "index_right": 1455, "socioeconomic_layer": 4.087530456134747, "heat_socio_layer": 6.623330456134747 }, "geometry": { "type": "Point", "coordinates": [ -13164972.598224772140384, 4037295.433516312856227 ] } },
{ "type": "Feature", "properties": { "STOPNUM": 15742, "STOPNAME": "7th / Burlington", "LAT": 34.054944, "LONG": -118.273269, "LINE_DIR1": "51-N", "LINE_DIR2": null, "LINE_DIR3": 0, "LINE_DIR4": 0, "LINE_DIR5": 0, "LINE_DIR6": 0, "LINE_DIR7": 0, "LINE_DIR8": 0, "LINE_DIR9": 0, "LINE_DIR10": 0, "LINE_DIR11": 0, "LINE_DIR12": 0, "LINE_DIR13": 0, "LINE_DIR14": 0, "layer_id": "bus_stops", "feature_name": "Bus Stop", "heat_layer": 6.1928, "index_right": 1479, "socioeconomic_layer": 4.0806350335640422, "heat_socio_layer": 10.273435033564041 }, "geometry": { "type": "Point", "coordinates": [ -13166120.079535868018866, 4036182.051103888545185 ] } },
{ "type": "Feature", "properties": { "STOPNUM": 13180, "STOPNAME": "Beaudry / 4th", "LAT": 34.055339, "LONG": -118.257631, "LINE_DIR1": "487-W", "LINE_DIR2": "62-N", "LINE_DIR3": 0, "LINE_DIR4": 0, "LINE_DIR5": 0, "LINE_DIR6": 0, "LINE_DIR7": 0, "LINE_DIR8": 0, "LINE_DIR9": 0, "LINE_DIR10": 0, "LINE_DIR11": 0, "LINE_DIR12": 0, "LINE_DIR13": 0, "LINE_DIR14": 0, "layer_id": "bus_stops", "feature_name": "Bus Stop", "heat_layer": -0.9524, "index_right": 1490, "socioeconomic_layer": 3.5458646948496546, "heat_socio_layer": 2.5934646948496547 }, "geometry": { "type": "Point", "coordinates": [ -13164379.265338841825724, 4036235.124430164229125 ] } },
{ "type": "Feature", "properties": { "STOPNUM": 16176, "STOPNAME": "Olympic / Union", "LAT": 34.04949, "LONG": -118.274476, "LINE_DIR1": "28-W", "LINE_DIR2": null, "LINE_DIR3": 0, "LINE_DIR4": 0, "LINE_DIR5": 0, "LINE_DIR6": 0, "LINE_DIR7": 0, "LINE_DIR8": 0, "LINE_DIR9": 0, "LINE_DIR10": 0, "LINE_DIR11": 0, "LINE_DIR12": 0, "LINE_DIR13": 0, "LINE_DIR14": 0, "layer_id": "bus_stops", "feature_name": "Bus Stop", "heat_layer": 2.8174, "index_right": 1502, "socioeconomic_layer": 4.3621861962603683, "heat_socio_layer": 7.1795861962603684 }, "geometry": { "type": "Point", "coordinates": [ -13166254.442161256447434, 4035449.261392402928323 ] } },
{ "type": "Feature", "properties": { "STOPNUM": 17105, "STOPNAME": "23rd / Figueroa", "LAT": 34.030969, "LONG": -118.274488, "LINE_DIR1": "93-N", "LINE_DIR2": null, "LINE_DIR3": 0, "LINE_DIR4": 0, "LINE_DIR5": 0, "LINE_DIR6": 0, "LINE_DIR7": 0, "LINE_DIR8": 0, "LINE_DIR9": 0, "LINE_DIR10": 0, "LINE_DIR11": 0, "LINE_DIR12": 0, "LINE_DIR13": 0, "LINE_DIR14": 0, "layer_id": "bus_stops", "feature_name": "Bus Stop", "heat_layer": 1.58, "index_right": 1820, "socioeconomic_layer": 4.6002973851431905, "heat_socio_layer": 6.1802973851431906 }, "geometry": { "type": "Point", "coordinates": [ -13166255.777995146811008, 4032961.164610488340259 ] } },
{ "type": "Feature", "properties": { "STOPNUM": 16214, "STOPNAME": "Pico / Union", "LAT": 34.044682, "LONG": -118.276662, "LINE_DIR1": "30-W", "LINE_DIR2": null, "LINE_DIR3": 0, "LINE_DIR4": 0, "LINE_DIR5": 0, "LINE_DIR6": 0, "LINE_DIR7": 0, "LINE_DIR8": 0, "LINE_DIR9": 0, "LINE_DIR10": 0, "LINE_DIR11": 0, "LINE_DIR12": 0, "LINE_DIR13": 0, "LINE_DIR14": 0, "layer_id": "bus_stops", "feature_name": "Bus Stop", "heat_layer": 2.6756, "index_right": 1510, "socioeconomic_layer": 4.1050092681983106, "heat_socio_layer": 6.7806092681983108 }, "geometry": { "type": "Point", "coordinates": [ -13166497.786568129435182, 4034803.3061812678352 ] } },
{ "type": "Feature", "properties": { "STOPNUM": 9750, "STOPNAME": "7th / Decatur", "LAT": 34.034635, "LONG": -118.235203, "LINE_DIR1": "60-S", "LINE_DIR2": "62-S", "LINE_DIR3": 0, "LINE_DIR4": 0, "LINE_DIR5": 0, "LINE_DIR6": 0, "LINE_DIR7": 0, "LINE_DIR8": 0, "LINE_DIR9": 0, "LINE_DIR10": 0, "LINE_DIR11": 0, "LINE_DIR12": 0, "LINE_DIR13": 0, "LINE_DIR14": 0, "layer_id": "bus_stops", "feature_name": "Bus Stop", "heat_layer": 6.4136, "index_right": 1410, "socioeconomic_layer": 1.9233717772954733, "heat_socio_layer": 8.3369717772954726 }, "geometry": { "type": "Point", "coordinates": [ -13161882.591799333691597, 4033453.609084358438849 ] } },
{ "type": "Feature", "properties": { "STOPNUM": 9781, "STOPNAME": "9th / Stanford", "LAT": 34.035009, "LONG": -118.247594, "LINE_DIR1": "66-W", "LINE_DIR2": null, "LINE_DIR3": 0, "LINE_DIR4": 0, "LINE_DIR5": 0, "LINE_DIR6": 0, "LINE_DIR7": 0, "LINE_DIR8": 0, "LINE_DIR9": 0, "LINE_DIR10": 0, "LINE_DIR11": 0, "LINE_DIR12": 0, "LINE_DIR13": 0, "LINE_DIR14": 0, "layer_id": "bus_stops", "feature_name": "Bus Stop", "heat_layer": 7.5664, "index_right": 1828, "socioeconomic_layer": 3.8850682986319809, "heat_socio_layer": 11.45146829863198 }, "geometry": { "type": "Point", "coordinates": [ -13163261.951609751209617, 4033503.848751163110137 ] } },
{ "type": "Feature", "properties": { "STOPNUM": 16459, "STOPNAME": "Washington / Grand", "LAT": 34.033122, "LONG": -118.268854, "LINE_DIR1": "35-N", "LINE_DIR2": null, "LINE_DIR3": 0, "LINE_DIR4": 0, "LINE_DIR5": 0, "LINE_DIR6": 0, "LINE_DIR7": 0, "LINE_DIR8": 0, "LINE_DIR9": 0, "LINE_DIR10": 0, "LINE_DIR11": 0, "LINE_DIR12": 0, "LINE_DIR13": 0, "LINE_DIR14": 0, "layer_id": "bus_stops", "feature_name": "Bus Stop", "heat_layer": 2.8998, "index_right": 1810, "socioeconomic_layer": 3.7749837642375321, "heat_socio_layer": 6.6747837642375316 }, "geometry": { "type": "Point", "coordinates": [ -13165628.603984015062451, 4033250.369056283961982 ] } },
{ "type": "Feature", "properties": { "STOPNUM": 5128, "STOPNAME": "Hill / Venice", "LAT": 34.034897, "LONG": -118.264236, "LINE_DIR1": "94-N", "LINE_DIR2": null, "LINE_DIR3": 0, "LINE_DIR4": 0, "LINE_DIR5": 0, "LINE_DIR6": 0, "LINE_DIR7": 0, "LINE_DIR8": 0, "LINE_DIR9": 0, "LINE_DIR10": 0, "LINE_DIR11": 0, "LINE_DIR12": 0, "LINE_DIR13": 0, "LINE_DIR14": 0, "layer_id": "bus_stops", "feature_name": "Bus Stop", "heat_layer": 5.397, "index_right": 1808, "socioeconomic_layer": 3.5578625043066285, "heat_socio_layer": 8.9548625043066288 }, "geometry": { "type": "Point", "coordinates": [ -13165114.530575532466173, 4033488.803694020956755 ] } },
{ "type": "Feature", "properties": { "STOPNUM": 4861, "STOPNAME": "5th / Central", "LAT": 34.042001, "LONG": -118.240125, "LINE_DIR1": "18-W", "LINE_DIR2": "62-N", "LINE_DIR3": 0, "LINE_DIR4": 0, "LINE_DIR5": 0, "LINE_DIR6": 0, "LINE_DIR7": 0, "LINE_DIR8": 0, "LINE_DIR9": 0, "LINE_DIR10": 0, "LINE_DIR11": 0, "LINE_DIR12": 0, "LINE_DIR13": 0, "LINE_DIR14": 0, "layer_id": "bus_stops", "feature_name": "Bus Stop", "heat_layer": 3.886, "index_right": 1418, "socioeconomic_layer": 4.0514704839207818, "heat_socio_layer": 7.9374704839207819 }, "geometry": { "type": "Point", "coordinates": [ -13162430.506333017721772, 4034443.129506755620241 ] } },
{ "type": "Feature", "properties": { "STOPNUM": 13872, "STOPNAME": "San Pedro / 14th", "LAT": 34.031249, "LONG": -118.254841, "LINE_DIR1": "51-N", "LINE_DIR2": null, "LINE_DIR3": 0, "LINE_DIR4": 0, "LINE_DIR5": 0, "LINE_DIR6": 0, "LINE_DIR7": 0, "LINE_DIR8": 0, "LINE_DIR9": 0, "LINE_DIR10": 0, "LINE_DIR11": 0, "LINE_DIR12": 0, "LINE_DIR13": 0, "LINE_DIR14": 0, "layer_id": "bus_stops", "feature_name": "Bus Stop", "heat_layer": 7.4758, "index_right": 1827, "socioeconomic_layer": 2.8409808997107788, "heat_socio_layer": 10.316780899710778 }, "geometry": { "type": "Point", "coordinates": [ -13164068.683959530666471, 4032998.775549178011715 ] } },
{ "type": "Feature", "properties": { "STOPNUM": 8994, "STOPNAME": "Beverly / Benton", "LAT": 34.069819, "LONG": -118.277861, "LINE_DIR1": "14-S", "LINE_DIR2": null, "LINE_DIR3": 0, "LINE_DIR4": 0, "LINE_DIR5": 0, "LINE_DIR6": 0, "LINE_DIR7": 0, "LINE_DIR8": 0, "LINE_DIR9": 0, "LINE_DIR10": 0, "LINE_DIR11": 0, "LINE_DIR12": 0, "LINE_DIR13": 0, "LINE_DIR14": 0, "layer_id": "bus_stops", "feature_name": "Bus Stop", "heat_layer": 4.6246, "index_right": 1469, "socioeconomic_layer": 3.3595049139848268, "heat_socio_layer": 7.9841049139848268 }, "geometry": { "type": "Point", "coordinates": [ -13166631.258637592196465, 4038180.86926158843562 ] } },
{ "type": "Feature", "properties": { "STOPNUM": 8173, "STOPNAME": "Washington / Oak", "LAT": 34.03691, "LONG": -118.27791, "LINE_DIR1": "35-S", "LINE_DIR2": null, "LINE_DIR3": 0, "LINE_DIR4": 0, "LINE_DIR5": 0, "LINE_DIR6": 0, "LINE_DIR7": 0, "LINE_DIR8": 0, "LINE_DIR9": 0, "LINE_DIR10": 0, "LINE_DIR11": 0, "LINE_DIR12": 0, "LINE_DIR13": 0, "LINE_DIR14": 0, "layer_id": "bus_stops", "feature_name": "Bus Stop", "heat_layer": 2.4702, "index_right": 1819, "socioeconomic_layer": 3.5183794289285193, "heat_socio_layer": 5.988579428928519 }, "geometry": { "type": "Point", "coordinates": [ -13166636.713292639702559, 4033759.21475982805714 ] } },
{ "type": "Feature", "properties": { "STOPNUM": 8441, "STOPNAME": "Wilshire / Park View", "LAT": 34.059612, "LONG": -118.279709, "LINE_DIR1": "20-E", "LINE_DIR2": null, "LINE_DIR3": 0, "LINE_DIR4": 0, "LINE_DIR5": 0, "LINE_DIR6": 0, "LINE_DIR7": 0, "LINE_DIR8": 0, "LINE_DIR9": 0, "LINE_DIR10": 0, "LINE_DIR11": 0, "LINE_DIR12": 0, "LINE_DIR13": 0, "LINE_DIR14": 0, "layer_id": "bus_stops", "feature_name": "Bus Stop", "heat_layer": -0.2278, "index_right": 1477, "socioeconomic_layer": 3.5219332560150431, "heat_socio_layer": 3.2941332560150434 }, "geometry": { "type": "Point", "coordinates": [ -13166836.977056575939059, 4036809.272703147493303 ] } },
{ "type": "Feature", "properties": { "STOPNUM": 7442, "STOPNAME": "9th / Grand", "LAT": 34.044464, "LONG": -118.259526, "LINE_DIR1": "66-E", "LINE_DIR2": "81-N", "LINE_DIR3": 0, "LINE_DIR4": 0, "LINE_DIR5": 0, "LINE_DIR6": 0, "LINE_DIR7": 0, "LINE_DIR8": 0, "LINE_DIR9": 0, "LINE_DIR10": 0, "LINE_DIR11": 0, "LINE_DIR12": 0, "LINE_DIR13": 0, "LINE_DIR14": 0, "layer_id": "bus_stops", "feature_name": "Bus Stop", "heat_layer": 2.222, "index_right": 1447, "socioeconomic_layer": 2.8582636218966657, "heat_socio_layer": 5.0802636218966661 }, "geometry": { "type": "Point", "coordinates": [ -13164590.215773897245526, 4034774.018730591516942 ] } },
{ "type": "Feature", "properties": { "STOPNUM": 9029, "STOPNAME": "Beverly / Park View", "LAT": 34.068263, "LONG": -118.273609, "LINE_DIR1": "14-N", "LINE_DIR2": null, "LINE_DIR3": 0, "LINE_DIR4": 0, "LINE_DIR5": 0, "LINE_DIR6": 0, "LINE_DIR7": 0, "LINE_DIR8": 0, "LINE_DIR9": 0, "LINE_DIR10": 0, "LINE_DIR11": 0, "LINE_DIR12": 0, "LINE_DIR13": 0, "LINE_DIR14": 0, "layer_id": "bus_stops", "feature_name": "Bus Stop", "heat_layer": 2.5966, "index_right": 1461, "socioeconomic_layer": 3.1957387974938483, "heat_socio_layer": 5.7923387974938478 }, "geometry": { "type": "Point", "coordinates": [ -13166157.928162736818194, 4037971.766372086014599 ] } },
{ "type": "Feature", "properties": { "STOPNUM": 5506, "STOPNAME": "San Pedro / Washington", "LAT": 34.027516, "LONG": -118.257681, "LINE_DIR1": "51-S", "LINE_DIR2": null, "LINE_DIR3": 0, "LINE_DIR4": 0, "LINE_DIR5": 0, "LINE_DIR6": 0, "LINE_DIR7": 0, "LINE_DIR8": 0, "LINE_DIR9": 0, "LINE_DIR10": 0, "LINE_DIR11": 0, "LINE_DIR12": 0, "LINE_DIR13": 0, "LINE_DIR14": 0, "layer_id": "bus_stops", "feature_name": "Bus Stop", "heat_layer": 7.4568, "index_right": 1826, "socioeconomic_layer": 4.4925893809188828, "heat_socio_layer": 11.949389380918884 }, "geometry": { "type": "Point", "coordinates": [ -13164384.831313384696841, 4032497.351344609633088 ] } },
{ "type": "Feature", "properties": { "STOPNUM": 1219, "STOPNAME": "7th / Gladys", "LAT": 34.038784, "LONG": -118.243783, "LINE_DIR1": "60-N", "LINE_DIR2": null, "LINE_DIR3": 0, "LINE_DIR4": 0, "LINE_DIR5": 0, "LINE_DIR6": 0, "LINE_DIR7": 0, "LINE_DIR8": 0, "LINE_DIR9": 0, "LINE_DIR10": 0, "LINE_DIR11": 0, "LINE_DIR12": 0, "LINE_DIR13": 0, "LINE_DIR14": 0, "layer_id": "bus_stops", "feature_name": "Bus Stop", "heat_layer": 7.2614, "index_right": 1422, "socioeconomic_layer": 4.5922241777298698, "heat_socio_layer": 11.85362417772987 }, "geometry": { "type": "Point", "coordinates": [ -13162837.713030336424708, 4034010.959393620491028 ] } },
{ "type": "Feature", "properties": { "STOPNUM": 13232, "STOPNAME": "Broadway / 30th", "LAT": 34.022446, "LONG": -118.271803, "LINE_DIR1": "40-S", "LINE_DIR2": "45-S", "LINE_DIR3": 0, "LINE_DIR4": 0, "LINE_DIR5": 0, "LINE_DIR6": 0, "LINE_DIR7": 0, "LINE_DIR8": 0, "LINE_DIR9": 0, "LINE_DIR10": 0, "LINE_DIR11": 0, "LINE_DIR12": 0, "LINE_DIR13": 0, "LINE_DIR14": 0, "layer_id": "bus_stops", "feature_name": "Bus Stop", "heat_layer": 6.995, "index_right": 1823, "socioeconomic_layer": 4.0012046941292949, "heat_socio_layer": 10.996204694129295 }, "geometry": { "type": "Point", "coordinates": [ -13165956.885162364691496, 4031816.373884589411318 ] } },
{ "type": "Feature", "properties": { "STOPNUM": 13309, "STOPNAME": "Central / 16th", "LAT": 34.02659, "LONG": -118.248734, "LINE_DIR1": "53-S", "LINE_DIR2": null, "LINE_DIR3": 0, "LINE_DIR4": 0, "LINE_DIR5": 0, "LINE_DIR6": 0, "LINE_DIR7": 0, "LINE_DIR8": 0, "LINE_DIR9": 0, "LINE_DIR10": 0, "LINE_DIR11": 0, "LINE_DIR12": 0, "LINE_DIR13": 0, "LINE_DIR14": 0, "layer_id": "bus_stops", "feature_name": "Bus Stop", "heat_layer": 7.5664, "index_right": 1828, "socioeconomic_layer": 3.8850682986319809, "heat_socio_layer": 11.45146829863198 }, "geometry": { "type": "Point", "coordinates": [ -13163388.855829255655408, 4032372.972542962990701 ] } },
{ "type": "Feature", "properties": { "STOPNUM": 4800002, "STOPNAME": "Main / Washington", "LAT": 34.030829, "LONG": -118.264612, "LINE_DIR1": "10-W", "LINE_DIR2": null, "LINE_DIR3": 0, "LINE_DIR4": 0, "LINE_DIR5": 0, "LINE_DIR6": 0, "LINE_DIR7": 0, "LINE_DIR8": 0, "LINE_DIR9": 0, "LINE_DIR10": 0, "LINE_DIR11": 0, "LINE_DIR12": 0, "LINE_DIR13": 0, "LINE_DIR14": 0, "layer_id": "bus_stops", "feature_name": "Bus Stop", "heat_layer": 6.5238, "index_right": 1811, "socioeconomic_layer": 4.1759712630451817, "heat_socio_layer": 10.699771263045182 }, "geometry": { "type": "Point", "coordinates": [ -13165156.386704070493579, 4032942.359187690075487 ] } },
{ "type": "Feature", "properties": { "STOPNUM": 7257, "STOPNAME": "1st / Beaudry", "LAT": 34.059407, "LONG": -118.254342, "LINE_DIR1": "14-N", "LINE_DIR2": null, "LINE_DIR3": 0, "LINE_DIR4": 0, "LINE_DIR5": 0, "LINE_DIR6": 0, "LINE_DIR7": 0, "LINE_DIR8": 0, "LINE_DIR9": 0, "LINE_DIR10": 0, "LINE_DIR11": 0, "LINE_DIR12": 0, "LINE_DIR13": 0, "LINE_DIR14": 0, "layer_id": "bus_stops", "feature_name": "Bus Stop", "heat_layer": -0.4378, "index_right": 1449, "socioeconomic_layer": 3.1568272837891498, "heat_socio_layer": 2.7190272837891496 }, "geometry": { "type": "Point", "coordinates": [ -13164013.13553362339735, 4036781.726899145636708 ] } },
{ "type": "Feature", "properties": { "STOPNUM": 3616, "STOPNAME": "Hill / College", "LAT": 34.064267, "LONG": -118.238644, "LINE_DIR1": "81-N", "LINE_DIR2": "94-N", "LINE_DIR3": 0, "LINE_DIR4": 0, "LINE_DIR5": 0, "LINE_DIR6": 0, "LINE_DIR7": 0, "LINE_DIR8": 0, "LINE_DIR9": 0, "LINE_DIR10": 0, "LINE_DIR11": 0, "LINE_DIR12": 0, "LINE_DIR13": 0, "LINE_DIR14": 0, "layer_id": "bus_stops", "feature_name": "Bus Stop", "heat_layer": 3.9106, "index_right": 1427, "socioeconomic_layer": 4.2601086467671427, "heat_socio_layer": 8.1707086467671424 }, "geometry": { "type": "Point", "coordinates": [ -13162265.642167150974274, 4037434.781943530309945 ] } },
{ "type": "Feature", "properties": { "STOPNUM": 3773, "STOPNAME": "Main / Ann", "LAT": 34.064616, "LONG": -118.231345, "LINE_DIR1": "76-E", "LINE_DIR2": null, "LINE_DIR3": 0, "LINE_DIR4": 0, "LINE_DIR5": 0, "LINE_DIR6": 0, "LINE_DIR7": 0, "LINE_DIR8": 0, "LINE_DIR9": 0, "LINE_DIR10": 0, "LINE_DIR11": 0, "LINE_DIR12": 0, "LINE_DIR13": 0, "LINE_DIR14": 0, "layer_id": "bus_stops", "feature_name": "Bus Stop", "heat_layer": 3.0496, "index_right": 1407, "socioeconomic_layer": 4.367999574329966, "heat_socio_layer": 7.4175995743299659 }, "geometry": { "type": "Point", "coordinates": [ -13161453.121203850954771, 4037481.679724450223148 ] } },
{ "type": "Feature", "properties": { "STOPNUM": 3931, "STOPNAME": "Spring / Cesar E Chavez", "LAT": 34.057507, "LONG": -118.240081, "LINE_DIR1": "70-E", "LINE_DIR2": "78-E", "LINE_DIR3": 0, "LINE_DIR4": 0, "LINE_DIR5": 0, "LINE_DIR6": 0, "LINE_DIR7": 0, "LINE_DIR8": 0, "LINE_DIR9": 0, "LINE_DIR10": 0, "LINE_DIR11": 0, "LINE_DIR12": 0, "LINE_DIR13": 0, "LINE_DIR14": 0, "layer_id": "bus_stops", "feature_name": "Bus Stop", "heat_layer": 1.9144, "index_right": 1425, "socioeconomic_layer": 4.2907955447235571, "heat_socio_layer": 6.2051955447235567 }, "geometry": { "type": "Point", "coordinates": [ -13162425.608275422826409, 4036526.427495779469609 ] } },
{ "type": "Feature", "properties": { "STOPNUM": 15772, "STOPNAME": "8th / Columbia", "LAT": 34.050791, "LONG": -118.270066, "LINE_DIR1": "66-W", "LINE_DIR2": null, "LINE_DIR3": 0, "LINE_DIR4": 0, "LINE_DIR5": 0, "LINE_DIR6": 0, "LINE_DIR7": 0, "LINE_DIR8": 0, "LINE_DIR9": 0, "LINE_DIR10": 0, "LINE_DIR11": 0, "LINE_DIR12": 0, "LINE_DIR13": 0, "LINE_DIR14": 0, "layer_id": "bus_stops", "feature_name": "Bus Stop", "heat_layer": 4.6404, "index_right": 1491, "socioeconomic_layer": 3.868397258440555, "heat_socio_layer": 8.5087972584405556 }, "geometry": { "type": "Point", "coordinates": [ -13165763.523206857964396, 4035624.057150400709361 ] } },
{ "type": "Feature", "properties": { "STOPNUM": 2207, "STOPNAME": "Glendale / Montana", "LAT": 34.079575, "LONG": -118.260041, "LINE_DIR1": "92-N", "LINE_DIR2": null, "LINE_DIR3": 0, "LINE_DIR4": 0, "LINE_DIR5": 0, "LINE_DIR6": 0, "LINE_DIR7": 0, "LINE_DIR8": 0, "LINE_DIR9": 0, "LINE_DIR10": 0, "LINE_DIR11": 0, "LINE_DIR12": 0, "LINE_DIR13": 0, "LINE_DIR14": 0, "layer_id": "bus_stops", "feature_name": "Bus Stop", "heat_layer": -1.098, "index_right": 1286, "socioeconomic_layer": 2.7285386009980632, "heat_socio_layer": 1.6305386009980631 }, "geometry": { "type": "Point", "coordinates": [ -13164647.545311655849218, 4039492.015791279729456 ] } },
{ "type": "Feature", "properties": { "STOPNUM": 7265, "STOPNAME": "3rd / Loma", "LAT": 34.059839, "LONG": -118.265757, "LINE_DIR1": "16-E", "LINE_DIR2": null, "LINE_DIR3": 0, "LINE_DIR4": 0, "LINE_DIR5": 0, "LINE_DIR6": 0, "LINE_DIR7": 0, "LINE_DIR8": 0, "LINE_DIR9": 0, "LINE_DIR10": 0, "LINE_DIR11": 0, "LINE_DIR12": 0, "LINE_DIR13": 0, "LINE_DIR14": 0, "layer_id": "bus_stops", "feature_name": "Bus Stop", "heat_layer": 1.4588, "index_right": 1486, "socioeconomic_layer": 4.3691009599001678, "heat_socio_layer": 5.8279009599001679 }, "geometry": { "type": "Point", "coordinates": [ -13165283.847521027550101, 4036839.774719946552068 ] } },
{ "type": "Feature", "properties": { "STOPNUM": 13558, "STOPNAME": "Grand / 23rd", "LAT": 34.028906, "LONG": -118.270547, "LINE_DIR1": "35-N", "LINE_DIR2": "55-N", "LINE_DIR3": 0, "LINE_DIR4": 0, "LINE_DIR5": 0, "LINE_DIR6": 0, "LINE_DIR7": 0, "LINE_DIR8": 0, "LINE_DIR9": 0, "LINE_DIR10": 0, "LINE_DIR11": 0, "LINE_DIR12": 0, "LINE_DIR13": 0, "LINE_DIR14": 0, "layer_id": "bus_stops", "feature_name": "Bus Stop", "heat_layer": 2.8998, "index_right": 1810, "socioeconomic_layer": 3.7749837642375321, "heat_socio_layer": 6.6747837642375316 }, "geometry": { "type": "Point", "coordinates": [ -13165817.067881928756833, 4032684.056413318030536 ] } },
{ "type": "Feature", "properties": { "STOPNUM": 8086, "STOPNAME": "Temple / Edgeware", "LAT": 34.066403, "LONG": -118.254502, "LINE_DIR1": "10-E", "LINE_DIR2": "92-S", "LINE_DIR3": 0, "LINE_DIR4": 0, "LINE_DIR5": 0, "LINE_DIR6": 0, "LINE_DIR7": 0, "LINE_DIR8": 0, "LINE_DIR9": 0, "LINE_DIR10": 0, "LINE_DIR11": 0, "LINE_DIR12": 0, "LINE_DIR13": 0, "LINE_DIR14": 0, "layer_id": "bus_stops", "feature_name": "Bus Stop", "heat_layer": 0.7842, "index_right": 1450, "socioeconomic_layer": 4.2847957654919329, "heat_socio_layer": 5.0689957654919331 }, "geometry": { "type": "Point", "coordinates": [ -13164030.94665215164423, 4037721.815514674875885 ] } },
{ "type": "Feature", "properties": { "STOPNUM": 4105, "STOPNAME": "Olive / General Thaddeus Kosciuszko", "LAT": 34.053042, "LONG": -118.249358, "LINE_DIR1": "14-N", "LINE_DIR2": "487-E", "LINE_DIR3": 0, "LINE_DIR4": 0, "LINE_DIR5": 0, "LINE_DIR6": 0, "LINE_DIR7": 0, "LINE_DIR8": 0, "LINE_DIR9": 0, "LINE_DIR10": 0, "LINE_DIR11": 0, "LINE_DIR12": 0, "LINE_DIR13": 0, "LINE_DIR14": 0, "layer_id": "bus_stops", "feature_name": "Bus Stop", "heat_layer": -4.0374, "index_right": 1440, "socioeconomic_layer": 4.6396840073877597, "heat_socio_layer": 0.60228400738775978 }, "geometry": { "type": "Point", "coordinates": [ -13163458.319191509857774, 4035926.496423010714352 ] } },
{ "type": "Feature", "properties": { "STOPNUM": 16927, "STOPNAME": "Cesar E Chavez / Grand", "LAT": 34.060901, "LONG": -118.24398, "LINE_DIR1": "4-W", "LINE_DIR2": null, "LINE_DIR3": 0, "LINE_DIR4": 0, "LINE_DIR5": 0, "LINE_DIR6": 0, "LINE_DIR7": 0, "LINE_DIR8": 0, "LINE_DIR9": 0, "LINE_DIR10": 0, "LINE_DIR11": 0, "LINE_DIR12": 0, "LINE_DIR13": 0, "LINE_DIR14": 0, "layer_id": "bus_stops", "feature_name": "Bus Stop", "heat_layer": 2.6026, "index_right": 1423, "socioeconomic_layer": 3.6099212279158577, "heat_socio_layer": 6.2125212279158575 }, "geometry": { "type": "Point", "coordinates": [ -13162859.642970021814108, 4036982.476870502345264 ] } },
{ "type": "Feature", "properties": { "STOPNUM": 15750, "STOPNAME": "7th / Hope", "LAT": 34.048013, "LONG": -118.25744, "LINE_DIR1": "51-N", "LINE_DIR2": null, "LINE_DIR3": 0, "LINE_DIR4": 0, "LINE_DIR5": 0, "LINE_DIR6": 0, "LINE_DIR7": 0, "LINE_DIR8": 0, "LINE_DIR9": 0, "LINE_DIR10": 0, "LINE_DIR11": 0, "LINE_DIR12": 0, "LINE_DIR13": 0, "LINE_DIR14": 0, "layer_id": "bus_stops", "feature_name": "Bus Stop", "heat_layer": -8.3606, "index_right": 1444, "socioeconomic_layer": 2.5669514830171973, "heat_socio_layer": -5.7936485169828025 }, "geometry": { "type": "Point", "coordinates": [ -13164358.003316102549434, 4035250.822418441530317 ] } },
{ "type": "Feature", "properties": { "STOPNUM": 8099, "STOPNAME": "Temple / Occidental", "LAT": 34.073644, "LONG": -118.277738, "LINE_DIR1": "10-E", "LINE_DIR2": null, "LINE_DIR3": 0, "LINE_DIR4": 0, "LINE_DIR5": 0, "LINE_DIR6": 0, "LINE_DIR7": 0, "LINE_DIR8": 0, "LINE_DIR9": 0, "LINE_DIR10": 0, "LINE_DIR11": 0, "LINE_DIR12": 0, "LINE_DIR13": 0, "LINE_DIR14": 0, "layer_id": "bus_stops", "feature_name": "Bus Stop", "heat_layer": 3.4842, "index_right": 1465, "socioeconomic_layer": 3.3673137651075571, "heat_socio_layer": 6.8515137651075566 }, "geometry": { "type": "Point", "coordinates": [ -13166617.566340224817395, 4038694.907792004290968 ] } },
{ "type": "Feature", "properties": { "STOPNUM": 7367, "STOPNAME": "6th / Valencia", "LAT": 34.056188, "LONG": -118.267518, "LINE_DIR1": "18-E", "LINE_DIR2": null, "LINE_DIR3": 0, "LINE_DIR4": 0, "LINE_DIR5": 0, "LINE_DIR6": 0, "LINE_DIR7": 0, "LINE_DIR8": 0, "LINE_DIR9": 0, "LINE_DIR10": 0, "LINE_DIR11": 0, "LINE_DIR12": 0, "LINE_DIR13": 0, "LINE_DIR14": 0, "layer_id": "bus_stops", "feature_name": "Bus Stop", "heat_layer": 2.2414, "index_right": 1488, "socioeconomic_layer": 3.7082149720659903, "heat_socio_layer": 5.9496149720659908 }, "geometry": { "type": "Point", "coordinates": [ -13165479.881144316866994, 4036349.199327994138002 ] } },
{ "type": "Feature", "properties": { "STOPNUM": 12426, "STOPNAME": "Temple / Rosemont", "LAT": 34.07118, "LONG": -118.270406, "LINE_DIR1": "10-W", "LINE_DIR2": null, "LINE_DIR3": 0, "LINE_DIR4": 0, "LINE_DIR5": 0, "LINE_DIR6": 0, "LINE_DIR7": 0, "LINE_DIR8": 0, "LINE_DIR9": 0, "LINE_DIR10": 0, "LINE_DIR11": 0, "LINE_DIR12": 0, "LINE_DIR13": 0, "LINE_DIR14": 0, "layer_id": "bus_stops", "feature_name": "Bus Stop", "heat_layer": 0.7408, "index_right": 1263, "socioeconomic_layer": 3.618117405503658, "heat_socio_layer": 4.3589174055036581 }, "geometry": { "type": "Point", "coordinates": [ -13165801.371833726763725, 4038363.770246099680662 ] } },
{ "type": "Feature", "properties": { "STOPNUM": 140718, "STOPNAME": "Venice / Figueroa", "LAT": 34.037566, "LONG": -118.270673, "LINE_DIR1": "33-E", "LINE_DIR2": null, "LINE_DIR3": 0, "LINE_DIR4": 0, "LINE_DIR5": 0, "LINE_DIR6": 0, "LINE_DIR7": 0, "LINE_DIR8": 0, "LINE_DIR9": 0, "LINE_DIR10": 0, "LINE_DIR11": 0, "LINE_DIR12": 0, "LINE_DIR13": 0, "LINE_DIR14": 0, "layer_id": "bus_stops", "feature_name": "Bus Stop", "heat_layer": 1.8752, "index_right": 1809, "socioeconomic_layer": 3.2906005355624188, "heat_socio_layer": 5.1658005355624184 }, "geometry": { "type": "Point", "coordinates": [ -13165831.094137771055102, 4033847.338182506617159 ] } },
{ "type": "Feature", "properties": { "STOPNUM": 8102, "STOPNAME": "Temple / Union", "LAT": 34.068626, "LONG": -118.263441, "LINE_DIR1": "10-E", "LINE_DIR2": null, "LINE_DIR3": 0, "LINE_DIR4": 0, "LINE_DIR5": 0, "LINE_DIR6": 0, "LINE_DIR7": 0, "LINE_DIR8": 0, "LINE_DIR9": 0, "LINE_DIR10": 0, "LINE_DIR11": 0, "LINE_DIR12": 0, "LINE_DIR13": 0, "LINE_DIR14": 0, "layer_id": "bus_stops", "feature_name": "Bus Stop", "heat_layer": 1.9926, "index_right": 1459, "socioeconomic_layer": 3.3437569515432335, "heat_socio_layer": 5.3363569515432339 }, "geometry": { "type": "Point", "coordinates": [ -13165026.031580351293087, 4038020.547743864823133 ] } },
{ "type": "Feature", "properties": { "STOPNUM": 11902, "STOPNAME": "Broadway / Bishops", "LAT": 34.06902, "LONG": -118.233272, "LINE_DIR1": "45-S", "LINE_DIR2": null, "LINE_DIR3": 0, "LINE_DIR4": 0, "LINE_DIR5": 0, "LINE_DIR6": 0, "LINE_DIR7": 0, "LINE_DIR8": 0, "LINE_DIR9": 0, "LINE_DIR10": 0, "LINE_DIR11": 0, "LINE_DIR12": 0, "LINE_DIR13": 0, "LINE_DIR14": 0, "layer_id": "bus_stops", "feature_name": "Bus Stop", "heat_layer": 1.3642, "index_right": 1406, "socioeconomic_layer": 3.2420790417442666, "heat_socio_layer": 4.6062790417442665 }, "geometry": { "type": "Point", "coordinates": [ -13161667.633862610906363, 4038073.495254453737289 ] } },
{ "type": "Feature", "properties": { "STOPNUM": 17107, "STOPNAME": "23rd / Scarff", "LAT": 34.033376, "LONG": -118.279621, "LINE_DIR1": "93-N", "LINE_DIR2": null, "LINE_DIR3": 0, "LINE_DIR4": 0, "LINE_DIR5": 0, "LINE_DIR6": 0, "LINE_DIR7": 0, "LINE_DIR8": 0, "LINE_DIR9": 0, "LINE_DIR10": 0, "LINE_DIR11": 0, "LINE_DIR12": 0, "LINE_DIR13": 0, "LINE_DIR14": 0, "layer_id": "bus_stops", "feature_name": "Bus Stop", "heat_layer": 1.2426, "index_right": 1818, "socioeconomic_layer": 3.3345767925953593, "heat_socio_layer": 4.5771767925953597 }, "geometry": { "type": "Point", "coordinates": [ -13166827.180941386148334, 4033284.488411262631416 ] } },
{ "type": "Feature", "properties": { "STOPNUM": 5137, "STOPNAME": "Sunset / Alvarado", "LAT": 34.077662, "LONG": -118.263989, "LINE_DIR1": "2-W", "LINE_DIR2": "4-W", "LINE_DIR3": 0, "LINE_DIR4": 0, "LINE_DIR5": 0, "LINE_DIR6": 0, "LINE_DIR7": 0, "LINE_DIR8": 0, "LINE_DIR9": 0, "LINE_DIR10": 0, "LINE_DIR11": 0, "LINE_DIR12": 0, "LINE_DIR13": 0, "LINE_DIR14": 0, "layer_id": "bus_stops", "feature_name": "Bus Stop", "heat_layer": 0.9326, "index_right": 1258, "socioeconomic_layer": 3.2289424187738396, "heat_socio_layer": 4.1615424187738395 }, "geometry": { "type": "Point", "coordinates": [ -13165087.034661306068301, 4039234.908428001683205 ] } },
{ "type": "Feature", "properties": { "STOPNUM": 9423, "STOPNAME": "6th / Alameda", "LAT": 34.038178, "LONG": -118.238725, "LINE_DIR1": "18-E", "LINE_DIR2": null, "LINE_DIR3": 0, "LINE_DIR4": 0, "LINE_DIR5": 0, "LINE_DIR6": 0, "LINE_DIR7": 0, "LINE_DIR8": 0, "LINE_DIR9": 0, "LINE_DIR10": 0, "LINE_DIR11": 0, "LINE_DIR12": 0, "LINE_DIR13": 0, "LINE_DIR14": 0, "layer_id": "bus_stops", "feature_name": "Bus Stop", "heat_layer": 7.2614, "index_right": 1422, "socioeconomic_layer": 4.5922241777298698, "heat_socio_layer": 11.85362417772987 }, "geometry": { "type": "Point", "coordinates": [ -13162274.659045904874802, 4033929.551502292975783 ] } },
{ "type": "Feature", "properties": { "STOPNUM": 4660, "STOPNAME": "Alvarado / 8th", "LAT": 34.054654, "LONG": -118.277794, "LINE_DIR1": "2-W", "LINE_DIR2": null, "LINE_DIR3": 0, "LINE_DIR4": 0, "LINE_DIR5": 0, "LINE_DIR6": 0, "LINE_DIR7": 0, "LINE_DIR8": 0, "LINE_DIR9": 0, "LINE_DIR10": 0, "LINE_DIR11": 0, "LINE_DIR12": 0, "LINE_DIR13": 0, "LINE_DIR14": 0, "layer_id": "bus_stops", "feature_name": "Bus Stop", "heat_layer": 5.9264, "index_right": 1496, "socioeconomic_layer": 4.8159040043590311, "heat_socio_layer": 10.742304004359031 }, "geometry": { "type": "Point", "coordinates": [ -13166623.800231708213687, 4036143.086034436710179 ] } },
{ "type": "Feature", "properties": { "STOPNUM": 3149, "STOPNAME": "Maple / 30th", "LAT": 34.020477, "LONG": -118.267408, "LINE_DIR1": "10-E", "LINE_DIR2": null, "LINE_DIR3": 0, "LINE_DIR4": 0, "LINE_DIR5": 0, "LINE_DIR6": 0, "LINE_DIR7": 0, "LINE_DIR8": 0, "LINE_DIR9": 0, "LINE_DIR10": 0, "LINE_DIR11": 0, "LINE_DIR12": 0, "LINE_DIR13": 0, "LINE_DIR14": 0, "layer_id": "bus_stops", "feature_name": "Bus Stop", "heat_layer": 8.8206, "index_right": 1822, "socioeconomic_layer": 3.9531246568218585, "heat_socio_layer": 12.773724656821859 }, "geometry": { "type": "Point", "coordinates": [ -13165467.636000329628587, 4031551.918457468040287 ] } },
{ "type": "Feature", "properties": { "STOPNUM": 7272, "STOPNAME": "3rd / Bonnie Brae", "LAT": 34.061851, "LONG": -118.270396, "LINE_DIR1": "16-E", "LINE_DIR2": null, "LINE_DIR3": 0, "LINE_DIR4": 0, "LINE_DIR5": 0, "LINE_DIR6": 0, "LINE_DIR7": 0, "LINE_DIR8": 0, "LINE_DIR9": 0, "LINE_DIR10": 0, "LINE_DIR11": 0, "LINE_DIR12": 0, "LINE_DIR13": 0, "LINE_DIR14": 0, "layer_id": "bus_stops", "feature_name": "Bus Stop", "heat_layer": 5.2558, "index_right": 1480, "socioeconomic_layer": 4.5354192661559676, "heat_socio_layer": 9.7912192661559665 }, "geometry": { "type": "Point", "coordinates": [ -13165800.258638819679618, 4037110.130968661047518 ] } },
{ "type": "Feature", "properties": { "STOPNUM": 5271, "STOPNAME": "Main / 5th", "LAT": 34.046518, "LONG": -118.248516, "LINE_DIR1": "92-N", "LINE_DIR2": "33-E", "LINE_DIR3": 0, "LINE_DIR4": 0, "LINE_DIR5": 0, "LINE_DIR6": 0, "LINE_DIR7": 0, "LINE_DIR8": 0, "LINE_DIR9": 0, "LINE_DIR10": 0, "LINE_DIR11": 0, "LINE_DIR12": 0, "LINE_DIR13": 0, "LINE_DIR14": 0, "layer_id": "bus_stops", "feature_name": "Bus Stop", "heat_layer": -0.1694, "index_right": 1435, "socioeconomic_layer": 2.9848683683194053, "heat_socio_layer": 2.8154683683194053 }, "geometry": { "type": "Point", "coordinates": [ -13163364.588180262595415, 4035049.968615518417209 ] } },
{ "type": "Feature", "properties": { "STOPNUM": 4800005, "STOPNAME": "23rd / Maple", "LAT": 34.025815, "LONG": -118.264124, "LINE_DIR1": "10-E", "LINE_DIR2": null, "LINE_DIR3": 0, "LINE_DIR4": 0, "LINE_DIR5": 0, "LINE_DIR6": 0, "LINE_DIR7": 0, "LINE_DIR8": 0, "LINE_DIR9": 0, "LINE_DIR10": 0, "LINE_DIR11": 0, "LINE_DIR12": 0, "LINE_DIR13": 0, "LINE_DIR14": 0, "layer_id": "bus_stops", "feature_name": "Bus Stop", "heat_layer": 6.5238, "index_right": 1811, "socioeconomic_layer": 4.1759712630451817, "heat_socio_layer": 10.699771263045182 }, "geometry": { "type": "Point", "coordinates": [ -13165102.062792563810945, 4032268.876857026014477 ] } },
{ "type": "Feature", "properties": { "STOPNUM": 4851, "STOPNAME": "Central / 22nd", "LAT": 34.02139, "LONG": -118.253151, "LINE_DIR1": "53-N", "LINE_DIR2": null, "LINE_DIR3": 0, "LINE_DIR4": 0, "LINE_DIR5": 0, "LINE_DIR6": 0, "LINE_DIR7": 0, "LINE_DIR8": 0, "LINE_DIR9": 0, "LINE_DIR10": 0, "LINE_DIR11": 0, "LINE_DIR12": 0, "LINE_DIR13": 0, "LINE_DIR14": 0, "layer_id": "bus_stops", "feature_name": "Bus Stop", "heat_layer": 5.3354, "index_right": 1840, "socioeconomic_layer": 4.3309699717383046, "heat_socio_layer": 9.6663699717383054 }, "geometry": { "type": "Point", "coordinates": [ -13163880.554020090028644, 4031674.542278164066374 ] } },
{ "type": "Feature", "properties": { "STOPNUM": 13874, "STOPNAME": "San Pedro / 23rd", "LAT": 34.024119, "LONG": -118.259519, "LINE_DIR1": "51-N", "LINE_DIR2": null, "LINE_DIR3": 0, "LINE_DIR4": 0, "LINE_DIR5": 0, "LINE_DIR6": 0, "LINE_DIR7": 0, "LINE_DIR8": 0, "LINE_DIR9": 0, "LINE_DIR10": 0, "LINE_DIR11": 0, "LINE_DIR12": 0, "LINE_DIR13": 0, "LINE_DIR14": 0, "layer_id": "bus_stops", "feature_name": "Bus Stop", "heat_layer": 6.2056, "index_right": 1831, "socioeconomic_layer": 4.1549558350076268, "heat_socio_layer": 10.360555835007627 }, "geometry": { "type": "Point", "coordinates": [ -13164589.436537461355329, 4032041.078517572488636 ] } },
{ "type": "Feature", "properties": { "STOPNUM": 5110, "STOPNAME": "Grand / Jefferson", "LAT": 34.020455, "LONG": -118.275948, "LINE_DIR1": "35-N", "LINE_DIR2": null, "LINE_DIR3": 0, "LINE_DIR4": 0, "LINE_DIR5": 0, "LINE_DIR6": 0, "LINE_DIR7": 0, "LINE_DIR8": 0, "LINE_DIR9": 0, "LINE_DIR10": 0, "LINE_DIR11": 0, "LINE_DIR12": 0, "LINE_DIR13": 0, "LINE_DIR14": 0, "layer_id": "bus_stops", "feature_name": "Bus Stop", "heat_layer": 6.995, "index_right": 1823, "socioeconomic_layer": 4.0012046941292949, "heat_socio_layer": 10.996204694129295 }, "geometry": { "type": "Point", "coordinates": [ -13166418.304451704025269, 4031548.963682882487774 ] } },
{ "type": "Feature", "properties": { "STOPNUM": 1580, "STOPNAME": "Olympic / Hooper", "LAT": 34.029444, "LONG": -118.2413, "LINE_DIR1": "66-E", "LINE_DIR2": null, "LINE_DIR3": 0, "LINE_DIR4": 0, "LINE_DIR5": 0, "LINE_DIR6": 0, "LINE_DIR7": 0, "LINE_DIR8": 0, "LINE_DIR9": 0, "LINE_DIR10": 0, "LINE_DIR11": 0, "LINE_DIR12": 0, "LINE_DIR13": 0, "LINE_DIR14": 0, "layer_id": "bus_stops", "feature_name": "Bus Stop", "heat_layer": 7.5664, "index_right": 1828, "socioeconomic_layer": 3.8850682986319809, "heat_socio_layer": 11.45146829863198 }, "geometry": { "type": "Point", "coordinates": [ -13162561.306734697893262, 4032756.321498307399452 ] } },
{ "type": "Feature", "properties": { "STOPNUM": 4874, "STOPNAME": "Central / 8th", "LAT": 34.033336, "LONG": -118.243252, "LINE_DIR1": "53-N", "LINE_DIR2": null, "LINE_DIR3": 0, "LINE_DIR4": 0, "LINE_DIR5": 0, "LINE_DIR6": 0, "LINE_DIR7": 0, "LINE_DIR8": 0, "LINE_DIR9": 0, "LINE_DIR10": 0, "LINE_DIR11": 0, "LINE_DIR12": 0, "LINE_DIR13": 0, "LINE_DIR14": 0, "layer_id": "bus_stops", "feature_name": "Bus Stop", "heat_layer": 7.5664, "index_right": 1828, "socioeconomic_layer": 3.8850682986319809, "heat_socio_layer": 11.45146829863198 }, "geometry": { "type": "Point", "coordinates": [ -13162778.602380726486444, 4033279.1152777178213 ] } },
{ "type": "Feature", "properties": { "STOPNUM": 1166, "STOPNAME": "1st / Main", "LAT": 34.051917, "LONG": -118.243244, "LINE_DIR1": "30-E", "LINE_DIR2": "76-E", "LINE_DIR3": 0, "LINE_DIR4": 0, "LINE_DIR5": 0, "LINE_DIR6": 0, "LINE_DIR7": 0, "LINE_DIR8": 0, "LINE_DIR9": 0, "LINE_DIR10": 0, "LINE_DIR11": 0, "LINE_DIR12": 0, "LINE_DIR13": 0, "LINE_DIR14": 0, "layer_id": "bus_stops", "feature_name": "Bus Stop", "heat_layer": -3.6198, "index_right": 1437, "socioeconomic_layer": 3.0344124037054612, "heat_socio_layer": -0.58538759629453896 }, "geometry": { "type": "Point", "coordinates": [ -13162777.711824800819159, 4035775.342961799819022 ] } },
{ "type": "Feature", "properties": { "STOPNUM": 3587, "STOPNAME": "Temple / Grand", "LAT": 34.057114, "LONG": -118.245438, "LINE_DIR1": "10-E", "LINE_DIR2": "92-S", "LINE_DIR3": 0, "LINE_DIR4": 0, "LINE_DIR5": 0, "LINE_DIR6": 0, "LINE_DIR7": 0, "LINE_DIR8": 0, "LINE_DIR9": 0, "LINE_DIR10": 0, "LINE_DIR11": 0, "LINE_DIR12": 0, "LINE_DIR13": 0, "LINE_DIR14": 0, "layer_id": "bus_stops", "feature_name": "Bus Stop", "heat_layer": -3.6198, "index_right": 1437, "socioeconomic_layer": 3.0344124037054612, "heat_socio_layer": -0.58538759629453896 }, "geometry": { "type": "Point", "coordinates": [ -13163021.946787601336837, 4036473.621544003486633 ] } },
{ "type": "Feature", "properties": { "STOPNUM": 1248, "STOPNAME": "Broadway / 8th", "LAT": 34.043042, "LONG": -118.255203, "LINE_DIR1": "4-W", "LINE_DIR2": "45-N", "LINE_DIR3": 0, "LINE_DIR4": 0, "LINE_DIR5": 0, "LINE_DIR6": 0, "LINE_DIR7": 0, "LINE_DIR8": 0, "LINE_DIR9": 0, "LINE_DIR10": 0, "LINE_DIR11": 0, "LINE_DIR12": 0, "LINE_DIR13": 0, "LINE_DIR14": 0, "layer_id": "bus_stops", "feature_name": "Bus Stop", "heat_layer": -1.035, "index_right": 1429, "socioeconomic_layer": 2.8497964846490405, "heat_socio_layer": 1.8147964846490405 }, "geometry": { "type": "Point", "coordinates": [ -13164108.981615195050836, 4034582.980417910031974 ] } },
{ "type": "Feature", "properties": { "STOPNUM": 4658, "STOPNAME": "Alvarado / 6th", "LAT": 34.059302, "LONG": -118.274841, "LINE_DIR1": "2-W", "LINE_DIR2": null, "LINE_DIR3": 0, "LINE_DIR4": 0, "LINE_DIR5": 0, "LINE_DIR6": 0, "LINE_DIR7": 0, "LINE_DIR8": 0, "LINE_DIR9": 0, "LINE_DIR10": 0, "LINE_DIR11": 0, "LINE_DIR12": 0, "LINE_DIR13": 0, "LINE_DIR14": 0, "layer_id": "bus_stops", "feature_name": "Bus Stop", "heat_layer": 3.0338, "index_right": 1481, "socioeconomic_layer": 4.3185886164257381, "heat_socio_layer": 7.3523886164257384 }, "geometry": { "type": "Point", "coordinates": [ -13166295.073775395750999, 4036767.618098508100957 ] } },
{ "type": "Feature", "properties": { "STOPNUM": 1220, "STOPNAME": "7th / Maple", "LAT": 34.042447, "LONG": -118.249036, "LINE_DIR1": "20-W", "LINE_DIR2": "60-N", "LINE_DIR3": 0, "LINE_DIR4": 0, "LINE_DIR5": 0, "LINE_DIR6": 0, "LINE_DIR7": 0, "LINE_DIR8": 0, "LINE_DIR9": 0, "LINE_DIR10": 0, "LINE_DIR11": 0, "LINE_DIR12": 0, "LINE_DIR13": 0, "LINE_DIR14": 0, "layer_id": "bus_stops", "feature_name": "Bus Stop", "heat_layer": 3.047, "index_right": 1419, "socioeconomic_layer": 4.2611475813781556, "heat_socio_layer": 7.3081475813781562 }, "geometry": { "type": "Point", "coordinates": [ -13163422.474315475672483, 4034503.046209517866373 ] } },
{ "type": "Feature", "properties": { "STOPNUM": 6196, "STOPNAME": "Central / 1st", "LAT": 34.048483, "LONG": -118.239016, "LINE_DIR1": "30-E", "LINE_DIR2": "30-W", "LINE_DIR3": 0, "LINE_DIR4": 0, "LINE_DIR5": 0, "LINE_DIR6": 0, "LINE_DIR7": 0, "LINE_DIR8": 0, "LINE_DIR9": 0, "LINE_DIR10": 0, "LINE_DIR11": 0, "LINE_DIR12": 0, "LINE_DIR13": 0, "LINE_DIR14": 0, "layer_id": "bus_stops", "feature_name": "Bus Stop", "heat_layer": 3.886, "index_right": 1418, "socioeconomic_layer": 4.0514704839207818, "heat_socio_layer": 7.9374704839207819 }, "geometry": { "type": "Point", "coordinates": [ -13162307.053017726168036, 4035313.967823942191899 ] } },
{ "type": "Feature", "properties": { "STOPNUM": 15690, "STOPNAME": "5th / Flower", "LAT": 34.051564, "LONG": -118.255834, "LINE_DIR1": "16-W", "LINE_DIR2": "487-W", "LINE_DIR3": 0, "LINE_DIR4": 0, "LINE_DIR5": 0, "LINE_DIR6": 0, "LINE_DIR7": 0, "LINE_DIR8": 0, "LINE_DIR9": 0, "LINE_DIR10": 0, "LINE_DIR11": 0, "LINE_DIR12": 0, "LINE_DIR13": 0, "LINE_DIR14": 0, "layer_id": "bus_stops", "feature_name": "Bus Stop", "heat_layer": -8.6848, "index_right": 1441, "socioeconomic_layer": 3.8868018623141598, "heat_socio_layer": -4.7979981376858394 }, "geometry": { "type": "Point", "coordinates": [ -13164179.224213887006044, 4035727.914778065867722 ] } },
{ "type": "Feature", "properties": { "STOPNUM": 17116, "STOPNAME": "Rampart / 3rd", "LAT": 34.065983, "LONG": -118.278921, "LINE_DIR1": "93-N", "LINE_DIR2": null, "LINE_DIR3": 0, "LINE_DIR4": 0, "LINE_DIR5": 0, "LINE_DIR6": 0, "LINE_DIR7": 0, "LINE_DIR8": 0, "LINE_DIR9": 0, "LINE_DIR10": 0, "LINE_DIR11": 0, "LINE_DIR12": 0, "LINE_DIR13": 0, "LINE_DIR14": 0, "layer_id": "bus_stops", "feature_name": "Bus Stop", "heat_layer": 3.5368, "index_right": 1472, "socioeconomic_layer": 4.0660128866313325, "heat_socio_layer": 7.602812886631332 }, "geometry": { "type": "Point", "coordinates": [ -13166749.257297832518816, 4037665.375757852569222 ] } },
{ "type": "Feature", "properties": { "STOPNUM": 1253, "STOPNAME": "Adams / Griffith", "LAT": 34.0201, "LONG": -118.257698, "LINE_DIR1": "55-N", "LINE_DIR2": null, "LINE_DIR3": 0, "LINE_DIR4": 0, "LINE_DIR5": 0, "LINE_DIR6": 0, "LINE_DIR7": 0, "LINE_DIR8": 0, "LINE_DIR9": 0, "LINE_DIR10": 0, "LINE_DIR11": 0, "LINE_DIR12": 0, "LINE_DIR13": 0, "LINE_DIR14": 0, "layer_id": "bus_stops", "feature_name": "Bus Stop", "heat_layer": 5.1188, "index_right": 1832, "socioeconomic_layer": 3.7487194136665773, "heat_socio_layer": 8.867519413666578 }, "geometry": { "type": "Point", "coordinates": [ -13164386.723744725808501, 4031501.284471592400223 ] } },
{ "type": "Feature", "properties": { "STOPNUM": 13574, "STOPNAME": "Pico / Grand", "LAT": 34.038869, "LONG": -118.264552, "LINE_DIR1": "30-E", "LINE_DIR2": null, "LINE_DIR3": 0, "LINE_DIR4": 0, "LINE_DIR5": 0, "LINE_DIR6": 0, "LINE_DIR7": 0, "LINE_DIR8": 0, "LINE_DIR9": 0, "LINE_DIR10": 0, "LINE_DIR11": 0, "LINE_DIR12": 0, "LINE_DIR13": 0, "LINE_DIR14": 0, "layer_id": "bus_stops", "feature_name": "Bus Stop", "heat_layer": 5.397, "index_right": 1808, "socioeconomic_layer": 3.5578625043066285, "heat_socio_layer": 8.9548625043066288 }, "geometry": { "type": "Point", "coordinates": [ -13165149.707534624263644, 4034022.3780387500301 ] } },
{ "type": "Feature", "properties": { "STOPNUM": 7343, "STOPNAME": "6th / Bixel", "LAT": 34.053999, "LONG": -118.262341, "LINE_DIR1": "20-E", "LINE_DIR2": "18-E", "LINE_DIR3": 0, "LINE_DIR4": 0, "LINE_DIR5": 0, "LINE_DIR6": 0, "LINE_DIR7": 0, "LINE_DIR8": 0, "LINE_DIR9": 0, "LINE_DIR10": 0, "LINE_DIR11": 0, "LINE_DIR12": 0, "LINE_DIR13": 0, "LINE_DIR14": 0, "layer_id": "bus_stops", "feature_name": "Bus Stop", "heat_layer": -3.8102, "index_right": 1489, "socioeconomic_layer": 2.78190352021248, "heat_socio_layer": -1.02829647978752 }, "geometry": { "type": "Point", "coordinates": [ -13164903.580140480771661, 4036055.079212940298021 ] } },
{ "type": "Feature", "properties": { "STOPNUM": 15636, "STOPNAME": "3rd / Grand View", "LAT": 34.063949, "LONG": -118.27446, "LINE_DIR1": "16-W", "LINE_DIR2": null, "LINE_DIR3": 0, "LINE_DIR4": 0, "LINE_DIR5": 0, "LINE_DIR6": 0, "LINE_DIR7": 0, "LINE_DIR8": 0, "LINE_DIR9": 0, "LINE_DIR10": 0, "LINE_DIR11": 0, "LINE_DIR12": 0, "LINE_DIR13": 0, "LINE_DIR14": 0, "layer_id": "bus_stops", "feature_name": "Bus Stop", "heat_layer": 1.1236, "index_right": 1463, "socioeconomic_layer": 4.1265311828514779, "heat_socio_layer": 5.2501311828514776 }, "geometry": { "type": "Point", "coordinates": [ -13166252.661049403250217, 4037392.050036253407598 ] } },
{ "type": "Feature", "properties": { "STOPNUM": 4703, "STOPNAME": "Venice / Toberman", "LAT": 34.041393, "LONG": -118.279022, "LINE_DIR1": "33-E", "LINE_DIR2": null, "LINE_DIR3": 0, "LINE_DIR4": 0, "LINE_DIR5": 0, "LINE_DIR6": 0, "LINE_DIR7": 0, "LINE_DIR8": 0, "LINE_DIR9": 0, "LINE_DIR10": 0, "LINE_DIR11": 0, "LINE_DIR12": 0, "LINE_DIR13": 0, "LINE_DIR14": 0, "layer_id": "bus_stops", "feature_name": "Bus Stop", "heat_layer": 2.4842, "index_right": 1813, "socioeconomic_layer": 3.7824015688104566, "heat_socio_layer": 6.2666015688104562 }, "geometry": { "type": "Point", "coordinates": [ -13166760.500566402450204, 4034361.449845514725894 ] } },
{ "type": "Feature", "properties": { "STOPNUM": 5479, "STOPNAME": "San Pedro / 11th", "LAT": 34.035434, "LONG": -118.252206, "LINE_DIR1": "51-S", "LINE_DIR2": null, "LINE_DIR3": 0, "LINE_DIR4": 0, "LINE_DIR5": 0, "LINE_DIR6": 0, "LINE_DIR7": 0, "LINE_DIR8": 0, "LINE_DIR9": 0, "LINE_DIR10": 0, "LINE_DIR11": 0, "LINE_DIR12": 0, "LINE_DIR13": 0, "LINE_DIR14": 0, "layer_id": "bus_stops", "feature_name": "Bus Stop", "heat_layer": 7.4758, "index_right": 1827, "socioeconomic_layer": 2.8409808997107788, "heat_socio_layer": 10.316780899710778 }, "geometry": { "type": "Point", "coordinates": [ -13163775.35710128955543, 4033560.939550477080047 ] } },
{ "type": "Feature", "properties": { "STOPNUM": 4219, "STOPNAME": "Olympic / Figueroa", "LAT": 34.045185, "LONG": -118.264159, "LINE_DIR1": "28-W", "LINE_DIR2": null, "LINE_DIR3": 0, "LINE_DIR4": 0, "LINE_DIR5": 0, "LINE_DIR6": 0, "LINE_DIR7": 0, "LINE_DIR8": 0, "LINE_DIR9": 0, "LINE_DIR10": 0, "LINE_DIR11": 0, "LINE_DIR12": 0, "LINE_DIR13": 0, "LINE_DIR14": 0, "layer_id": "bus_stops", "feature_name": "Bus Stop", "heat_layer": -4.5012, "index_right": 1442, "socioeconomic_layer": 2.2883277220234759, "heat_socio_layer": -2.212872277976524 }, "geometry": { "type": "Point", "coordinates": [ -13165105.958974741399288, 4034870.882558860816061 ] } },
{ "type": "Feature", "properties": { "STOPNUM": 955, "STOPNAME": "Hill / 5th", "LAT": 34.049565, "LONG": -118.251193, "LINE_DIR1": "94-S", "LINE_DIR2": null, "LINE_DIR3": 0, "LINE_DIR4": 0, "LINE_DIR5": 0, "LINE_DIR6": 0, "LINE_DIR7": 0, "LINE_DIR8": 0, "LINE_DIR9": 0, "LINE_DIR10": 0, "LINE_DIR11": 0, "LINE_DIR12": 0, "LINE_DIR13": 0, "LINE_DIR14": 0, "layer_id": "bus_stops", "feature_name": "Bus Stop", "heat_layer": -4.0374, "index_right": 1440, "socioeconomic_layer": 4.6396840073877597, "heat_socio_layer": 0.60228400738775978 }, "geometry": { "type": "Point", "coordinates": [ -13163662.590457117184997, 4035459.337938957381994 ] } },
{ "type": "Feature", "properties": { "STOPNUM": 17118, "STOPNAME": "Coronado / Bellevue", "LAT": 34.075203, "LONG": -118.271506, "LINE_DIR1": "93-N", "LINE_DIR2": null, "LINE_DIR3": 0, "LINE_DIR4": 0, "LINE_DIR5": 0, "LINE_DIR6": 0, "LINE_DIR7": 0, "LINE_DIR8": 0, "LINE_DIR9": 0, "LINE_DIR10": 0, "LINE_DIR11": 0, "LINE_DIR12": 0, "LINE_DIR13": 0, "LINE_DIR14": 0, "layer_id": "bus_stops", "feature_name": "Bus Stop", "heat_layer": 0.8106, "index_right": 1262, "socioeconomic_layer": 3.7335646649584029, "heat_socio_layer": 4.5441646649584033 }, "geometry": { "type": "Point", "coordinates": [ -13165923.823273599147797, 4038904.427147814072669 ] } },
{ "type": "Feature", "properties": { "STOPNUM": 3692, "STOPNAME": "Figueroa / 30th", "LAT": 34.025233, "LONG": -118.277688, "LINE_DIR1": "81-N", "LINE_DIR2": null, "LINE_DIR3": 0, "LINE_DIR4": 0, "LINE_DIR5": 0, "LINE_DIR6": 0, "LINE_DIR7": 0, "LINE_DIR8": 0, "LINE_DIR9": 0, "LINE_DIR10": 0, "LINE_DIR11": 0, "LINE_DIR12": 0, "LINE_DIR13": 0, "LINE_DIR14": 0, "layer_id": "bus_stops", "feature_name": "Bus Stop", "heat_layer": 0.8752, "index_right": 1825, "socioeconomic_layer": 3.700850923195929, "heat_socio_layer": 4.576050923195929 }, "geometry": { "type": "Point", "coordinates": [ -13166612.000365681946278, 4032190.704979825764894 ] } },
{ "type": "Feature", "properties": { "STOPNUM": 16319, "STOPNAME": "Sunset / Beaudry", "LAT": 34.06515, "LONG": -118.248988, "LINE_DIR1": "4-W", "LINE_DIR2": null, "LINE_DIR3": 0, "LINE_DIR4": 0, "LINE_DIR5": 0, "LINE_DIR6": 0, "LINE_DIR7": 0, "LINE_DIR8": 0, "LINE_DIR9": 0, "LINE_DIR10": 0, "LINE_DIR11": 0, "LINE_DIR12": 0, "LINE_DIR13": 0, "LINE_DIR14": 0, "layer_id": "bus_stops", "feature_name": "Bus Stop", "heat_layer": 2.7822, "index_right": 1294, "socioeconomic_layer": 3.2628429892806534, "heat_socio_layer": 6.0450429892806534 }, "geometry": { "type": "Point", "coordinates": [ -13163417.130979916080832, 4037553.437734458129853 ] } },
{ "type": "Feature", "properties": { "STOPNUM": 7901, "STOPNAME": "Pico / L.A. Live", "LAT": 34.042129, "LONG": -118.271573, "LINE_DIR1": "30-E", "LINE_DIR2": null, "LINE_DIR3": 0, "LINE_DIR4": 0, "LINE_DIR5": 0, "LINE_DIR6": 0, "LINE_DIR7": 0, "LINE_DIR8": 0, "LINE_DIR9": 0, "LINE_DIR10": 0, "LINE_DIR11": 0, "LINE_DIR12": 0, "LINE_DIR13": 0, "LINE_DIR14": 0, "layer_id": "bus_stops", "feature_name": "Bus Stop", "heat_layer": 1.8752, "index_right": 1809, "socioeconomic_layer": 3.2906005355624188, "heat_socio_layer": 5.1658005355624184 }, "geometry": { "type": "Point", "coordinates": [ -13165931.281679483130574, 4034460.325299524702132 ] } },
{ "type": "Feature", "properties": { "STOPNUM": 2422, "STOPNAME": "Sunset / Vin Scully - Dodger Stadium", "LAT": 34.072623, "LONG": -118.250922, "LINE_DIR1": "4-W", "LINE_DIR2": null, "LINE_DIR3": 0, "LINE_DIR4": 0, "LINE_DIR5": 0, "LINE_DIR6": 0, "LINE_DIR7": 0, "LINE_DIR8": 0, "LINE_DIR9": 0, "LINE_DIR10": 0, "LINE_DIR11": 0, "LINE_DIR12": 0, "LINE_DIR13": 0, "LINE_DIR14": 0, "layer_id": "bus_stops", "feature_name": "Bus Stop", "heat_layer": 0.7626, "index_right": 1293, "socioeconomic_layer": 3.4018008819116576, "heat_socio_layer": 4.1644008819116571 }, "geometry": { "type": "Point", "coordinates": [ -13163632.422875111922622, 4038557.694190588314086 ] } },
{ "type": "Feature", "properties": { "STOPNUM": 16323, "STOPNAME": "Sunset / Coronado", "LAT": 34.079526, "LONG": -118.268749, "LINE_DIR1": "2-W", "LINE_DIR2": "4-W", "LINE_DIR3": 0, "LINE_DIR4": 0, "LINE_DIR5": 0, "LINE_DIR6": 0, "LINE_DIR7": 0, "LINE_DIR8": 0, "LINE_DIR9": 0, "LINE_DIR10": 0, "LINE_DIR11": 0, "LINE_DIR12": 0, "LINE_DIR13": 0, "LINE_DIR14": 0, "layer_id": "bus_stops", "feature_name": "Bus Stop", "heat_layer": 0.9326, "index_right": 1258, "socioeconomic_layer": 3.2289424187738396, "heat_socio_layer": 4.1615424187738395 }, "geometry": { "type": "Point", "coordinates": [ -13165616.915437484160066, 4039485.430114625953138 ] } },
{ "type": "Feature", "properties": { "STOPNUM": 7455, "STOPNAME": "Adams / Chester", "LAT": 34.029264, "LONG": -118.278713, "LINE_DIR1": "14-N", "LINE_DIR2": null, "LINE_DIR3": 0, "LINE_DIR4": 0, "LINE_DIR5": 0, "LINE_DIR6": 0, "LINE_DIR7": 0, "LINE_DIR8": 0, "LINE_DIR9": 0, "LINE_DIR10": 0, "LINE_DIR11": 0, "LINE_DIR12": 0, "LINE_DIR13": 0, "LINE_DIR14": 0, "layer_id": "bus_stops", "feature_name": "Bus Stop", "heat_layer": 0.578, "index_right": 1824, "socioeconomic_layer": 3.2453194704619666, "heat_socio_layer": 3.8233194704619664 }, "geometry": { "type": "Point", "coordinates": [ -13166726.102843746542931, 4032732.143537825904787 ] } },
{ "type": "Feature", "properties": { "STOPNUM": 1131, "STOPNAME": "Main / 11th", "LAT": 34.038897, "LONG": -118.258109, "LINE_DIR1": "10-W", "LINE_DIR2": "55-N", "LINE_DIR3": 0, "LINE_DIR4": 0, "LINE_DIR5": 0, "LINE_DIR6": 0, "LINE_DIR7": 0, "LINE_DIR8": 0, "LINE_DIR9": 0, "LINE_DIR10": 0, "LINE_DIR11": 0, "LINE_DIR12": 0, "LINE_DIR13": 0, "LINE_DIR14": 0, "layer_id": "bus_stops", "feature_name": "Bus Stop", "heat_layer": 2.222, "index_right": 1447, "socioeconomic_layer": 2.8582636218966657, "heat_socio_layer": 5.0802636218966661 }, "geometry": { "type": "Point", "coordinates": [ -13164432.476055441424251, 4034026.13947729812935 ] } },
{ "type": "Feature", "properties": { "STOPNUM": 1246, "STOPNAME": "9th / Maple", "LAT": 34.039507, "LONG": -118.252902, "LINE_DIR1": "66-E", "LINE_DIR2": null, "LINE_DIR3": 0, "LINE_DIR4": 0, "LINE_DIR5": 0, "LINE_DIR6": 0, "LINE_DIR7": 0, "LINE_DIR8": 0, "LINE_DIR9": 0, "LINE_DIR10": 0, "LINE_DIR11": 0, "LINE_DIR12": 0, "LINE_DIR13": 0, "LINE_DIR14": 0, "layer_id": "bus_stops", "feature_name": "Bus Stop", "heat_layer": 2.222, "index_right": 1447, "socioeconomic_layer": 2.8582636218966657, "heat_socio_layer": 5.0802636218966661 }, "geometry": { "type": "Point", "coordinates": [ -13163852.835466880351305, 4034108.085411005653441 ] } },
{ "type": "Feature", "properties": { "STOPNUM": 1177, "STOPNAME": "1st / Vignes", "LAT": 34.048333, "LONG": -118.234053, "LINE_DIR1": "106-S", "LINE_DIR2": null, "LINE_DIR3": 0, "LINE_DIR4": 0, "LINE_DIR5": 0, "LINE_DIR6": 0, "LINE_DIR7": 0, "LINE_DIR8": 0, "LINE_DIR9": 0, "LINE_DIR10": 0, "LINE_DIR11": 0, "LINE_DIR12": 0, "LINE_DIR13": 0, "LINE_DIR14": 0, "layer_id": "bus_stops", "feature_name": "Bus Stop", "heat_layer": 3.2978, "index_right": 1412, "socioeconomic_layer": 2.6415830528515021, "heat_socio_layer": 5.9393830528515021 }, "geometry": { "type": "Point", "coordinates": [ -13161754.574384918436408, 4035293.814996923319995 ] } },
{ "type": "Feature", "properties": { "STOPNUM": 9741, "STOPNAME": "6th / Mateo", "LAT": 34.038382, "LONG": -118.232929, "LINE_DIR1": "18-W", "LINE_DIR2": null, "LINE_DIR3": 0, "LINE_DIR4": 0, "LINE_DIR5": 0, "LINE_DIR6": 0, "LINE_DIR7": 0, "LINE_DIR8": 0, "LINE_DIR9": 0, "LINE_DIR10": 0, "LINE_DIR11": 0, "LINE_DIR12": 0, "LINE_DIR13": 0, "LINE_DIR14": 0, "layer_id": "bus_stops", "feature_name": "Bus Stop", "heat_layer": 5.1216, "index_right": 1411, "socioeconomic_layer": 2.1698481983074149, "heat_socio_layer": 7.2914481983074149 }, "geometry": { "type": "Point", "coordinates": [ -13161629.451277267187834, 4033956.956074036192149 ] } },
{ "type": "Feature", "properties": { "STOPNUM": 1581, "STOPNAME": "Olympic / Lawrence", "LAT": 34.02694, "LONG": -118.237112, "LINE_DIR1": "66-E", "LINE_DIR2": null, "LINE_DIR3": 0, "LINE_DIR4": 0, "LINE_DIR5": 0, "LINE_DIR6": 0, "LINE_DIR7": 0, "LINE_DIR8": 0, "LINE_DIR9": 0, "LINE_DIR10": 0, "LINE_DIR11": 0, "LINE_DIR12": 0, "LINE_DIR13": 0, "LINE_DIR14": 0, "layer_id": "bus_stops", "feature_name": "Bus Stop", "heat_layer": 6.4136, "index_right": 1410, "socioeconomic_layer": 1.9233717772954733, "heat_socio_layer": 8.3369717772954726 }, "geometry": { "type": "Point", "coordinates": [ -13162095.100707257166505, 4032419.983809520024806 ] } },
{ "type": "Feature", "properties": { "STOPNUM": 1583, "STOPNAME": "Olympic / Mateo", "LAT": 34.025807, "LONG": -118.231841, "LINE_DIR1": "66-E", "LINE_DIR2": null, "LINE_DIR3": 0, "LINE_DIR4": 0, "LINE_DIR5": 0, "LINE_DIR6": 0, "LINE_DIR7": 0, "LINE_DIR8": 0, "LINE_DIR9": 0, "LINE_DIR10": 0, "LINE_DIR11": 0, "LINE_DIR12": 0, "LINE_DIR13": 0, "LINE_DIR14": 0, "layer_id": "bus_stops", "feature_name": "Bus Stop", "heat_layer": 6.4136, "index_right": 1410, "socioeconomic_layer": 1.9233717772954733, "heat_socio_layer": 8.3369717772954726 }, "geometry": { "type": "Point", "coordinates": [ -13161508.335671285167336, 4032267.802325869910419 ] } },
{ "type": "Feature", "properties": { "STOPNUM": 5528, "STOPNAME": "Santa Fe / 15th", "LAT": 34.020964, "LONG": -118.230003, "LINE_DIR1": "60-N", "LINE_DIR2": null, "LINE_DIR3": 0, "LINE_DIR4": 0, "LINE_DIR5": 0, "LINE_DIR6": 0, "LINE_DIR7": 0, "LINE_DIR8": 0, "LINE_DIR9": 0, "LINE_DIR10": 0, "LINE_DIR11": 0, "LINE_DIR12": 0, "LINE_DIR13": 0, "LINE_DIR14": 0, "layer_id": "bus_stops", "feature_name": "Bus Stop", "heat_layer": 6.4136, "index_right": 1410, "socioeconomic_layer": 1.9233717772954733, "heat_socio_layer": 8.3369717772954726 }, "geometry": { "type": "Point", "coordinates": [ -13161303.730447208508849, 4031617.326618276070803 ] } },
{ "type": "Feature", "properties": { "STOPNUM": 9764, "STOPNAME": "7th / Santa Fe", "LAT": 34.034422, "LONG": -118.230225, "LINE_DIR1": "60-S", "LINE_DIR2": "62-S", "LINE_DIR3": 0, "LINE_DIR4": 0, "LINE_DIR5": 0, "LINE_DIR6": 0, "LINE_DIR7": 0, "LINE_DIR8": 0, "LINE_DIR9": 0, "LINE_DIR10": 0, "LINE_DIR11": 0, "LINE_DIR12": 0, "LINE_DIR13": 0, "LINE_DIR14": 0, "layer_id": "bus_stops", "feature_name": "Bus Stop", "heat_layer": 6.4136, "index_right": 1410, "socioeconomic_layer": 1.9233717772954733, "heat_socio_layer": 8.3369717772954726 }, "geometry": { "type": "Point", "coordinates": [ -13161328.44337416253984, 4033424.996752788778394 ] } },
{ "type": "Feature", "properties": { "STOPNUM": 16931, "STOPNAME": "Santa Fe / 8th", "LAT": 34.029724, "LONG": -118.230096, "LINE_DIR1": "60-S", "LINE_DIR2": null, "LINE_DIR3": 0, "LINE_DIR4": 0, "LINE_DIR5": 0, "LINE_DIR6": 0, "LINE_DIR7": 0, "LINE_DIR8": 0, "LINE_DIR9": 0, "LINE_DIR10": 0, "LINE_DIR11": 0, "LINE_DIR12": 0, "LINE_DIR13": 0, "LINE_DIR14": 0, "layer_id": "bus_stops", "feature_name": "Bus Stop", "heat_layer": 6.4136, "index_right": 1410, "socioeconomic_layer": 1.9233717772954733, "heat_socio_layer": 8.3369717772954726 }, "geometry": { "type": "Point", "coordinates": [ -13161314.083159849047661, 4032793.931761004496366 ] } },
{ "type": "Feature", "properties": { "STOPNUM": 70, "STOPNAME": "El Monte Busway Layover", "LAT": 34.05449, "LONG": -118.237358, "LINE_DIR1": "487-E", "LINE_DIR2": "487-W", "LINE_DIR3": 0, "LINE_DIR4": 0, "LINE_DIR5": 0, "LINE_DIR6": 0, "LINE_DIR7": 0, "LINE_DIR8": 0, "LINE_DIR9": 0, "LINE_DIR10": 0, "LINE_DIR11": 0, "LINE_DIR12": 0, "LINE_DIR13": 0, "LINE_DIR14": 0, "layer_id": "bus_stops", "feature_name": "Bus Stop", "heat_layer": 0.563, "index_right": 1408, "socioeconomic_layer": 2.7759465506022822, "heat_socio_layer": 3.338946550602282 }, "geometry": { "type": "Point", "coordinates": [ -13162122.485301991924644, 4036121.050674857571721 ] } },
{ "type": "Feature", "properties": { "STOPNUM": 652, "STOPNAME": "Cesar E Chavez / Vignes", "LAT": 34.056569, "LONG": -118.232191, "LINE_DIR1": "33-E", "LINE_DIR2": "40-N", "LINE_DIR3": 0, "LINE_DIR4": 0, "LINE_DIR5": 0, "LINE_DIR6": 0, "LINE_DIR7": 0, "LINE_DIR8": 0, "LINE_DIR9": 0, "LINE_DIR10": 0, "LINE_DIR11": 0, "LINE_DIR12": 0, "LINE_DIR13": 0, "LINE_DIR14": 0, "layer_id": "bus_stops", "feature_name": "Bus Stop", "heat_layer": 0.563, "index_right": 1408, "socioeconomic_layer": 2.7759465506022822, "heat_socio_layer": 3.338946550602282 }, "geometry": { "type": "Point", "coordinates": [ -13161547.297493062913418, 4036400.392321408260614 ] } },
{ "type": "Feature", "properties": { "STOPNUM": 3780, "STOPNAME": "Main / Vignes", "LAT": 34.061097, "LONG": -118.235218, "LINE_DIR1": "76-E", "LINE_DIR2": null, "LINE_DIR3": 0, "LINE_DIR4": 0, "LINE_DIR5": 0, "LINE_DIR6": 0, "LINE_DIR7": 0, "LINE_DIR8": 0, "LINE_DIR9": 0, "LINE_DIR10": 0, "LINE_DIR11": 0, "LINE_DIR12": 0, "LINE_DIR13": 0, "LINE_DIR14": 0, "layer_id": "bus_stops", "feature_name": "Bus Stop", "heat_layer": 0.563, "index_right": 1408, "socioeconomic_layer": 2.7759465506022822, "heat_socio_layer": 3.338946550602282 }, "geometry": { "type": "Point", "coordinates": [ -13161884.261591693386436, 4037008.813809385057539 ] } },
{ "type": "Feature", "properties": { "STOPNUM": 15777, "STOPNAME": "8th / Bixel", "LAT": 34.049681, "LONG": -118.265042, "LINE_DIR1": "66-W", "LINE_DIR2": null, "LINE_DIR3": 0, "LINE_DIR4": 0, "LINE_DIR5": 0, "LINE_DIR6": 0, "LINE_DIR7": 0, "LINE_DIR8": 0, "LINE_DIR9": 0, "LINE_DIR10": 0, "LINE_DIR11": 0, "LINE_DIR12": 0, "LINE_DIR13": 0, "LINE_DIR14": 0, "layer_id": "bus_stops", "feature_name": "Bus Stop", "heat_layer": -3.8072, "index_right": 1493, "socioeconomic_layer": 3.4183460869043132, "heat_socio_layer": -0.38885391309568673 }, "geometry": { "type": "Point", "coordinates": [ -13165204.254085110500455, 4035474.923015180509537 ] } },
{ "type": "Feature", "properties": { "STOPNUM": 6393, "STOPNAME": "Sunset / Portia", "LAT": 34.075369, "LONG": -118.254457, "LINE_DIR1": "4-E", "LINE_DIR2": null, "LINE_DIR3": 0, "LINE_DIR4": 0, "LINE_DIR5": 0, "LINE_DIR6": 0, "LINE_DIR7": 0, "LINE_DIR8": 0, "LINE_DIR9": 0, "LINE_DIR10": 0, "LINE_DIR11": 0, "LINE_DIR12": 0, "LINE_DIR13": 0, "LINE_DIR14": 0, "layer_id": "bus_stops", "feature_name": "Bus Stop", "heat_layer": -0.5886, "index_right": 1288, "socioeconomic_layer": 2.7996481684560739, "heat_socio_layer": 2.2110481684560739 }, "geometry": { "type": "Point", "coordinates": [ -13164025.937275066971779, 4038926.736684188246727 ] } },
{ "type": "Feature", "properties": { "STOPNUM": 8093, "STOPNAME": "Temple / Figueroa", "LAT": 34.060238, "LONG": -118.248712, "LINE_DIR1": "10-W", "LINE_DIR2": "92-N", "LINE_DIR3": 0, "LINE_DIR4": 0, "LINE_DIR5": 0, "LINE_DIR6": 0, "LINE_DIR7": 0, "LINE_DIR8": 0, "LINE_DIR9": 0, "LINE_DIR10": 0, "LINE_DIR11": 0, "LINE_DIR12": 0, "LINE_DIR13": 0, "LINE_DIR14": 0, "layer_id": "bus_stops", "feature_name": "Bus Stop", "heat_layer": -3.6198, "index_right": 1437, "socioeconomic_layer": 3.0344124037054612, "heat_socio_layer": -0.58538759629453896 }, "geometry": { "type": "Point", "coordinates": [ -13163386.406800456345081, 4036893.388595052994788 ] } },
{ "type": "Feature", "properties": { "STOPNUM": 1257, "STOPNAME": "Adams / Main", "LAT": 34.024844, "LONG": -118.268385, "LINE_DIR1": "55-N", "LINE_DIR2": null, "LINE_DIR3": 0, "LINE_DIR4": 0, "LINE_DIR5": 0, "LINE_DIR6": 0, "LINE_DIR7": 0, "LINE_DIR8": 0, "LINE_DIR9": 0, "LINE_DIR10": 0, "LINE_DIR11": 0, "LINE_DIR12": 0, "LINE_DIR13": 0, "LINE_DIR14": 0, "layer_id": "bus_stops", "feature_name": "Bus Stop", "heat_layer": 6.5238, "index_right": 1811, "socioeconomic_layer": 4.1759712630451817, "heat_socio_layer": 10.699771263045182 }, "geometry": { "type": "Point", "coordinates": [ -13165576.395142832770944, 4032138.456377998925745 ] } },
{ "type": "Feature", "properties": { "STOPNUM": 384, "STOPNAME": "Bellevue / Laveta", "LAT": 34.069497, "LONG": -118.258494, "LINE_DIR1": "92-N", "LINE_DIR2": null, "LINE_DIR3": 0, "LINE_DIR4": 0, "LINE_DIR5": 0, "LINE_DIR6": 0, "LINE_DIR7": 0, "LINE_DIR8": 0, "LINE_DIR9": 0, "LINE_DIR10": 0, "LINE_DIR11": 0, "LINE_DIR12": 0, "LINE_DIR13": 0, "LINE_DIR14": 0, "layer_id": "bus_stops", "feature_name": "Bus Stop", "heat_layer": -2.3577, "index_right": 1289, "socioeconomic_layer": 2.6517162263310508, "heat_socio_layer": 0.29401622633105085 }, "geometry": { "type": "Point", "coordinates": [ -13164475.334059396758676, 4038137.597011742182076 ] } },
{ "type": "Feature", "properties": { "STOPNUM": 2210, "STOPNAME": "Glendale / Santa Ynez", "LAT": 34.074249, "LONG": -118.26157, "LINE_DIR1": "92-N", "LINE_DIR2": null, "LINE_DIR3": 0, "LINE_DIR4": 0, "LINE_DIR5": 0, "LINE_DIR6": 0, "LINE_DIR7": 0, "LINE_DIR8": 0, "LINE_DIR9": 0, "LINE_DIR10": 0, "LINE_DIR11": 0, "LINE_DIR12": 0, "LINE_DIR13": 0, "LINE_DIR14": 0, "layer_id": "bus_stops", "feature_name": "Bus Stop", "heat_layer": -5.4832, "index_right": 1290, "socioeconomic_layer": 2.2636573879359259, "heat_socio_layer": -3.2195426120640742 }, "geometry": { "type": "Point", "coordinates": [ -13164817.752813076600432, 4038776.215358689893037 ] } },
{ "type": "Feature", "properties": { "STOPNUM": 70500013, "STOPNAME": "1st / Hope", "LAT": 34.056646, "LONG": -118.249996, "LINE_DIR1": "14-N", "LINE_DIR2": null, "LINE_DIR3": 0, "LINE_DIR4": 0, "LINE_DIR5": 0, "LINE_DIR6": 0, "LINE_DIR7": 0, "LINE_DIR8": 0, "LINE_DIR9": 0, "LINE_DIR10": 0, "LINE_DIR11": 0, "LINE_DIR12": 0, "LINE_DIR13": 0, "LINE_DIR14": 0, "layer_id": "bus_stops", "feature_name": "Bus Stop", "heat_layer": -3.6198, "index_right": 1437, "socioeconomic_layer": 3.0344124037054612, "heat_socio_layer": -0.58538759629453896 }, "geometry": { "type": "Point", "coordinates": [ -13163529.34102663770318, 4036410.73843989148736 ] } },
{ "type": "Feature", "properties": { "STOPNUM": 4663, "STOPNAME": "Alvarado / Olympic", "LAT": 34.051497, "LONG": -118.279807, "LINE_DIR1": "2-W", "LINE_DIR2": null, "LINE_DIR3": 0, "LINE_DIR4": 0, "LINE_DIR5": 0, "LINE_DIR6": 0, "LINE_DIR7": 0, "LINE_DIR8": 0, "LINE_DIR9": 0, "LINE_DIR10": 0, "LINE_DIR11": 0, "LINE_DIR12": 0, "LINE_DIR13": 0, "LINE_DIR14": 0, "layer_id": "bus_stops", "feature_name": "Bus Stop", "heat_layer": 4.4434, "index_right": 1503, "socioeconomic_layer": 4.2266230061405974, "heat_socio_layer": 8.6700230061405961 }, "geometry": { "type": "Point", "coordinates": [ -13166847.886366674676538, 4035718.912850475870073 ] } },
{ "type": "Feature", "properties": { "STOPNUM": 7847, "STOPNAME": "Olympic / Blaine", "LAT": 34.047304, "LONG": -118.270299, "LINE_DIR1": "28-E", "LINE_DIR2": null, "LINE_DIR3": 0, "LINE_DIR4": 0, "LINE_DIR5": 0, "LINE_DIR6": 0, "LINE_DIR7": 0, "LINE_DIR8": 0, "LINE_DIR9": 0, "LINE_DIR10": 0, "LINE_DIR11": 0, "LINE_DIR12": 0, "LINE_DIR13": 0, "LINE_DIR14": 0, "layer_id": "bus_stops", "feature_name": "Bus Stop", "heat_layer": 2.9156, "index_right": 1509, "socioeconomic_layer": 3.8215264606193373, "heat_socio_layer": 6.7371264606193373 }, "geometry": { "type": "Point", "coordinates": [ -13165789.460648212581873, 4035155.56756473518908 ] } },
{ "type": "Feature", "properties": { "STOPNUM": 4991, "STOPNAME": "Figueroa / 12th", "LAT": 34.042022, "LONG": -118.266592, "LINE_DIR1": "81-N", "LINE_DIR2": null, "LINE_DIR3": 0, "LINE_DIR4": 0, "LINE_DIR5": 0, "LINE_DIR6": 0, "LINE_DIR7": 0, "LINE_DIR8": 0, "LINE_DIR9": 0, "LINE_DIR10": 0, "LINE_DIR11": 0, "LINE_DIR12": 0, "LINE_DIR13": 0, "LINE_DIR14": 0, "layer_id": "bus_stops", "feature_name": "Bus Stop", "heat_layer": -5.3748, "index_right": 1445, "socioeconomic_layer": 3.3387612110681228, "heat_socio_layer": -2.0360387889318767 }, "geometry": { "type": "Point", "coordinates": [ -13165376.799295842647552, 4034445.950689727906138 ] } }
]
}
