{
"type": "FeatureCollection",
"name": "optimized_shades_Buses_DTLA_10",
"crs": { "type": "name", "properties": { "name": "urn:ogc:def:crs:EPSG::3857" } },
"features": [
{ "type": "Feature", "properties": { "STOPNUM": 1258, "STOPNAME": "Adams / San Pedro", "LAT": 34.021831, "LONG": -118.261597, "LINE_DIR1": "55-N", "LINE_DIR2": null, "LINE_DIR3": 0, "LINE_DIR4": 0, "LINE_DIR5": 0, "LINE_DIR6": 0, "LINE_DIR7": 0, "LINE_DIR8": 0, "LINE_DIR9": 0, "LINE_DIR10": 0, "LINE_DIR11": 0, "LINE_DIR12": 0, "LINE_DIR13": 0, "LINE_DIR14": 0, "layer_id": "bus_stops", "feature_name": "Bus Stop", "heat_layer": 6.601, "index_right": 1830, "socioeconomic_layer": 4.0418143881437949, "heat_socio_layer": 10.642814388143794 }, "geometry": { "type": "Point", "coordinates": [ -13164820.75843932852149, 4031733.772876481059939 ] } },
{ "type": "Feature", "properties": { "STOPNUM": 4719, "STOPNAME": "Temple / Alvarado", "LAT": 34.070101, "LONG": -118.267932, "LINE_DIR1": "10-E", "LINE_DIR2": null, "LINE_DIR3": 0, "LINE_DIR4": 0, "LINE_DIR5": 0, "LINE_DIR6": 0, "LINE_DIR7": 0, "LINE_DIR8": 0, "LINE_DIR9": 0, "LINE_DIR10": 0, "LINE_DIR11": 0, "LINE_DIR12": 0, "LINE_DIR13": 0, "LINE_DIR14": 0, "layer_id": "bus_stops", "feature_name": "Bus Stop", "heat_layer": 0.6584, "index_right": 1458, "socioeconomic_layer": 3.39339720313273, "heat_socio_layer": 4.0517972031327298 }, "geometry": { "type": "Point", "coordinates": [ -13165525.967413505539298, 4038218.766211758367717 ] } },
{ "type": "Feature", "properties": { "STOPNUM": 7271, "STOPNAME": "3rd / Bixel", "LAT": 34.057499, "LONG": -118.260002, "LINE_DIR1": "16-E", "LINE_DIR2": null, "LINE_DIR3": 0, "LINE_DIR4": 0, "LINE_DIR5": 0, "LINE_DIR6": 0, "LINE_DIR7": 0, "LINE_DIR8": 0, "LINE_DIR9": 0, "LINE_DIR10": 0, "LINE_DIR11": 0, "LINE_DIR12": 0, "LINE_DIR13": 0, "LINE_DIR14": 0, "layer_id": "bus_stops", "feature_name": "Bus Stop", "heat_layer": -0.9524, "index_right": 1490, "socioeconomic_layer": 3.5458646948496546, "heat_socio_layer": 2.5934646948496547 }, "geometry": { "type": "Point", "coordinates": [ -13164643.203851513564587, 4036525.352563022635877 ] } },
{ "type": "Feature", "properties": { "STOPNUM": 8992, "STOPNAME": "Beverly / Belmont", "LAT": 34.06323, "LONG": -118.262961, "LINE_DIR1": "14-S", "LINE_DIR2": null, "LINE_DIR3": 0, "LINE_DIR4": 0, "LINE_DIR5": 0, "LINE_DIR6": 0, "LINE_DIR7": 0, "LINE_DIR8": 0, "LINE_DIR9": 0, "LINE_DIR10": 0, "LINE_DIR11": 0, "LINE_DIR12": 0, "LINE_DIR13": 0, "LINE_DIR14": 0, "layer_id": "bus_stops", "feature_name": "Bus Stop", "heat_layer": 2.5358, "index_right": 1455, "socioeconomic_layer": 4.087530456134747, "heat_socio_layer": 6.623330456134747 }, "geometry": { "type": "Point", "coordinates": [ -13164972.598224772140384, 4037295.433516312856227 ] } },
{ "type": "Feature", "properties": { "STOPNUM": 11902, "STOPNAME": "Broadway / Bishops", "LAT": 34.06902, "LONG": -118.233272, "LINE_DIR1": "45-S", "LINE_DIR2": null, "LINE_DIR3": 0, "LINE_DIR4": 0, "LINE_DIR5": 0, "LINE_DIR6": 0, "LINE_DIR7": 0, "LINE_DIR8": 0, "LINE_DIR9": 0, "LINE_DIR10": 0, "LINE_DIR11": 0, "LINE_DIR12": 0, "LINE_DIR13": 0, "LINE_DIR14": 0, "layer_id": "bus_stops", "feature_name": "Bus Stop", "heat_layer": 1.3642, "index_right": 1406, "socioeconomic_layer": 3.2420790417442666, "heat_socio_layer": 4.6062790417442665 }, "geometry": { "type": "Point", "coordinates": [ -13161667.633862610906363, 4038073.495254453737289 ] } },
{ "type": "Feature", "properties": { "STOPNUM": 13114, "STOPNAME": "3rd / Alvarado", "LAT": 34.063158, "LONG": -118.272965, "LINE_DIR1": "16-W", "LINE_DIR2": null, "LINE_DIR3": 0, "LINE_DIR4": 0, "LINE_DIR5": 0, "LINE_DIR6": 0, "LINE_DIR7": 0, "LINE_DIR8": 0, "LINE_DIR9": 0, "LINE_DIR10": 0, "LINE_DIR11": 0, "LINE_DIR12": 0, "LINE_DIR13": 0, "LINE_DIR14": 0, "layer_id": "bus_stops", "feature_name": "Bus Stop", "heat_layer": 1.1236, "index_right": 1463, "socioeconomic_layer": 4.1265311828514779, "heat_socio_layer": 5.2501311828514776 }, "geometry": { "type": "Point", "coordinates": [ -13166086.238410666584969, 4037285.758471848443151 ] } },
{ "type": "Feature", "properties": { "STOPNUM": 13893, "STOPNAME": "San Pedro / Pico", "LAT": 34.032869, "LONG": -118.253697, "LINE_DIR1": "51-N", "LINE_DIR2": null, "LINE_DIR3": 0, "LINE_DIR4": 0, "LINE_DIR5": 0, "LINE_DIR6": 0, "LINE_DIR7": 0, "LINE_DIR8": 0, "LINE_DIR9": 0, "LINE_DIR10": 0, "LINE_DIR11": 0, "LINE_DIR12": 0, "LINE_DIR13": 0, "LINE_DIR14": 0, "layer_id": "bus_stops", "feature_name": "Bus Stop", "heat_layer": 7.4758, "index_right": 1827, "socioeconomic_layer": 2.8409808997107788, "heat_socio_layer": 10.316780899710778 }, "geometry": { "type": "Point", "coordinates": [ -13163941.334462063387036, 4033216.38413102272898 ] } },
{ "type": "Feature", "properties": { "STOPNUM": 15598, "STOPNAME": "Broadway / 12th", "LAT": 34.037961, "LONG": -118.260255, "LINE_DIR1": "4-W", "LINE_DIR2": null, "LINE_DIR3": 0, "LINE_DIR4": 0, "LINE_DIR5": 0, "LINE_DIR6": 0, "LINE_DIR7": 0, "LINE_DIR8": 0, "LINE_DIR9": 0, "LINE_DIR10": 0, "LINE_DIR11": 0, "LINE_DIR12": 0, "LINE_DIR13": 0, "LINE_DIR14": 0, "layer_id": "bus_stops", "feature_name": "Bus Stop", "heat_layer": 2.222, "index_right": 1447, "socioeconomic_layer": 2.8582636218966657, "heat_socio_layer": 5.0802636218966661 }, "geometry": { "type": "Point", "coordinates": [ -13164671.367682686075568, 4033900.400633122306317 ] } },
{ "type": "Feature", "properties": { "STOPNUM": 15823, "STOPNAME": "Adams / Hill", "LAT": 34.025827, "LONG": -118.271081, "LINE_DIR1": "55-S", "LINE_DIR2": null, "LINE_DIR3": 0, "LINE_DIR4": 0, "LINE_DIR5": 0, "LINE_DIR6": 0, "LINE_DIR7": 0, "LINE_DIR8": 0, "LINE_DIR9": 0, "LINE_DIR10": 0, "LINE_DIR11": 0, "LINE_DIR12": 0, "LINE_DIR13": 0, "LINE_DIR14": 0, "layer_id": "bus_stops", "feature_name": "Bus Stop", "heat_layer": 6.995, "index_right": 1823, "socioeconomic_layer": 4.0012046941292949, "heat_socio_layer": 10.996204694129295 }, "geometry": { "type": "Point", "coordinates": [ -13165876.512490011751652, 4032270.488653949461877 ] } },
{ "type": "Feature", "properties": { "STOPNUM": 16927, "STOPNAME": "Cesar E Chavez / Grand", "LAT": 34.060901, "LONG": -118.24398, "LINE_DIR1": "4-W", "LINE_DIR2": null, "LINE_DIR3": 0, "LINE_DIR4": 0, "LINE_DIR5": 0, "LINE_DIR6": 0, "LINE_DIR7": 0, "LINE_DIR8": 0, "LINE_DIR9": 0, "LINE_DIR10": 0, "LINE_DIR11": 0, "LINE_DIR12": 0, "LINE_DIR13": 0, "LINE_DIR14": 0, "layer_id": "bus_stops", "feature_name": "Bus Stop", "heat_layer": 2.6026, "index_right": 1423, "socioeconomic_layer": 3.6099212279158577, "heat_socio_layer": 6.2125212279158575 }, "geometry": { "type": "Point", "coordinates": [ -13162859.642970021814108, 4036982.476870502345264 ] } }
]
}
