{
"type": "FeatureCollection",
"name": "optimized_shades_Random_DTLA_20",
"crs": { "type": "name", "properties": { "name": "urn:ogc:def:crs:EPSG::3857" } },
"features": [
{ "type": "Feature", "properties": { "OBJECTID": 1008, "stop_id": 19963, "route_count": 4, "route_stop": "MT078, MT076, MT070, DA  B", "lat": 34.054465498718002, "lon": -118.24988340885, "heat_layer": -8.6848, "index_right": 1441, "socioeconomic_layer": 3.8868018623141598, "heat_socio_layer": -4.7979981376858394, "heat_socio_public_layer": 0.16656114608504585 }, "geometry": { "type": "Point", "coordinates": [ -13163516.807437149807811, 4036117.7586385239847 ] } },
{ "type": "Feature", "properties": { "OBJECTID": 1009, "stop_id": 19915, "route_count": 10, "route_stop": "MT078, MT014, MT076, MT910, MT950, MT070, MT053, MT055, MT060, DA  B", "lat": 34.053044588600997, "lon": -118.25133504809, "heat_layer": -8.6848, "index_right": 1441, "socioeconomic_layer": 3.8868018623141598, "heat_socio_layer": -4.7979981376858394, "heat_socio_public_layer": 0.16649297003034561 }, "geometry": { "type": "Point", "coordinates": [ -13163678.403178162872791, 4035926.844226212706417 ] } },
{ "type": "Feature", "properties": { "OBJECTID": 1010, "stop_id": 19801, "route_count": 15, "route_stop": "MT078, MT720, MT014, FZ707, MT076, MT910, MT950, MT016, MT020, MT018, MT070, MT053, MT055, MT060, DA  B", "lat": 34.050195104864997, "lon": -118.25393774542, "heat_layer": -8.6848, "index_right": 1441, "socioeconomic_layer": 3.8868018623141598, "heat_socio_layer": -4.7979981376858394, "heat_socio_public_layer": 0.0 }, "geometry": { "type": "Point", "coordinates": [ -13163968.134119627997279, 4035543.995371053460985 ] } },
{ "type": "Feature", "properties": { "OBJECTID": 1019, "stop_id": 19163, "route_count": 4, "route_stop": "MT078, MT603, MT076, MT070", "lat": 34.033743963375997, "lon": -118.26654217812001, "heat_layer": 2.8998, "index_right": 1810, "socioeconomic_layer": 3.7749837642375321, "heat_socio_layer": 6.6747837642375316, "heat_socio_public_layer": 0.87845867668966837 }, "geometry": { "type": "Point", "coordinates": [ -13165371.253149529919028, 4033333.916439078748226 ] } },
{ "type": "Feature", "properties": { "OBJECTID": 1052, "stop_id": 20535, "route_count": 4, "route_stop": "MT040, MT076, MT106, DA  B", "lat": 34.056469067523999, "lon": -118.23743959973, "heat_layer": 1.9144, "index_right": 1425, "socioeconomic_layer": 4.2907955447235571, "heat_socio_layer": 6.2051955447235567, "heat_socio_public_layer": 0.81205529802645116 }, "geometry": { "type": "Point", "coordinates": [ -13162131.568942382931709, 4036386.964890785049647 ] } },
{ "type": "Feature", "properties": { "OBJECTID": 1159, "stop_id": 19033, "route_count": 3, "route_stop": "DAPIC, MT014, MT002", "lat": 34.066679737180003, "lon": -118.27030888737001, "heat_layer": 2.0244, "index_right": 1464, "socioeconomic_layer": 3.7952664553950282, "heat_socio_layer": 5.8196664553950281, "heat_socio_public_layer": 0.82091963199147333 }, "geometry": { "type": "Point", "coordinates": [ -13165790.561305208131671, 4037759.003713150043041 ] } },
{ "type": "Feature", "properties": { "OBJECTID": 1160, "stop_id": 19200, "route_count": 2, "route_stop": "DAPIC, MT014", "lat": 34.064612534508001, "lon": -118.26571933676, "heat_layer": 3.5222, "index_right": 1453, "socioeconomic_layer": 3.3851919913826283, "heat_socio_layer": 6.907391991382628, "heat_socio_public_layer": 0.9179586584357976 }, "geometry": { "type": "Point", "coordinates": [ -13165279.654868330806494, 4037481.214039018377662 ] } },
{ "type": "Feature", "properties": { "OBJECTID": 1169, "stop_id": 19022, "route_count": 4, "route_stop": "MT603, MT014, DA  D, MT055", "lat": 34.029184558042999, "lon": -118.27056402459, "heat_layer": 2.8998, "index_right": 1810, "socioeconomic_layer": 3.7749837642375321, "heat_socio_layer": 6.6747837642375316, "heat_socio_public_layer": 0.89155796411414823 }, "geometry": { "type": "Point", "coordinates": [ -13165818.963050618767738, 4032721.472751379944384 ] } },
{ "type": "Feature", "properties": { "OBJECTID": 1257, "stop_id": 18866, "route_count": 2, "route_stop": "MT802, MT805", "lat": 34.056926391123, "lon": -118.27568849568, "heat_layer": 3.0338, "index_right": 1481, "socioeconomic_layer": 4.3185886164257381, "heat_socio_layer": 7.3523886164257384, "heat_socio_public_layer": 0.87214582229268156 }, "geometry": { "type": "Point", "coordinates": [ -13166389.416562942788005, 4036448.413321658503264 ] } },
{ "type": "Feature", "properties": { "OBJECTID": 1550, "stop_id": 20245, "route_count": 5, "route_stop": "MT076, MT030, MT033, DA  D, DA  A", "lat": 34.052217269537003, "lon": -118.24338966080001, "heat_layer": -3.6198, "index_right": 1437, "socioeconomic_layer": 3.0344124037054612, "heat_socio_layer": -0.58538759629453896, "heat_socio_public_layer": 0.49588868963338761 }, "geometry": { "type": "Point", "coordinates": [ -13162793.926710886880755, 4035815.686569842509925 ] } },
{ "type": "Feature", "properties": { "OBJECTID": 1634, "stop_id": 19358, "route_count": 2, "route_stop": "MT004, MT094", "lat": 34.036080965380997, "lon": -118.26343710499, "heat_layer": 5.397, "index_right": 1808, "socioeconomic_layer": 3.5578625043066285, "heat_socio_layer": 8.9548625043066288, "heat_socio_public_layer": 1.188143502596265 }, "geometry": { "type": "Point", "coordinates": [ -13165025.597989823669195, 4033647.847795418463647 ] } },
{ "type": "Feature", "properties": { "OBJECTID": 1695, "stop_id": 18723, "route_count": 2, "route_stop": "MT002, MT028", "lat": 34.051726106794, "lon": -118.27984747001, "heat_layer": 5.0372, "index_right": 1500, "socioeconomic_layer": 4.5491144189991699, "heat_socio_layer": 9.5863144189991694, "heat_socio_public_layer": 0.84436841535125506 }, "geometry": { "type": "Point", "coordinates": [ -13166852.391467580571771, 4035749.695010797586292 ] } },
{ "type": "Feature", "properties": { "OBJECTID": 1701, "stop_id": 20130, "route_count": 4, "route_stop": "MT004, MT090, MT801, MT804", "lat": 34.052389228049996, "lon": -118.24666834784, "heat_layer": -2.3792, "index_right": 1432, "socioeconomic_layer": 2.0400542158268973, "heat_socio_layer": -0.3391457841731027, "heat_socio_public_layer": 0.38800826991975468 }, "geometry": { "type": "Point", "coordinates": [ -13163158.90848264656961, 4035838.790632407646626 ] } },
{ "type": "Feature", "properties": { "OBJECTID": 1702, "stop_id": 20179, "route_count": 2, "route_stop": "MT004, MT040", "lat": 34.053628080171002, "lon": -118.24553303638, "heat_layer": -3.6198, "index_right": 1437, "socioeconomic_layer": 3.0344124037054612, "heat_socio_layer": -0.58538759629453896, "heat_socio_public_layer": 0.46498057539656057 }, "geometry": { "type": "Point", "coordinates": [ -13163032.526189027354121, 4036005.24214782146737 ] } },
{ "type": "Feature", "properties": { "OBJECTID": 1718, "stop_id": 20167, "route_count": 3, "route_stop": "MT016, MT053, MT018", "lat": 34.044897494036, "lon": -118.24584081819, "heat_layer": 3.047, "index_right": 1419, "socioeconomic_layer": 4.2611475813781556, "heat_socio_layer": 7.3081475813781562, "heat_socio_public_layer": 1.3873330095912619 }, "geometry": { "type": "Point", "coordinates": [ -13163066.788303393870592, 4034832.257039438933134 ] } },
{ "type": "Feature", "properties": { "OBJECTID": 1731, "stop_id": 19389, "route_count": 2, "route_stop": "MT020, MT018", "lat": 34.054052059218002, "lon": -118.26214343392, "heat_layer": -3.8102, "index_right": 1489, "socioeconomic_layer": 2.78190352021248, "heat_socio_layer": -1.02829647978752, "heat_socio_public_layer": 0.4581478497304512 }, "geometry": { "type": "Point", "coordinates": [ -13164881.587185055017471, 4036062.208306907210499 ] } },
{ "type": "Feature", "properties": { "OBJECTID": 1764, "stop_id": 20290, "route_count": 2, "route_stop": "MT053, MT018", "lat": 34.043033939588, "lon": -118.24200956897, "heat_layer": 7.2614, "index_right": 1422, "socioeconomic_layer": 4.5922241777298698, "heat_socio_layer": 11.85362417772987, "heat_socio_public_layer": 1.4899963277644854 }, "geometry": { "type": "Point", "coordinates": [ -13162640.295591123402119, 4034581.897552561946213 ] } },
{ "type": "Feature", "properties": { "OBJECTID": 1781, "stop_id": 19669, "route_count": 3, "route_stop": "MT030, MT033, MT028", "lat": 34.041037893281, "lon": -118.25587065997, "heat_layer": 2.222, "index_right": 1447, "socioeconomic_layer": 2.8582636218966657, "heat_socio_layer": 5.0802636218966661, "heat_socio_public_layer": 0.67113813092501595 }, "geometry": { "type": "Point", "coordinates": [ -13164183.30518308095634, 4034313.744530011899769 ] } },
{ "type": "Feature", "properties": { "OBJECTID": 1835, "stop_id": 19453, "route_count": 2, "route_stop": "MT066, DA  F", "lat": 34.047249986280001, "lon": -118.26011505743, "heat_layer": -4.5012, "index_right": 1442, "socioeconomic_layer": 2.2883277220234759, "heat_socio_layer": -2.212872277976524, "heat_socio_public_layer": 0.25743329707502627 }, "geometry": { "type": "Point", "coordinates": [ -13164655.789347050711513, 4035148.310800492763519 ] } },
{ "type": "Feature", "properties": { "OBJECTID": 1969, "stop_id": 20602, "route_count": 2, "route_stop": "MT045, DA  B", "lat": 34.066760162949997, "lon": -118.23586080337, "heat_layer": 1.3642, "index_right": 1406, "socioeconomic_layer": 3.2420790417442666, "heat_socio_layer": 4.6062790417442665, "heat_socio_public_layer": 0.61835433653000749 }, "geometry": { "type": "Point", "coordinates": [ -13161955.818135524168611, 4037769.81142536457628 ] } }
]
}
