{
"type": "FeatureCollection",
"name": "optimized_shades_MILPHeatSocioPublic_Inglewood_10",
"crs": { "type": "name", "properties": { "name": "urn:ogc:def:crs:EPSG::3857" } },
"features": [
{ "type": "Feature", "properties": { "id": "377", "STOPNUM": 624, "STOPNAME": "La Brea / Centinela", "LAT": 33.976061, "LONG": -118.357448, "LINE_DIR1": "212-N", "LINE_DIR2": null, "LINE_DIR3": 0, "LINE_DIR4": 0, "LINE_DIR5": 0, "LINE_DIR6": 0, "LINE_DIR7": 0, "LINE_DIR8": 0, "LINE_DIR9": 0, "LINE_DIR10": 0, "LINE_DIR11": 0, "LINE_DIR12": 0, "LINE_DIR13": 0, "LINE_DIR14": 0, "layer_id": "bus_stops", "feature_name": "Bus Stop", "heat_layer": 4.281, "index_right": 5509, "socioeconomic_layer": 3.9128556664994685, "heat_socio_layer": 8.1938556664994682 }, "geometry": { "type": "Point", "coordinates": [ -13175490.842951355502009, 4025588.056081234011799 ] } },
{ "type": "Feature", "properties": { "id": "815", "STOPNUM": 1411, "STOPNAME": "Florence / Centinela", "LAT": 33.969567, "LONG": -118.347312, "LINE_DIR1": "40-N", "LINE_DIR2": "111-E", "LINE_DIR3": 0, "LINE_DIR4": 0, "LINE_DIR5": 0, "LINE_DIR6": 0, "LINE_DIR7": 0, "LINE_DIR8": 0, "LINE_DIR9": 0, "LINE_DIR10": 0, "LINE_DIR11": 0, "LINE_DIR12": 0, "LINE_DIR13": 0, "LINE_DIR14": 0, "layer_id": "bus_stops", "feature_name": "Bus Stop", "heat_layer": 0.568, "index_right": 5515, "socioeconomic_layer": 3.1041650197974633, "heat_socio_layer": 3.6721650197974633 }, "geometry": { "type": "Point", "coordinates": [ -13174362.508592674508691, 4024716.349429585970938 ] } },
{ "type": "Feature", "properties": { "id": "823", "STOPNUM": 1422, "STOPNAME": "Florence / Hillcrest", "LAT": 33.968814, "LONG": -118.348925, "LINE_DIR1": "40-N", "LINE_DIR2": "111-E", "LINE_DIR3": 0, "LINE_DIR4": 0, "LINE_DIR5": 0, "LINE_DIR6": 0, "LINE_DIR7": 0, "LINE_DIR8": 0, "LINE_DIR9": 0, "LINE_DIR10": 0, "LINE_DIR11": 0, "LINE_DIR12": 0, "LINE_DIR13": 0, "LINE_DIR14": 0, "layer_id": "bus_stops", "feature_name": "Bus Stop", "heat_layer": 0.568, "index_right": 5515, "socioeconomic_layer": 3.1041650197974633, "heat_socio_layer": 3.6721650197974633 }, "geometry": { "type": "Point", "coordinates": [ -13174542.066931322216988, 4024615.276571693364531 ] } },
{ "type": "Feature", "properties": { "id": "901", "STOPNUM": 1558, "STOPNAME": "Manchester / Grevillea", "LAT": 33.961632, "LONG": -118.354784, "LINE_DIR1": "115-E", "LINE_DIR2": "211-S", "LINE_DIR3": 0, "LINE_DIR4": 0, "LINE_DIR5": 0, "LINE_DIR6": 0, "LINE_DIR7": 0, "LINE_DIR8": 0, "LINE_DIR9": 0, "LINE_DIR10": 0, "LINE_DIR11": 0, "LINE_DIR12": 0, "LINE_DIR13": 0, "LINE_DIR14": 0, "layer_id": "bus_stops", "feature_name": "Bus Stop", "heat_layer": 3.3404, "index_right": 5527, "socioeconomic_layer": 3.7653596543338672, "heat_socio_layer": 7.105759654333867 }, "geometry": { "type": "Point", "coordinates": [ -13175194.287827882915735, 4023651.303923514205962 ] } },
{ "type": "Feature", "properties": { "id": "3049", "STOPNUM": 5045, "STOPNAME": "Centinela / La Brea", "LAT": 33.976097, "LONG": -118.35729, "LINE_DIR1": "110-E", "LINE_DIR2": null, "LINE_DIR3": 0, "LINE_DIR4": 0, "LINE_DIR5": 0, "LINE_DIR6": 0, "LINE_DIR7": 0, "LINE_DIR8": 0, "LINE_DIR9": 0, "LINE_DIR10": 0, "LINE_DIR11": 0, "LINE_DIR12": 0, "LINE_DIR13": 0, "LINE_DIR14": 0, "layer_id": "bus_stops", "feature_name": "Bus Stop", "heat_layer": 4.281, "index_right": 5509, "socioeconomic_layer": 3.9128556664994685, "heat_socio_layer": 8.1938556664994682 }, "geometry": { "type": "Point", "coordinates": [ -13175473.254471810534596, 4025592.888641212135553 ] } },
{ "type": "Feature", "properties": { "id": "6029", "STOPNUM": 9939, "STOPNAME": "Florence / Centinela", "LAT": 33.96969, "LONG": -118.347672, "LINE_DIR1": "40-S", "LINE_DIR2": "111-W", "LINE_DIR3": 0, "LINE_DIR4": 0, "LINE_DIR5": 0, "LINE_DIR6": 0, "LINE_DIR7": 0, "LINE_DIR8": 0, "LINE_DIR9": 0, "LINE_DIR10": 0, "LINE_DIR11": 0, "LINE_DIR12": 0, "LINE_DIR13": 0, "LINE_DIR14": 0, "layer_id": "bus_stops", "feature_name": "Bus Stop", "heat_layer": 0.568, "index_right": 5515, "socioeconomic_layer": 3.1041650197974633, "heat_socio_layer": 3.6721650197974633 }, "geometry": { "type": "Point", "coordinates": [ -13174402.58360935933888, 4024732.859423676505685 ] } },
{ "type": "Feature", "properties": { "id": "6108", "STOPNUM": 10102, "STOPNAME": "Manchester / Grevillea", "LAT": 33.96188, "LONG": -118.355366, "LINE_DIR1": "211-N", "LINE_DIR2": "115-W", "LINE_DIR3": 0, "LINE_DIR4": 0, "LINE_DIR5": 0, "LINE_DIR6": 0, "LINE_DIR7": 0, "LINE_DIR8": 0, "LINE_DIR9": 0, "LINE_DIR10": 0, "LINE_DIR11": 0, "LINE_DIR12": 0, "LINE_DIR13": 0, "LINE_DIR14": 0, "layer_id": "bus_stops", "feature_name": "Bus Stop", "heat_layer": 1.0606, "index_right": 5526, "socioeconomic_layer": 3.5260084255488744, "heat_socio_layer": 4.5866084255488744 }, "geometry": { "type": "Point", "coordinates": [ -13175259.075771525502205, 4023684.589285897091031 ] } },
{ "type": "Feature", "properties": { "id": "7164", "STOPNUM": 12143, "STOPNAME": "La Brea / Plymouth", "LAT": 33.974727, "LONG": -118.357798, "LINE_DIR1": "212-S", "LINE_DIR2": null, "LINE_DIR3": 0, "LINE_DIR4": 0, "LINE_DIR5": 0, "LINE_DIR6": 0, "LINE_DIR7": 0, "LINE_DIR8": 0, "LINE_DIR9": 0, "LINE_DIR10": 0, "LINE_DIR11": 0, "LINE_DIR12": 0, "LINE_DIR13": 0, "LINE_DIR14": 0, "layer_id": "bus_stops", "feature_name": "Bus Stop", "heat_layer": 5.4812, "index_right": 5540, "socioeconomic_layer": 3.6537546576023718, "heat_socio_layer": 9.1349546576023712 }, "geometry": { "type": "Point", "coordinates": [ -13175529.804773133248091, 4025408.98432923713699 ] } },
{ "type": "Feature", "properties": { "id": "7249", "STOPNUM": 12316, "STOPNAME": "Grace / Prairie", "LAT": 33.968568, "LONG": -118.345068, "LINE_DIR1": "211-N", "LINE_DIR2": null, "LINE_DIR3": 0, "LINE_DIR4": 0, "LINE_DIR5": 0, "LINE_DIR6": 0, "LINE_DIR7": 0, "LINE_DIR8": 0, "LINE_DIR9": 0, "LINE_DIR10": 0, "LINE_DIR11": 0, "LINE_DIR12": 0, "LINE_DIR13": 0, "LINE_DIR14": 0, "layer_id": "bus_stops", "feature_name": "Bus Stop", "heat_layer": 0.568, "index_right": 5515, "socioeconomic_layer": 3.1041650197974633, "heat_socio_layer": 3.6721650197974633 }, "geometry": { "type": "Point", "coordinates": [ -13174112.707655334845185, 4024582.256947516463697 ] } },
{ "type": "Feature", "properties": { "id": "11370", "STOPNUM": 140974, "STOPNAME": "La Brea / Plymouth", "LAT": 33.974401, "LONG": -118.357487, "LINE_DIR1": "212-N", "LINE_DIR2": null, "LINE_DIR3": 0, "LINE_DIR4": 0, "LINE_DIR5": 0, "LINE_DIR6": 0, "LINE_DIR7": 0, "LINE_DIR8": 0, "LINE_DIR9": 0, "LINE_DIR10": 0, "LINE_DIR11": 0, "LINE_DIR12": 0, "LINE_DIR13": 0, "LINE_DIR14": 0, "layer_id": "bus_stops", "feature_name": "Bus Stop", "heat_layer": 4.281, "index_right": 5509, "socioeconomic_layer": 3.9128556664994685, "heat_socio_layer": 8.1938556664994682 }, "geometry": { "type": "Point", "coordinates": [ -13175495.184411495923996, 4025365.22359364759177 ] } }
]
}
