{
"type": "FeatureCollection",
"name": "optimized_shades_TopSocio_DTLA_20",
"crs": { "type": "name", "properties": { "name": "urn:ogc:def:crs:EPSG::3857" } },
"features": [
{ "type": "Feature", "properties": { "OBJECTID": 1150, "stop_id": 19129, "route_count": 2, "route_stop": "DAPIC, MT018", "lat": 34.056222574027998, "lon": -118.26729389211999, "heat_layer": 2.823, "index_right": 1487, "socioeconomic_layer": 4.7619211667069266, "heat_socio_layer": 7.584921166706927, "heat_socio_public_layer": 0.7081200153169489 }, "geometry": { "type": "Point", "coordinates": [ -13165454.933569232001901, 4036353.844851277302951 ] } },
{ "type": "Feature", "properties": { "OBJECTID": 1178, "stop_id": 18867, "route_count": 2, "route_stop": "MT603, DA  E", "lat": 34.055926228243997, "lon": -118.27566208983001, "heat_layer": 6.6648, "index_right": 1497, "socioeconomic_layer": 4.6636642360117104, "heat_socio_layer": 11.32846423601171, "heat_socio_public_layer": 1.1034624870863305 }, "geometry": { "type": "Point", "coordinates": [ -13166386.477077167481184, 4036314.026548541150987 ] } },
{ "type": "Feature", "properties": { "OBJECTID": 1259, "stop_id": 19921, "route_count": 2, "route_stop": "MT802, MT805", "lat": 34.049612659192, "lon": -118.25126201626, "heat_layer": -4.0374, "index_right": 1440, "socioeconomic_layer": 4.6396840073877597, "heat_socio_layer": 0.60228400738775978, "heat_socio_public_layer": 0.28597272799179585 }, "geometry": { "type": "Point", "coordinates": [ -13163670.273312037810683, 4035465.741144480649382 ] } },
{ "type": "Feature", "properties": { "OBJECTID": 1629, "stop_id": 19946, "route_count": 2, "route_stop": "MT004, MT010", "lat": 34.050251750621001, "lon": -118.25049805431, "heat_layer": -4.0374, "index_right": 1440, "socioeconomic_layer": 4.6396840073877597, "heat_socio_layer": 0.60228400738775978, "heat_socio_public_layer": 0.28597272799179585 }, "geometry": { "type": "Point", "coordinates": [ -13163585.229456778615713, 4035551.6060148216784 ] } },
{ "type": "Feature", "properties": { "OBJECTID": 1121, "stop_id": 20024, "route_count": 5, "route_stop": "MT081, MT004, MT010, MT094, MT028", "lat": 34.051669780076999, "lon": -118.24910586359, "heat_layer": -4.0374, "index_right": 1440, "socioeconomic_layer": 4.6396840073877597, "heat_socio_layer": 0.60228400738775978, "heat_socio_public_layer": 0.44708314305858587 }, "geometry": { "type": "Point", "coordinates": [ -13163430.251494739204645, 4035742.127099914010614 ] } },
{ "type": "Feature", "properties": { "OBJECTID": 1140, "stop_id": 18861, "route_count": 2, "route_stop": "DAPIC, MT035", "lat": 34.036105450876001, "lon": -118.27585094758, "heat_layer": 1.58, "index_right": 1820, "socioeconomic_layer": 4.6002973851431905, "heat_socio_layer": 6.1802973851431906, "heat_socio_public_layer": 0.63163335591732717 }, "geometry": { "type": "Point", "coordinates": [ -13166407.500625729560852, 4033651.136997409164906 ] } },
{ "type": "Feature", "properties": { "OBJECTID": 1764, "stop_id": 20290, "route_count": 2, "route_stop": "MT053, MT018", "lat": 34.043033939588, "lon": -118.24200956897, "heat_layer": 7.2614, "index_right": 1422, "socioeconomic_layer": 4.5922241777298698, "heat_socio_layer": 11.85362417772987, "heat_socio_public_layer": 1.4899963277644854 }, "geometry": { "type": "Point", "coordinates": [ -13162640.295591123402119, 4034581.897552561946213 ] } },
{ "type": "Feature", "properties": { "OBJECTID": 1773, "stop_id": 20476, "route_count": 2, "route_stop": "MT018, MT720", "lat": 34.038163599628, "lon": -118.23843399127, "heat_layer": 7.2614, "index_right": 1422, "socioeconomic_layer": 4.5922241777298698, "heat_socio_layer": 11.85362417772987, "heat_socio_public_layer": 0.98123215456013579 }, "geometry": { "type": "Point", "coordinates": [ -13162242.264102265238762, 4033927.617014450952411 ] } },
{ "type": "Feature", "properties": { "OBJECTID": 1741, "stop_id": 20346, "route_count": 2, "route_stop": "MT018, MT720", "lat": 34.039341029018999, "lon": -118.24052674039, "heat_layer": 7.2614, "index_right": 1422, "socioeconomic_layer": 4.5922241777298698, "heat_socio_layer": 11.85362417772987, "heat_socio_public_layer": 1.14031191852522 }, "geometry": { "type": "Point", "coordinates": [ -13162475.227868661284447, 4034085.789210012648255 ] } },
{ "type": "Feature", "properties": { "OBJECTID": 1740, "stop_id": 20227, "route_count": 2, "route_stop": "MT018, MT053", "lat": 34.041252817627999, "lon": -118.24362843895, "heat_layer": 7.2614, "index_right": 1422, "socioeconomic_layer": 4.5922241777298698, "heat_socio_layer": 11.85362417772987, "heat_socio_public_layer": 1.4540101895923998 }, "geometry": { "type": "Point", "coordinates": [ -13162820.50737295486033, 4034342.617611710913479 ] } },
{ "type": "Feature", "properties": { "OBJECTID": 1483, "stop_id": 20355, "route_count": 3, "route_stop": "MT720, MT053, MT018", "lat": 34.039026084268002, "lon": -118.23999441142, "heat_layer": 7.2614, "index_right": 1422, "socioeconomic_layer": 4.5922241777298698, "heat_socio_layer": 11.85362417772987, "heat_socio_public_layer": 0.98123215456013579 }, "geometry": { "type": "Point", "coordinates": [ -13162415.969278786331415, 4034043.480298414360732 ] } },
{ "type": "Feature", "properties": { "OBJECTID": 1695, "stop_id": 18723, "route_count": 2, "route_stop": "MT002, MT028", "lat": 34.051726106794, "lon": -118.27984747001, "heat_layer": 5.0372, "index_right": 1500, "socioeconomic_layer": 4.5491144189991699, "heat_socio_layer": 9.5863144189991694, "heat_socio_public_layer": 0.84436841535125506 }, "geometry": { "type": "Point", "coordinates": [ -13166852.391467580571771, 4035749.695010797586292 ] } },
{ "type": "Feature", "properties": { "OBJECTID": 1154, "stop_id": 19359, "route_count": 2, "route_stop": "DAPIC, MT016", "lat": 34.059042050579002, "lon": -118.2634664876, "heat_layer": 1.5898, "index_right": 1484, "socioeconomic_layer": 4.5156794743047639, "heat_socio_layer": 6.1054794743047642, "heat_socio_public_layer": 0.79477314015995637 }, "geometry": { "type": "Point", "coordinates": [ -13165028.868847006931901, 4036732.688892218284309 ] } },
{ "type": "Feature", "properties": { "OBJECTID": 1148, "stop_id": 18987, "route_count": 2, "route_stop": "DAPIC, MT018", "lat": 34.058477933428001, "lon": -118.27249771919, "heat_layer": 3.797, "index_right": 1478, "socioeconomic_layer": 4.5109568252363301, "heat_socio_layer": 8.3079568252363298, "heat_socio_public_layer": 0.76805405092051426 }, "geometry": { "type": "Point", "coordinates": [ -13166034.220948839560151, 4036656.889267528429627 ] } },
{ "type": "Feature", "properties": { "OBJECTID": 1149, "stop_id": 19003, "route_count": 2, "route_stop": "DAPIC, MT018", "lat": 34.058021355576003, "lon": -118.27146945918, "heat_layer": 3.797, "index_right": 1478, "socioeconomic_layer": 4.5109568252363301, "heat_socio_layer": 8.3079568252363298, "heat_socio_public_layer": 1.0704877557082755 }, "geometry": { "type": "Point", "coordinates": [ -13165919.755568122491241, 4036595.539915935602039 ] } },
{ "type": "Feature", "properties": { "OBJECTID": 1820, "stop_id": 19572, "route_count": 2, "route_stop": "MT051, DA  E", "lat": 34.027627705863999, "lon": -118.25745671823999, "heat_layer": 7.4568, "index_right": 1826, "socioeconomic_layer": 4.4925893809188828, "heat_socio_layer": 11.949389380918884, "heat_socio_public_layer": 1.1571037384396821 }, "geometry": { "type": "Point", "coordinates": [ -13164359.86438206396997, 4032512.355584840290248 ] } },
{ "type": "Feature", "properties": { "OBJECTID": 1156, "stop_id": 19034, "route_count": 2, "route_stop": "DAPIC, MT016", "lat": 34.061868472157002, "lon": -118.27019759282, "heat_layer": 6.719, "index_right": 1483, "socioeconomic_layer": 4.4870798736572794, "heat_socio_layer": 11.206079873657281, "heat_socio_public_layer": 0.94785615773121001 }, "geometry": { "type": "Point", "coordinates": [ -13165778.172052573412657, 4037112.478763583116233 ] } },
{ "type": "Feature", "properties": { "OBJECTID": 1146, "stop_id": 18991, "route_count": 2, "route_stop": "DAPIC, MT066", "lat": 34.052315186561003, "lon": -118.27218053071999, "heat_layer": 4.5312, "index_right": 1499, "socioeconomic_layer": 4.4017347385864394, "heat_socio_layer": 8.9329347385864395, "heat_socio_public_layer": 0.97974864925417593 }, "geometry": { "type": "Point", "coordinates": [ -13165998.911689873784781, 4035828.842534158378839 ] } },
{ "type": "Feature", "properties": { "OBJECTID": 1112, "stop_id": 18907, "route_count": 4, "route_stop": "MT081, MT603, MT910, DA  F", "lat": 34.030750490658001, "lon": -118.27437119947, "heat_layer": -1.5528, "index_right": 1821, "socioeconomic_layer": 4.3877959607664865, "heat_socio_layer": 2.8349959607664865, "heat_socio_public_layer": 0.78725183136562293 }, "geometry": { "type": "Point", "coordinates": [ -13166242.775819620117545, 4032931.813477199990302 ] } },
{ "type": "Feature", "properties": { "OBJECTID": 1662, "stop_id": 18884, "route_count": 2, "route_stop": "MT910, MT950", "lat": 34.027679815296999, "lon": -118.27494859017, "heat_layer": -1.5528, "index_right": 1821, "socioeconomic_layer": 4.3877959607664865, "heat_socio_layer": 2.8349959607664865, "heat_socio_public_layer": 0.43885989930659897 }, "geometry": { "type": "Point", "coordinates": [ -13166307.050658334046602, 4032519.354887989815325 ] } }
]
}
