{
"type": "FeatureCollection",
"name": "optimized_shades_TopHeatSocio_DTLA_50",
"crs": { "type": "name", "properties": { "name": "urn:ogc:def:crs:EPSG::3857" } },
"features": [
{ "type": "Feature", "properties": { "OBJECTID": 1820, "stop_id": 19572, "route_count": 2, "route_stop": "MT051, DA  E", "lat": 34.027627705863999, "lon": -118.25745671823999, "heat_layer": 7.4568, "index_right": 1826, "socioeconomic_layer": 4.4925893809188828, "heat_socio_layer": 11.949389380918884 }, "geometry": { "type": "Point", "coordinates": [ -13164359.86438206396997, 4032512.355584840290248 ] } },
{ "type": "Feature", "properties": { "OBJECTID": 1740, "stop_id": 20227, "route_count": 2, "route_stop": "MT018, MT053", "lat": 34.041252817627999, "lon": -118.24362843895, "heat_layer": 7.2614, "index_right": 1422, "socioeconomic_layer": 4.5922241777298698, "heat_socio_layer": 11.85362417772987 }, "geometry": { "type": "Point", "coordinates": [ -13162820.50737295486033, 4034342.617611710913479 ] } },
{ "type": "Feature", "properties": { "OBJECTID": 1741, "stop_id": 20346, "route_count": 2, "route_stop": "MT018, MT720", "lat": 34.039341029018999, "lon": -118.24052674039, "heat_layer": 7.2614, "index_right": 1422, "socioeconomic_layer": 4.5922241777298698, "heat_socio_layer": 11.85362417772987 }, "geometry": { "type": "Point", "coordinates": [ -13162475.227868661284447, 4034085.789210012648255 ] } },
{ "type": "Feature", "properties": { "OBJECTID": 1764, "stop_id": 20290, "route_count": 2, "route_stop": "MT053, MT018", "lat": 34.043033939588, "lon": -118.24200956897, "heat_layer": 7.2614, "index_right": 1422, "socioeconomic_layer": 4.5922241777298698, "heat_socio_layer": 11.85362417772987 }, "geometry": { "type": "Point", "coordinates": [ -13162640.295591123402119, 4034581.897552561946213 ] } },
{ "type": "Feature", "properties": { "OBJECTID": 1483, "stop_id": 20355, "route_count": 3, "route_stop": "MT720, MT053, MT018", "lat": 34.039026084268002, "lon": -118.23999441142, "heat_layer": 7.2614, "index_right": 1422, "socioeconomic_layer": 4.5922241777298698, "heat_socio_layer": 11.85362417772987 }, "geometry": { "type": "Point", "coordinates": [ -13162415.969278786331415, 4034043.480298414360732 ] } },
{ "type": "Feature", "properties": { "OBJECTID": 1773, "stop_id": 20476, "route_count": 2, "route_stop": "MT018, MT720", "lat": 34.038163599628, "lon": -118.23843399127, "heat_layer": 7.2614, "index_right": 1422, "socioeconomic_layer": 4.5922241777298698, "heat_socio_layer": 11.85362417772987 }, "geometry": { "type": "Point", "coordinates": [ -13162242.264102265238762, 4033927.617014450952411 ] } },
{ "type": "Feature", "properties": { "OBJECTID": 1762, "stop_id": 20327, "route_count": 2, "route_stop": "MT053, MT060", "lat": 34.036770450637, "lon": -118.24119269033, "heat_layer": 7.5664, "index_right": 1828, "socioeconomic_layer": 3.8850682986319809, "heat_socio_layer": 11.45146829863198 }, "geometry": { "type": "Point", "coordinates": [ -13162549.361076878383756, 4033740.468555814120919 ] } },
{ "type": "Feature", "properties": { "OBJECTID": 1725, "stop_id": 20212, "route_count": 2, "route_stop": "MT066, MT053", "lat": 34.032029917416999, "lon": -118.24416267286, "heat_layer": 7.5664, "index_right": 1828, "socioeconomic_layer": 3.8850682986319809, "heat_socio_layer": 11.45146829863198 }, "geometry": { "type": "Point", "coordinates": [ -13162879.978019781410694, 4033103.672766049392521 ] } },
{ "type": "Feature", "properties": { "OBJECTID": 1178, "stop_id": 18867, "route_count": 2, "route_stop": "MT603, DA  E", "lat": 34.055926228243997, "lon": -118.27566208983001, "heat_layer": 6.6648, "index_right": 1497, "socioeconomic_layer": 4.6636642360117104, "heat_socio_layer": 11.32846423601171 }, "geometry": { "type": "Point", "coordinates": [ -13166386.477077167481184, 4036314.026548541150987 ] } },
{ "type": "Feature", "properties": { "OBJECTID": 1156, "stop_id": 19034, "route_count": 2, "route_stop": "DAPIC, MT016", "lat": 34.061868472157002, "lon": -118.27019759282, "heat_layer": 6.719, "index_right": 1483, "socioeconomic_layer": 4.4870798736572794, "heat_socio_layer": 11.206079873657281 }, "geometry": { "type": "Point", "coordinates": [ -13165778.172052573412657, 4037112.478763583116233 ] } },
{ "type": "Feature", "properties": { "OBJECTID": 1501, "stop_id": 18988, "route_count": 2, "route_stop": "MT014, MT055", "lat": 34.026474061038002, "lon": -118.27227800591, "heat_layer": 6.995, "index_right": 1823, "socioeconomic_layer": 4.0012046941292949, "heat_socio_layer": 10.996204694129295 }, "geometry": { "type": "Point", "coordinates": [ -13166009.762578390538692, 4032357.399907297454774 ] } },
{ "type": "Feature", "properties": { "OBJECTID": 1039, "stop_id": 18997, "route_count": 2, "route_stop": "MT040, MT045", "lat": 34.022265491713, "lon": -118.27176599806, "heat_layer": 6.995, "index_right": 1823, "socioeconomic_layer": 4.0012046941292949, "heat_socio_layer": 10.996204694129295 }, "geometry": { "type": "Point", "coordinates": [ -13165952.766125245019794, 4031792.129649397451431 ] } },
{ "type": "Feature", "properties": { "OBJECTID": 1041, "stop_id": 19133, "route_count": 2, "route_stop": "MT040, MT045", "lat": 34.029412087349002, "lon": -118.26710594991, "heat_layer": 6.5238, "index_right": 1811, "socioeconomic_layer": 4.1759712630451817, "heat_socio_layer": 10.699771263045182 }, "geometry": { "type": "Point", "coordinates": [ -13165434.011938117444515, 4032752.034923374187201 ] } },
{ "type": "Feature", "properties": { "OBJECTID": 1042, "stop_id": 19187, "route_count": 3, "route_stop": "MT040, MT035, MT045", "lat": 34.031456756674999, "lon": -118.26574278011, "heat_layer": 6.5238, "index_right": 1811, "socioeconomic_layer": 4.1759712630451817, "heat_socio_layer": 10.699771263045182 }, "geometry": { "type": "Point", "coordinates": [ -13165282.26457011513412, 4033026.682499269489199 ] } },
{ "type": "Feature", "properties": { "OBJECTID": 1040, "stop_id": 19059, "route_count": 2, "route_stop": "MT040, MT045", "lat": 34.025342107740002, "lon": -118.26975624693, "heat_layer": 6.5238, "index_right": 1811, "socioeconomic_layer": 4.1759712630451817, "heat_socio_layer": 10.699771263045182 }, "geometry": { "type": "Point", "coordinates": [ -13165729.041652832180262, 4032205.359847676474601 ] } },
{ "type": "Feature", "properties": { "OBJECTID": 1502, "stop_id": 19019, "route_count": 2, "route_stop": "MT014, MT055", "lat": 34.025826096396003, "lon": -118.27082048747999, "heat_layer": 6.5238, "index_right": 1811, "socioeconomic_layer": 4.1759712630451817, "heat_socio_layer": 10.699771263045182 }, "geometry": { "type": "Point", "coordinates": [ -13165847.512368939816952, 4032270.367285096086562 ] } },
{ "type": "Feature", "properties": { "OBJECTID": 1821, "stop_id": 19515, "route_count": 2, "route_stop": "MT051, DA  E", "lat": 34.025836405854001, "lon": -118.25859969463001, "heat_layer": 6.601, "index_right": 1830, "socioeconomic_layer": 4.0418143881437949, "heat_socio_layer": 10.642814388143794 }, "geometry": { "type": "Point", "coordinates": [ -13164487.099931791424751, 4032271.752014653291553 ] } },
{ "type": "Feature", "properties": { "OBJECTID": 1822, "stop_id": 19412, "route_count": 2, "route_stop": "MT051, MT055", "lat": 34.021571381373001, "lon": -118.26131238422001, "heat_layer": 6.601, "index_right": 1830, "socioeconomic_layer": 4.0418143881437949, "heat_socio_layer": 10.642814388143794 }, "geometry": { "type": "Point", "coordinates": [ -13164789.075155628845096, 4031698.90352718019858 ] } },
{ "type": "Feature", "properties": { "OBJECTID": 1817, "stop_id": 19993, "route_count": 2, "route_stop": "MT051, MT060", "lat": 34.042442091550001, "lon": -118.24928304847001, "heat_layer": 7.4758, "index_right": 1827, "socioeconomic_layer": 2.8409808997107788, "heat_socio_layer": 10.316780899710778 }, "geometry": { "type": "Point", "coordinates": [ -13163449.975625358521938, 4034502.386794934049249 ] } },
{ "type": "Feature", "properties": { "OBJECTID": 1818, "stop_id": 20125, "route_count": 2, "route_stop": "MT051, MT060", "lat": 34.040710579516997, "lon": -118.24678245859999, "heat_layer": 7.4758, "index_right": 1827, "socioeconomic_layer": 2.8409808997107788, "heat_socio_layer": 10.316780899710778 }, "geometry": { "type": "Point", "coordinates": [ -13163171.611234346404672, 4034269.773118810728192 ] } },
{ "type": "Feature", "properties": { "OBJECTID": 1819, "stop_id": 19798, "route_count": 2, "route_stop": "MT051, DA  E", "lat": 34.032767989219998, "lon": -118.25402018547, "heat_layer": 7.4758, "index_right": 1827, "socioeconomic_layer": 2.8409808997107788, "heat_socio_layer": 10.316780899710778 }, "geometry": { "type": "Point", "coordinates": [ -13163977.31130401417613, 4033202.815606727730483 ] } },
{ "type": "Feature", "properties": { "OBJECTID": 1724, "stop_id": 19950, "route_count": 2, "route_stop": "MT066, MT051", "lat": 34.037276685477998, "lon": -118.250333787, "heat_layer": 7.4758, "index_right": 1827, "socioeconomic_layer": 2.8409808997107788, "heat_socio_layer": 10.316780899710778 }, "geometry": { "type": "Point", "coordinates": [ -13163566.943303473293781, 4033808.473180959001184 ] } },
{ "type": "Feature", "properties": { "OBJECTID": 1166, "stop_id": 19012, "route_count": 2, "route_stop": "DAPIC, MT018", "lat": 34.057879187034999, "lon": -118.27114875093, "heat_layer": 6.1928, "index_right": 1479, "socioeconomic_layer": 4.0806350335640422, "heat_socio_layer": 10.273435033564041 }, "geometry": { "type": "Point", "coordinates": [ -13165884.05448904260993, 4036576.437112408224493 ] } },
{ "type": "Feature", "properties": { "OBJECTID": 1695, "stop_id": 18723, "route_count": 2, "route_stop": "MT002, MT028", "lat": 34.051726106794, "lon": -118.27984747001, "heat_layer": 5.0372, "index_right": 1500, "socioeconomic_layer": 4.5491144189991699, "heat_socio_layer": 9.5863144189991694 }, "geometry": { "type": "Point", "coordinates": [ -13166852.391467580571771, 4035749.695010797586292 ] } },
{ "type": "Feature", "properties": { "OBJECTID": 1144, "stop_id": 18815, "route_count": 2, "route_stop": "DAPIC, MT030", "lat": 34.044635145834, "lon": -118.27690897756, "heat_layer": 5.174, "index_right": 1816, "socioeconomic_layer": 4.3236445329102189, "heat_socio_layer": 9.4976445329102184 }, "geometry": { "type": "Point", "coordinates": [ -13166525.279984347522259, 4034797.011500256601721 ] } },
{ "type": "Feature", "properties": { "OBJECTID": 1017, "stop_id": 19233, "route_count": 3, "route_stop": "MT078, MT076, MT070", "lat": 34.037206078775, "lon": -118.26538145769, "heat_layer": 5.397, "index_right": 1808, "socioeconomic_layer": 3.5578625043066285, "heat_socio_layer": 8.9548625043066288 }, "geometry": { "type": "Point", "coordinates": [ -13165242.042342307046056, 4033798.988265440333635 ] } },
{ "type": "Feature", "properties": { "OBJECTID": 982, "stop_id": 19363, "route_count": 4, "route_stop": "MT078, MT014, MT076, MT070", "lat": 34.038287822028998, "lon": -118.26328891768, "heat_layer": 5.397, "index_right": 1808, "socioeconomic_layer": 3.5578625043066285, "heat_socio_layer": 8.9548625043066288 }, "geometry": { "type": "Point", "coordinates": [ -13165009.101853929460049, 4033944.304561125580221 ] } },
{ "type": "Feature", "properties": { "OBJECTID": 1044, "stop_id": 19417, "route_count": 4, "route_stop": "MT040, MT004, MT030, DA  D", "lat": 34.037119037925002, "lon": -118.26119259974, "heat_layer": 5.397, "index_right": 1808, "socioeconomic_layer": 3.5578625043066285, "heat_socio_layer": 8.9548625043066288 }, "geometry": { "type": "Point", "coordinates": [ -13164775.740808309987187, 4033787.295688012614846 ] } },
{ "type": "Feature", "properties": { "OBJECTID": 1043, "stop_id": 19354, "route_count": 6, "route_stop": "MT040, MT035, MT004, MT033, DA  D, MT045", "lat": 34.034151669769003, "lon": -118.26357295643, "heat_layer": 5.397, "index_right": 1808, "socioeconomic_layer": 3.5578625043066285, "heat_socio_layer": 8.9548625043066288 }, "geometry": { "type": "Point", "coordinates": [ -13165040.720902945846319, 4033388.683343546465039 ] } },
{ "type": "Feature", "properties": { "OBJECTID": 980, "stop_id": 19230, "route_count": 5, "route_stop": "MT078, MT014, MT076, MT033, MT070", "lat": 34.035211072109, "lon": -118.26540813718, "heat_layer": 5.397, "index_right": 1808, "socioeconomic_layer": 3.5578625043066285, "heat_socio_layer": 8.9548625043066288 }, "geometry": { "type": "Point", "coordinates": [ -13165245.012289550155401, 4033530.993323077447712 ] } },
{ "type": "Feature", "properties": { "OBJECTID": 1634, "stop_id": 19358, "route_count": 2, "route_stop": "MT004, MT094", "lat": 34.036080965380997, "lon": -118.26343710499, "heat_layer": 5.397, "index_right": 1808, "socioeconomic_layer": 3.5578625043066285, "heat_socio_layer": 8.9548625043066288 }, "geometry": { "type": "Point", "coordinates": [ -13165025.597989823669195, 4033647.847795418463647 ] } },
{ "type": "Feature", "properties": { "OBJECTID": 1633, "stop_id": 19388, "route_count": 3, "route_stop": "MT004, MT030, MT094", "lat": 34.037652800106002, "lon": -118.26214817267, "heat_layer": 5.397, "index_right": 1808, "socioeconomic_layer": 3.5578625043066285, "heat_socio_layer": 8.9548625043066288 }, "geometry": { "type": "Point", "coordinates": [ -13164882.11470029130578, 4033858.998481167014688 ] } },
{ "type": "Feature", "properties": { "OBJECTID": 1791, "stop_id": 19319, "route_count": 2, "route_stop": "MT033, MT055", "lat": 34.033435924976999, "lon": -118.26416810163001, "heat_layer": 5.397, "index_right": 1808, "socioeconomic_layer": 3.5578625043066285, "heat_socio_layer": 8.9548625043066288 }, "geometry": { "type": "Point", "coordinates": [ -13165106.972163559868932, 4033292.538038605824113 ] } },
{ "type": "Feature", "properties": { "OBJECTID": 1708, "stop_id": 19381, "route_count": 2, "route_stop": "MT010, MT055", "lat": 34.033601474980003, "lon": -118.26259755945, "heat_layer": 5.397, "index_right": 1808, "socioeconomic_layer": 3.5578625043066285, "heat_socio_layer": 8.9548625043066288 }, "geometry": { "type": "Point", "coordinates": [ -13164932.140207812190056, 4033314.776138116139919 ] } },
{ "type": "Feature", "properties": { "OBJECTID": 1709, "stop_id": 19446, "route_count": 3, "route_stop": "MT010, MT033, MT055", "lat": 34.036351445328997, "lon": -118.26035513578, "heat_layer": 5.397, "index_right": 1808, "socioeconomic_layer": 3.5578625043066285, "heat_socio_layer": 8.9548625043066288 }, "geometry": { "type": "Point", "coordinates": [ -13164682.514746723696589, 4033684.182142477016896 ] } },
{ "type": "Feature", "properties": { "OBJECTID": 1016, "stop_id": 19304, "route_count": 5, "route_stop": "MT078, MT014, MT076, MT030, MT070", "lat": 34.038881904618997, "lon": -118.26429752009, "heat_layer": 5.397, "index_right": 1808, "socioeconomic_layer": 3.5578625043066285, "heat_socio_layer": 8.9548625043066288 }, "geometry": { "type": "Point", "coordinates": [ -13165121.378960624337196, 4034024.111607572529465 ] } },
{ "type": "Feature", "properties": { "OBJECTID": 1018, "stop_id": 19173, "route_count": 5, "route_stop": "MT078, MT014, MT076, MT033, MT070", "lat": 34.035742133122, "lon": -118.26632739967, "heat_layer": 5.397, "index_right": 1808, "socioeconomic_layer": 3.5578625043066285, "heat_socio_layer": 8.9548625043066288 }, "geometry": { "type": "Point", "coordinates": [ -13165347.344121843576431, 4033602.33164987899363 ] } },
{ "type": "Feature", "properties": { "OBJECTID": 981, "stop_id": 19305, "route_count": 3, "route_stop": "MT078, MT076, MT070", "lat": 34.036570975518998, "lon": -118.26428692064999, "heat_layer": 5.397, "index_right": 1808, "socioeconomic_layer": 3.5578625043066285, "heat_socio_layer": 8.9548625043066288 }, "geometry": { "type": "Point", "coordinates": [ -13165120.199036361649632, 4033713.672347613144666 ] } },
{ "type": "Feature", "properties": { "OBJECTID": 1146, "stop_id": 18991, "route_count": 2, "route_stop": "DAPIC, MT066", "lat": 34.052315186561003, "lon": -118.27218053071999, "heat_layer": 4.5312, "index_right": 1499, "socioeconomic_layer": 4.4017347385864394, "heat_socio_layer": 8.9329347385864395 }, "geometry": { "type": "Point", "coordinates": [ -13165998.911689873784781, 4035828.842534158378839 ] } },
{ "type": "Feature", "properties": { "OBJECTID": 1147, "stop_id": 18905, "route_count": 2, "route_stop": "DAPIC, MT066", "lat": 34.053378890112, "lon": -118.2744850233, "heat_layer": 4.5814, "index_right": 1498, "socioeconomic_layer": 4.205270453721929, "heat_socio_layer": 8.7866704537219285 }, "geometry": { "type": "Point", "coordinates": [ -13166255.446630416437984, 4035971.76090792985633 ] } },
{ "type": "Feature", "properties": { "OBJECTID": 1811, "stop_id": 19011, "route_count": 2, "route_stop": "MT051, DA  E", "lat": 34.053892026280998, "lon": -118.27115233569, "heat_layer": 4.5814, "index_right": 1498, "socioeconomic_layer": 4.205270453721929, "heat_socio_layer": 8.7866704537219285 }, "geometry": { "type": "Point", "coordinates": [ -13165884.45354270003736, 4036040.706121823750436 ] } },
{ "type": "Feature", "properties": { "OBJECTID": 1810, "stop_id": 18965, "route_count": 2, "route_stop": "MT051, DA  E", "lat": 34.054928241178999, "lon": -118.27346997431, "heat_layer": 4.5814, "index_right": 1498, "socioeconomic_layer": 4.205270453721929, "heat_socio_layer": 8.7866704537219285 }, "geometry": { "type": "Point", "coordinates": [ -13166142.451893720775843, 4036179.933708895463496 ] } },
{ "type": "Feature", "properties": { "OBJECTID": 1812, "stop_id": 19116, "route_count": 3, "route_stop": "MT051, DA  E, DA  A", "lat": 34.052330674182002, "lon": -118.26771062678, "heat_layer": 4.6404, "index_right": 1491, "socioeconomic_layer": 3.868397258440555, "heat_socio_layer": 8.5087972584405556 }, "geometry": { "type": "Point", "coordinates": [ -13165501.32425937987864, 4035830.923425888177007 ] } },
{ "type": "Feature", "properties": { "OBJECTID": 1148, "stop_id": 18987, "route_count": 2, "route_stop": "DAPIC, MT018", "lat": 34.058477933428001, "lon": -118.27249771919, "heat_layer": 3.797, "index_right": 1478, "socioeconomic_layer": 4.5109568252363301, "heat_socio_layer": 8.3079568252363298 }, "geometry": { "type": "Point", "coordinates": [ -13166034.220948839560151, 4036656.889267528429627 ] } },
{ "type": "Feature", "properties": { "OBJECTID": 1149, "stop_id": 19003, "route_count": 2, "route_stop": "DAPIC, MT018", "lat": 34.058021355576003, "lon": -118.27146945918, "heat_layer": 3.797, "index_right": 1478, "socioeconomic_layer": 4.5109568252363301, "heat_socio_layer": 8.3079568252363298 }, "geometry": { "type": "Point", "coordinates": [ -13165919.755568122491241, 4036595.539915935602039 ] } },
{ "type": "Feature", "properties": { "OBJECTID": 1125, "stop_id": 20468, "route_count": 4, "route_stop": "MT081, MT090, MT094, DA  B", "lat": 34.064440876143998, "lon": -118.23870369244, "heat_layer": 3.9106, "index_right": 1427, "socioeconomic_layer": 4.2601086467671427, "heat_socio_layer": 8.1707086467671424 }, "geometry": { "type": "Point", "coordinates": [ -13162272.287099175155163, 4037458.146977577358484 ] } },
{ "type": "Feature", "properties": { "OBJECTID": 1183, "stop_id": 18742, "route_count": 2, "route_stop": "MT603, MT016", "lat": 34.066250828428998, "lon": -118.27887579030001, "heat_layer": 4.6246, "index_right": 1469, "socioeconomic_layer": 3.3595049139848268, "heat_socio_layer": 7.9841049139848268 }, "geometry": { "type": "Point", "coordinates": [ -13166744.224577048793435, 4037701.366609828080982 ] } },
{ "type": "Feature", "properties": { "OBJECTID": 1553, "stop_id": 20495, "route_count": 2, "route_stop": "MT076, MT030", "lat": 34.049004510148002, "lon": -118.23813146749001, "heat_layer": 3.886, "index_right": 1418, "socioeconomic_layer": 4.0514704839207818, "heat_socio_layer": 7.9374704839207819 }, "geometry": { "type": "Point", "coordinates": [ -13162208.587309122085571, 4035384.034126731567085 ] } },
{ "type": "Feature", "properties": { "OBJECTID": 1552, "stop_id": 20453, "route_count": 3, "route_stop": "MT076, MT030, DA  A", "lat": 34.049214091567997, "lon": -118.23914552319999, "heat_layer": 3.886, "index_right": 1418, "socioeconomic_layer": 4.0514704839207818, "heat_socio_layer": 7.9374704839207819 }, "geometry": { "type": "Point", "coordinates": [ -13162321.471474396064878, 4035412.192080318927765 ] } },
{ "type": "Feature", "properties": { "OBJECTID": 1763, "stop_id": 20359, "route_count": 2, "route_stop": "MT053, MT018", "lat": 34.041724809575001, "lon": -118.23983050619999, "heat_layer": 3.886, "index_right": 1418, "socioeconomic_layer": 4.0514704839207818, "heat_socio_layer": 7.9374704839207819 }, "geometry": { "type": "Point", "coordinates": [ -13162397.723433157429099, 4034406.025584911927581 ] } }
]
}
