{
"type": "FeatureCollection",
"name": "optimized_shades_TopHeatSocio_DTLA_10",
"crs": { "type": "name", "properties": { "name": "urn:ogc:def:crs:EPSG::3857" } },
"features": [
{ "type": "Feature", "properties": { "OBJECTID": 1820, "stop_id": 19572, "route_count": 2, "route_stop": "MT051, DA  E", "lat": 34.027627705863999, "lon": -118.25745671823999, "heat_layer": 7.4568, "index_right": 1826, "socioeconomic_layer": 4.4925893809188828, "heat_socio_layer": 11.949389380918884 }, "geometry": { "type": "Point", "coordinates": [ -13164359.86438206396997, 4032512.355584840290248 ] } },
{ "type": "Feature", "properties": { "OBJECTID": 1740, "stop_id": 20227, "route_count": 2, "route_stop": "MT018, MT053", "lat": 34.041252817627999, "lon": -118.24362843895, "heat_layer": 7.2614, "index_right": 1422, "socioeconomic_layer": 4.5922241777298698, "heat_socio_layer": 11.85362417772987 }, "geometry": { "type": "Point", "coordinates": [ -13162820.50737295486033, 4034342.617611710913479 ] } },
{ "type": "Feature", "properties": { "OBJECTID": 1741, "stop_id": 20346, "route_count": 2, "route_stop": "MT018, MT720", "lat": 34.039341029018999, "lon": -118.24052674039, "heat_layer": 7.2614, "index_right": 1422, "socioeconomic_layer": 4.5922241777298698, "heat_socio_layer": 11.85362417772987 }, "geometry": { "type": "Point", "coordinates": [ -13162475.227868661284447, 4034085.789210012648255 ] } },
{ "type": "Feature", "properties": { "OBJECTID": 1764, "stop_id": 20290, "route_count": 2, "route_stop": "MT053, MT018", "lat": 34.043033939588, "lon": -118.24200956897, "heat_layer": 7.2614, "index_right": 1422, "socioeconomic_layer": 4.5922241777298698, "heat_socio_layer": 11.85362417772987 }, "geometry": { "type": "Point", "coordinates": [ -13162640.295591123402119, 4034581.897552561946213 ] } },
{ "type": "Feature", "properties": { "OBJECTID": 1483, "stop_id": 20355, "route_count": 3, "route_stop": "MT720, MT053, MT018", "lat": 34.039026084268002, "lon": -118.23999441142, "heat_layer": 7.2614, "index_right": 1422, "socioeconomic_layer": 4.5922241777298698, "heat_socio_layer": 11.85362417772987 }, "geometry": { "type": "Point", "coordinates": [ -13162415.969278786331415, 4034043.480298414360732 ] } },
{ "type": "Feature", "properties": { "OBJECTID": 1773, "stop_id": 20476, "route_count": 2, "route_stop": "MT018, MT720", "lat": 34.038163599628, "lon": -118.23843399127, "heat_layer": 7.2614, "index_right": 1422, "socioeconomic_layer": 4.5922241777298698, "heat_socio_layer": 11.85362417772987 }, "geometry": { "type": "Point", "coordinates": [ -13162242.264102265238762, 4033927.617014450952411 ] } },
{ "type": "Feature", "properties": { "OBJECTID": 1762, "stop_id": 20327, "route_count": 2, "route_stop": "MT053, MT060", "lat": 34.036770450637, "lon": -118.24119269033, "heat_layer": 7.5664, "index_right": 1828, "socioeconomic_layer": 3.8850682986319809, "heat_socio_layer": 11.45146829863198 }, "geometry": { "type": "Point", "coordinates": [ -13162549.361076878383756, 4033740.468555814120919 ] } },
{ "type": "Feature", "properties": { "OBJECTID": 1725, "stop_id": 20212, "route_count": 2, "route_stop": "MT066, MT053", "lat": 34.032029917416999, "lon": -118.24416267286, "heat_layer": 7.5664, "index_right": 1828, "socioeconomic_layer": 3.8850682986319809, "heat_socio_layer": 11.45146829863198 }, "geometry": { "type": "Point", "coordinates": [ -13162879.978019781410694, 4033103.672766049392521 ] } },
{ "type": "Feature", "properties": { "OBJECTID": 1178, "stop_id": 18867, "route_count": 2, "route_stop": "MT603, DA  E", "lat": 34.055926228243997, "lon": -118.27566208983001, "heat_layer": 6.6648, "index_right": 1497, "socioeconomic_layer": 4.6636642360117104, "heat_socio_layer": 11.32846423601171 }, "geometry": { "type": "Point", "coordinates": [ -13166386.477077167481184, 4036314.026548541150987 ] } },
{ "type": "Feature", "properties": { "OBJECTID": 1156, "stop_id": 19034, "route_count": 2, "route_stop": "DAPIC, MT016", "lat": 34.061868472157002, "lon": -118.27019759282, "heat_layer": 6.719, "index_right": 1483, "socioeconomic_layer": 4.4870798736572794, "heat_socio_layer": 11.206079873657281 }, "geometry": { "type": "Point", "coordinates": [ -13165778.172052573412657, 4037112.478763583116233 ] } }
]
}
