{
"type": "FeatureCollection",
"name": "optimized_shades_TopSocio_LAC_10",
"crs": { "type": "name", "properties": { "name": "urn:ogc:def:crs:EPSG::3857" } },
"features": [
{ "type": "Feature", "properties": { "id": "906", "STOPNUM": 1563, "STOPNAME": "Manchester / Market", "LAT": 33.961669, "LONG": -118.351615, "LINE_DIR1": "115-E", "LINE_DIR2": "212-S", "LINE_DIR3": 0, "LINE_DIR4": 0, "LINE_DIR5": 0, "LINE_DIR6": 0, "LINE_DIR7": 0, "LINE_DIR8": 0, "LINE_DIR9": 0, "LINE_DIR10": 0, "LINE_DIR11": 0, "LINE_DIR12": 0, "LINE_DIR13": 0, "LINE_DIR14": 0, "layer_id": "bus_stops", "feature_name": "Bus Stop", "heat_layer": 2.594, "index_right": 5516, "socioeconomic_layer": 4.1973871381090593, "heat_socio_layer": 6.7913871381090587 }, "geometry": { "type": "Point", "coordinates": [ -13174841.516361556947231, 4023656.269878678955138 ] } },
{ "type": "Feature", "properties": { "id": "905", "STOPNUM": 1562, "STOPNAME": "Manchester / Market", "LAT": 33.961924, "LONG": -118.351755, "LINE_DIR1": "115-W", "LINE_DIR2": "212-N", "LINE_DIR3": 0, "LINE_DIR4": 0, "LINE_DIR5": 0, "LINE_DIR6": 0, "LINE_DIR7": 0, "LINE_DIR8": 0, "LINE_DIR9": 0, "LINE_DIR10": 0, "LINE_DIR11": 0, "LINE_DIR12": 0, "LINE_DIR13": 0, "LINE_DIR14": 0, "layer_id": "bus_stops", "feature_name": "Bus Stop", "heat_layer": 2.594, "index_right": 5516, "socioeconomic_layer": 4.1973871381090593, "heat_socio_layer": 6.7913871381090587 }, "geometry": { "type": "Point", "coordinates": [ -13174857.101090271025896, 4023690.494763553142548 ] } },
{ "type": "Feature", "properties": { "id": "902", "STOPNUM": 1559, "STOPNAME": "Manchester / Hillcrest", "LAT": 33.961673, "LONG": -118.349083, "LINE_DIR1": "115-E", "LINE_DIR2": "212-S", "LINE_DIR3": 0, "LINE_DIR4": 0, "LINE_DIR5": 0, "LINE_DIR6": 0, "LINE_DIR7": 0, "LINE_DIR8": 0, "LINE_DIR9": 0, "LINE_DIR10": 0, "LINE_DIR11": 0, "LINE_DIR12": 0, "LINE_DIR13": 0, "LINE_DIR14": 0, "layer_id": "bus_stops", "feature_name": "Bus Stop", "heat_layer": 2.594, "index_right": 5516, "socioeconomic_layer": 4.1973871381090593, "heat_socio_layer": 6.7913871381090587 }, "geometry": { "type": "Point", "coordinates": [ -13174559.655410869047046, 4023656.806738825514913 ] } },
{ "type": "Feature", "properties": { "id": "876", "STOPNUM": 1520, "STOPNAME": "La Brea / Market", "LAT": 33.957338, "LONG": -118.352418, "LINE_DIR1": "40-N", "LINE_DIR2": "111-E", "LINE_DIR3": 0, "LINE_DIR4": 0, "LINE_DIR5": 0, "LINE_DIR6": 0, "LINE_DIR7": 0, "LINE_DIR8": 0, "LINE_DIR9": 0, "LINE_DIR10": 0, "LINE_DIR11": 0, "LINE_DIR12": 0, "LINE_DIR13": 0, "LINE_DIR14": 0, "layer_id": "bus_stops", "feature_name": "Bus Stop", "heat_layer": 2.594, "index_right": 5516, "socioeconomic_layer": 4.1973871381090593, "heat_socio_layer": 6.7913871381090587 }, "geometry": { "type": "Point", "coordinates": [ -13174930.905912665650249, 4023074.999364355579019 ] } },
{ "type": "Feature", "properties": { "id": "3137", "STOPNUM": 5180, "STOPNAME": "La Brea / Queen", "LAT": 33.962763, "LONG": -118.353196, "LINE_DIR1": "212-N", "LINE_DIR2": null, "LINE_DIR3": 0, "LINE_DIR4": 0, "LINE_DIR5": 0, "LINE_DIR6": 0, "LINE_DIR7": 0, "LINE_DIR8": 0, "LINE_DIR9": 0, "LINE_DIR10": 0, "LINE_DIR11": 0, "LINE_DIR12": 0, "LINE_DIR13": 0, "LINE_DIR14": 0, "layer_id": "bus_stops", "feature_name": "Bus Stop", "heat_layer": 2.594, "index_right": 5516, "socioeconomic_layer": 4.1973871381090593, "heat_socio_layer": 6.7913871381090587 }, "geometry": { "type": "Point", "coordinates": [ -13175017.51247650384903, 4023803.102069647051394 ] } },
{ "type": "Feature", "properties": { "id": "8014", "STOPNUM": 13682, "STOPNAME": "Locust / Manchester", "LAT": 33.962019, "LONG": -118.350281, "LINE_DIR1": "211-S", "LINE_DIR2": null, "LINE_DIR3": 0, "LINE_DIR4": 0, "LINE_DIR5": 0, "LINE_DIR6": 0, "LINE_DIR7": 0, "LINE_DIR8": 0, "LINE_DIR9": 0, "LINE_DIR10": 0, "LINE_DIR11": 0, "LINE_DIR12": 0, "LINE_DIR13": 0, "LINE_DIR14": 0, "layer_id": "bus_stops", "feature_name": "Bus Stop", "heat_layer": 2.594, "index_right": 5516, "socioeconomic_layer": 4.1973871381090593, "heat_socio_layer": 6.7913871381090587 }, "geometry": { "type": "Point", "coordinates": [ -13174693.016160840168595, 4023703.245237088762224 ] } },
{ "type": "Feature", "properties": { "id": "7183", "STOPNUM": 12180, "STOPNAME": "Locust / Regent", "LAT": 33.964343, "LONG": -118.350317, "LINE_DIR1": "211-S", "LINE_DIR2": null, "LINE_DIR3": 0, "LINE_DIR4": 0, "LINE_DIR5": 0, "LINE_DIR6": 0, "LINE_DIR7": 0, "LINE_DIR8": 0, "LINE_DIR9": 0, "LINE_DIR10": 0, "LINE_DIR11": 0, "LINE_DIR12": 0, "LINE_DIR13": 0, "LINE_DIR14": 0, "layer_id": "bus_stops", "feature_name": "Bus Stop", "heat_layer": 2.594, "index_right": 5516, "socioeconomic_layer": 4.1973871381090593, "heat_socio_layer": 6.7913871381090587 }, "geometry": { "type": "Point", "coordinates": [ -13174697.023662507534027, 4024015.166519549675286 ] } },
{ "type": "Feature", "properties": { "id": "6109", "STOPNUM": 10103, "STOPNAME": "Manchester / Hillcrest", "LAT": 33.961931, "LONG": -118.349087, "LINE_DIR1": "115-W", "LINE_DIR2": "212-N", "LINE_DIR3": 0, "LINE_DIR4": 0, "LINE_DIR5": 0, "LINE_DIR6": 0, "LINE_DIR7": 0, "LINE_DIR8": 0, "LINE_DIR9": 0, "LINE_DIR10": 0, "LINE_DIR11": 0, "LINE_DIR12": 0, "LINE_DIR13": 0, "LINE_DIR14": 0, "layer_id": "bus_stops", "feature_name": "Bus Stop", "heat_layer": 2.594, "index_right": 5516, "socioeconomic_layer": 4.1973871381090593, "heat_socio_layer": 6.7913871381090587 }, "geometry": { "type": "Point", "coordinates": [ -13174560.100688831880689, 4023691.434271642472595 ] } },
{ "type": "Feature", "properties": { "id": "11395", "STOPNUM": 141034, "STOPNAME": "Locust / Regent", "LAT": 33.964205, "LONG": -118.350488, "LINE_DIR1": "211-N", "LINE_DIR2": null, "LINE_DIR3": 0, "LINE_DIR4": 0, "LINE_DIR5": 0, "LINE_DIR6": 0, "LINE_DIR7": 0, "LINE_DIR8": 0, "LINE_DIR9": 0, "LINE_DIR10": 0, "LINE_DIR11": 0, "LINE_DIR12": 0, "LINE_DIR13": 0, "LINE_DIR14": 0, "layer_id": "bus_stops", "feature_name": "Bus Stop", "heat_layer": 2.594, "index_right": 5516, "socioeconomic_layer": 4.1973871381090593, "heat_socio_layer": 6.7913871381090587 }, "geometry": { "type": "Point", "coordinates": [ -13174716.059295436367393, 4023996.644277684390545 ] } },
{ "type": "Feature", "properties": { "id": "11793", "STOPNUM": 25400168, "STOPNAME": "Hillcrest / Nutwood", "LAT": 33.960582, "LONG": -118.349972, "LINE_DIR1": "212-N", "LINE_DIR2": "212-S", "LINE_DIR3": 0, "LINE_DIR4": 0, "LINE_DIR5": 0, "LINE_DIR6": 0, "LINE_DIR7": 0, "LINE_DIR8": 0, "LINE_DIR9": 0, "LINE_DIR10": 0, "LINE_DIR11": 0, "LINE_DIR12": 0, "LINE_DIR13": 0, "LINE_DIR14": 0, "layer_id": "bus_stops", "feature_name": "Bus Stop", "heat_layer": 2.594, "index_right": 5516, "socioeconomic_layer": 4.1973871381090593, "heat_socio_layer": 6.7913871381090587 }, "geometry": { "type": "Point", "coordinates": [ -13174658.618438186123967, 4023510.379069214686751 ] } }
]
}
