{
"type": "FeatureCollection",
"name": "optimized_shades_Major Transit_DTLA_20",
"crs": { "type": "name", "properties": { "name": "urn:ogc:def:crs:EPSG::3857" } },
"features": [
{ "type": "Feature", "properties": { "OBJECTID": 986, "stop_id": 19701, "route_count": 2, "route_stop": "MT078, MT014", "lat": 34.047296851638997, "lon": -118.2548895682, "heat_layer": -8.3606, "index_right": 1444, "socioeconomic_layer": 2.5669514830171973, "heat_socio_layer": -5.7936485169828025 }, "geometry": { "type": "Point", "coordinates": [ -13164074.090546822175384, 4035154.607179395388812 ] } },
{ "type": "Feature", "properties": { "OBJECTID": 991, "stop_id": 20354, "route_count": 2, "route_stop": "MT078, MT070", "lat": 34.057609632750001, "lon": -118.24011705292, "heat_layer": 1.9144, "index_right": 1425, "socioeconomic_layer": 4.2907955447235571, "heat_socio_layer": 6.2051955447235567 }, "geometry": { "type": "Point", "coordinates": [ -13162429.621668117120862, 4036540.217917898669839 ] } },
{ "type": "Feature", "properties": { "OBJECTID": 1008, "stop_id": 19963, "route_count": 4, "route_stop": "MT078, MT076, MT070, DA  B", "lat": 34.054465498718002, "lon": -118.24988340885, "heat_layer": -8.6848, "index_right": 1441, "socioeconomic_layer": 3.8868018623141598, "heat_socio_layer": -4.7979981376858394 }, "geometry": { "type": "Point", "coordinates": [ -13163516.807437149807811, 4036117.7586385239847 ] } },
{ "type": "Feature", "properties": { "OBJECTID": 1053, "stop_id": 20693, "route_count": 3, "route_stop": "MT040, MT033, DA  D", "lat": 34.055191666009001, "lon": -118.23302529641001, "heat_layer": 0.563, "index_right": 1408, "socioeconomic_layer": 2.7759465506022822, "heat_socio_layer": 3.338946550602282 }, "geometry": { "type": "Point", "coordinates": [ -13161640.170944595709443, 4036215.328186116646975 ] } },
{ "type": "Feature", "properties": { "OBJECTID": 1118, "stop_id": 19447, "route_count": 2, "route_stop": "MT081, MT066", "lat": 34.045108838830998, "lon": -118.26037578304, "heat_layer": 2.222, "index_right": 1447, "socioeconomic_layer": 2.8582636218966657, "heat_socio_layer": 5.0802636218966661 }, "geometry": { "type": "Point", "coordinates": [ -13164684.813189193606377, 4034860.650533280801028 ] } },
{ "type": "Feature", "properties": { "OBJECTID": 1151, "stop_id": 19206, "route_count": 4, "route_stop": "DAPIC, MT720, MT020, MT018", "lat": 34.055495354652997, "lon": -118.26561114582999, "heat_layer": 2.2414, "index_right": 1488, "socioeconomic_layer": 3.7082149720659903, "heat_socio_layer": 5.9496149720659908 }, "geometry": { "type": "Point", "coordinates": [ -13165267.611109094694257, 4036256.132755482103676 ] } },
{ "type": "Feature", "properties": { "OBJECTID": 1156, "stop_id": 19034, "route_count": 2, "route_stop": "DAPIC, MT016", "lat": 34.061868472157002, "lon": -118.27019759282, "heat_layer": 6.719, "index_right": 1483, "socioeconomic_layer": 4.4870798736572794, "heat_socio_layer": 11.206079873657281 }, "geometry": { "type": "Point", "coordinates": [ -13165778.172052573412657, 4037112.478763583116233 ] } },
{ "type": "Feature", "properties": { "OBJECTID": 1186, "stop_id": 19183, "route_count": 3, "route_stop": "MT603, MT004, MT002", "lat": 34.077823742813997, "lon": -118.26596274812999, "heat_layer": 1.6512, "index_right": 1261, "socioeconomic_layer": 2.9690946177193887, "heat_socio_layer": 4.6202946177193889 }, "geometry": { "type": "Point", "coordinates": [ -13165306.75129809230566, 4039256.64645126555115 ] } },
{ "type": "Feature", "properties": { "OBJECTID": 1550, "stop_id": 20245, "route_count": 5, "route_stop": "MT076, MT030, MT033, DA  D, DA  A", "lat": 34.052217269537003, "lon": -118.24338966080001, "heat_layer": -3.6198, "index_right": 1437, "socioeconomic_layer": 3.0344124037054612, "heat_socio_layer": -0.58538759629453896 }, "geometry": { "type": "Point", "coordinates": [ -13162793.926710886880755, 4035815.686569842509925 ] } },
{ "type": "Feature", "properties": { "OBJECTID": 1627, "stop_id": 20156, "route_count": 3, "route_stop": "MT004, MT055, MT060", "lat": 34.062677990605003, "lon": -118.24629587781, "heat_layer": 2.6026, "index_right": 1423, "socioeconomic_layer": 3.6099212279158577, "heat_socio_layer": 6.2125212279158575 }, "geometry": { "type": "Point", "coordinates": [ -13163117.44530857168138, 4037221.257123042363673 ] } },
{ "type": "Feature", "properties": { "OBJECTID": 1662, "stop_id": 18884, "route_count": 2, "route_stop": "MT910, MT950", "lat": 34.027679815296999, "lon": -118.27494859017, "heat_layer": -1.5528, "index_right": 1821, "socioeconomic_layer": 4.3877959607664865, "heat_socio_layer": 2.8349959607664865 }, "geometry": { "type": "Point", "coordinates": [ -13166307.050658334046602, 4032519.354887989815325 ] } },
{ "type": "Feature", "properties": { "OBJECTID": 1694, "stop_id": 19111, "route_count": 2, "route_stop": "MT002, MT010", "lat": 34.070262577445, "lon": -118.26801236502, "heat_layer": 0.6584, "index_right": 1458, "socioeconomic_layer": 3.39339720313273, "heat_socio_layer": 4.0517972031327298 }, "geometry": { "type": "Point", "coordinates": [ -13165534.9136066082865, 4038240.480071374680847 ] } },
{ "type": "Feature", "properties": { "OBJECTID": 1724, "stop_id": 19950, "route_count": 2, "route_stop": "MT066, MT051", "lat": 34.037276685477998, "lon": -118.250333787, "heat_layer": 7.4758, "index_right": 1827, "socioeconomic_layer": 2.8409808997107788, "heat_socio_layer": 10.316780899710778 }, "geometry": { "type": "Point", "coordinates": [ -13163566.943303473293781, 4033808.473180959001184 ] } },
{ "type": "Feature", "properties": { "OBJECTID": 1790, "stop_id": 19912, "route_count": 5, "route_stop": "MT033, MT051, DA  D, MT055, DA  E", "lat": 34.043932580629999, "lon": -118.25138029927, "heat_layer": -2.2382, "index_right": 1436, "socioeconomic_layer": 2.3911429839274474, "heat_socio_layer": 0.15294298392744743 }, "geometry": { "type": "Point", "coordinates": [ -13163683.440516479313374, 4034702.624924094881862 ] } },
{ "type": "Feature", "properties": { "OBJECTID": 1804, "stop_id": 20056, "route_count": 3, "route_stop": "MT040, DA  D, MT045", "lat": 34.048832900209, "lon": -118.24829853774, "heat_layer": -2.3792, "index_right": 1432, "socioeconomic_layer": 2.0400542158268973, "heat_socio_layer": -0.3391457841731027 }, "geometry": { "type": "Point", "coordinates": [ -13163340.380392212420702, 4035360.977818424347788 ] } },
{ "type": "Feature", "properties": { "OBJECTID": 1811, "stop_id": 19011, "route_count": 2, "route_stop": "MT051, DA  E", "lat": 34.053892026280998, "lon": -118.27115233569, "heat_layer": 4.5814, "index_right": 1498, "socioeconomic_layer": 4.205270453721929, "heat_socio_layer": 8.7866704537219285 }, "geometry": { "type": "Point", "coordinates": [ -13165884.45354270003736, 4036040.706121823750436 ] } },
{ "type": "Feature", "properties": { "OBJECTID": 1814, "stop_id": 19320, "route_count": 3, "route_stop": "MT051, DA  E, DA  A", "lat": 34.050857299633002, "lon": -118.26420329977999, "heat_layer": -3.8072, "index_right": 1493, "socioeconomic_layer": 3.4183460869043132, "heat_socio_layer": -0.38885391309568673 }, "geometry": { "type": "Point", "coordinates": [ -13165110.890403693541884, 4035632.964904475957155 ] } },
{ "type": "Feature", "properties": { "OBJECTID": 1968, "stop_id": 20491, "route_count": 2, "route_stop": "MT045, DA  B", "lat": 34.062331265201998, "lon": -118.23832458216999, "heat_layer": 1.9144, "index_right": 1425, "socioeconomic_layer": 4.2907955447235571, "heat_socio_layer": 6.2051955447235567 }, "geometry": { "type": "Point", "coordinates": [ -13162230.084736963734031, 4037174.666061901021749 ] } },
{ "type": "Feature", "properties": { "OBJECTID": 1969, "stop_id": 20602, "route_count": 2, "route_stop": "MT045, DA  B", "lat": 34.066760162949997, "lon": -118.23586080337, "heat_layer": 1.3642, "index_right": 1406, "socioeconomic_layer": 3.2420790417442666, "heat_socio_layer": 4.6062790417442665 }, "geometry": { "type": "Point", "coordinates": [ -13161955.818135524168611, 4037769.81142536457628 ] } },
{ "type": "Feature", "properties": { "OBJECTID": 1995, "stop_id": 19588, "route_count": 2, "route_stop": "DA  A, DA  F", "lat": 34.052260204451002, "lon": -118.25714626617, "heat_layer": -8.6848, "index_right": 1441, "socioeconomic_layer": 3.8868018623141598, "heat_socio_layer": -4.7979981376858394 }, "geometry": { "type": "Point", "coordinates": [ -13164325.305015716701746, 4035821.45522977784276 ] } }
]
}
