{
"type": "FeatureCollection",
"name": "optimized_shades_GreedyHeat_DTLA_100",
"crs": { "type": "name", "properties": { "name": "urn:ogc:def:crs:EPSG::3857" } },
"features": [
{ "type": "Feature", "properties": { "STOPNUM": 3149, "STOPNAME": "Maple / 30th", "LAT": 34.020477, "LONG": -118.267408, "LINE_DIR1": "10-E", "LINE_DIR2": null, "LINE_DIR3": 0, "LINE_DIR4": 0, "LINE_DIR5": 0, "LINE_DIR6": 0, "LINE_DIR7": 0, "LINE_DIR8": 0, "LINE_DIR9": 0, "LINE_DIR10": 0, "LINE_DIR11": 0, "LINE_DIR12": 0, "LINE_DIR13": 0, "LINE_DIR14": 0, "layer_id": "bus_stops", "feature_name": "Bus Stop", "heat_layer": 8.8206, "index_right": 1822, "socioeconomic_layer": 3.9531246568218585, "heat_socio_layer": 12.773724656821859 }, "geometry": { "type": "Point", "coordinates": [ -13165467.636000329628587, 4031551.918457468040287 ] } },
{ "type": "Feature", "properties": { "STOPNUM": 1580, "STOPNAME": "Olympic / Hooper", "LAT": 34.029444, "LONG": -118.2413, "LINE_DIR1": "66-E", "LINE_DIR2": null, "LINE_DIR3": 0, "LINE_DIR4": 0, "LINE_DIR5": 0, "LINE_DIR6": 0, "LINE_DIR7": 0, "LINE_DIR8": 0, "LINE_DIR9": 0, "LINE_DIR10": 0, "LINE_DIR11": 0, "LINE_DIR12": 0, "LINE_DIR13": 0, "LINE_DIR14": 0, "layer_id": "bus_stops", "feature_name": "Bus Stop", "heat_layer": 7.5664, "index_right": 1828, "socioeconomic_layer": 3.8850682986319809, "heat_socio_layer": 11.45146829863198 }, "geometry": { "type": "Point", "coordinates": [ -13162561.306734697893262, 4032756.321498307399452 ] } },
{ "type": "Feature", "properties": { "STOPNUM": 4849, "STOPNAME": "Central / 14th", "LAT": 34.028226, "LONG": -118.246835, "LINE_DIR1": "53-N", "LINE_DIR2": null, "LINE_DIR3": 0, "LINE_DIR4": 0, "LINE_DIR5": 0, "LINE_DIR6": 0, "LINE_DIR7": 0, "LINE_DIR8": 0, "LINE_DIR9": 0, "LINE_DIR10": 0, "LINE_DIR11": 0, "LINE_DIR12": 0, "LINE_DIR13": 0, "LINE_DIR14": 0, "layer_id": "bus_stops", "feature_name": "Bus Stop", "heat_layer": 7.5664, "index_right": 1828, "socioeconomic_layer": 3.8850682986319809, "heat_socio_layer": 11.45146829863198 }, "geometry": { "type": "Point", "coordinates": [ -13163177.460116239264607, 4032592.718299739062786 ] } },
{ "type": "Feature", "properties": { "STOPNUM": 4867, "STOPNAME": "Central / 7th", "LAT": 34.036547, "LONG": -118.241166, "LINE_DIR1": "53-N", "LINE_DIR2": null, "LINE_DIR3": 0, "LINE_DIR4": 0, "LINE_DIR5": 0, "LINE_DIR6": 0, "LINE_DIR7": 0, "LINE_DIR8": 0, "LINE_DIR9": 0, "LINE_DIR10": 0, "LINE_DIR11": 0, "LINE_DIR12": 0, "LINE_DIR13": 0, "LINE_DIR14": 0, "layer_id": "bus_stops", "feature_name": "Bus Stop", "heat_layer": 7.5664, "index_right": 1828, "socioeconomic_layer": 3.8850682986319809, "heat_socio_layer": 11.45146829863198 }, "geometry": { "type": "Point", "coordinates": [ -13162546.389922931790352, 4033710.451634377706796 ] } },
{ "type": "Feature", "properties": { "STOPNUM": 9781, "STOPNAME": "9th / Stanford", "LAT": 34.035009, "LONG": -118.247594, "LINE_DIR1": "66-W", "LINE_DIR2": null, "LINE_DIR3": 0, "LINE_DIR4": 0, "LINE_DIR5": 0, "LINE_DIR6": 0, "LINE_DIR7": 0, "LINE_DIR8": 0, "LINE_DIR9": 0, "LINE_DIR10": 0, "LINE_DIR11": 0, "LINE_DIR12": 0, "LINE_DIR13": 0, "LINE_DIR14": 0, "layer_id": "bus_stops", "feature_name": "Bus Stop", "heat_layer": 7.5664, "index_right": 1828, "socioeconomic_layer": 3.8850682986319809, "heat_socio_layer": 11.45146829863198 }, "geometry": { "type": "Point", "coordinates": [ -13163261.951609751209617, 4033503.848751163110137 ] } },
{ "type": "Feature", "properties": { "STOPNUM": 13346, "STOPNAME": "Central / Olympic", "LAT": 34.03229, "LONG": -118.244167, "LINE_DIR1": "53-S", "LINE_DIR2": null, "LINE_DIR3": 0, "LINE_DIR4": 0, "LINE_DIR5": 0, "LINE_DIR6": 0, "LINE_DIR7": 0, "LINE_DIR8": 0, "LINE_DIR9": 0, "LINE_DIR10": 0, "LINE_DIR11": 0, "LINE_DIR12": 0, "LINE_DIR13": 0, "LINE_DIR14": 0, "layer_id": "bus_stops", "feature_name": "Bus Stop", "heat_layer": 7.5664, "index_right": 1828, "socioeconomic_layer": 3.8850682986319809, "heat_socio_layer": 11.45146829863198 }, "geometry": { "type": "Point", "coordinates": [ -13162880.45971480384469, 4033138.608734811190516 ] } },
{ "type": "Feature", "properties": { "STOPNUM": 5479, "STOPNAME": "San Pedro / 11th", "LAT": 34.035434, "LONG": -118.252206, "LINE_DIR1": "51-S", "LINE_DIR2": null, "LINE_DIR3": 0, "LINE_DIR4": 0, "LINE_DIR5": 0, "LINE_DIR6": 0, "LINE_DIR7": 0, "LINE_DIR8": 0, "LINE_DIR9": 0, "LINE_DIR10": 0, "LINE_DIR11": 0, "LINE_DIR12": 0, "LINE_DIR13": 0, "LINE_DIR14": 0, "layer_id": "bus_stops", "feature_name": "Bus Stop", "heat_layer": 7.4758, "index_right": 1827, "socioeconomic_layer": 2.8409808997107788, "heat_socio_layer": 10.316780899710778 }, "geometry": { "type": "Point", "coordinates": [ -13163775.35710128955543, 4033560.939550477080047 ] } },
{ "type": "Feature", "properties": { "STOPNUM": 5482, "STOPNAME": "San Pedro / 14th", "LAT": 34.03138, "LONG": -118.255105, "LINE_DIR1": "51-S", "LINE_DIR2": null, "LINE_DIR3": 0, "LINE_DIR4": 0, "LINE_DIR5": 0, "LINE_DIR6": 0, "LINE_DIR7": 0, "LINE_DIR8": 0, "LINE_DIR9": 0, "LINE_DIR10": 0, "LINE_DIR11": 0, "LINE_DIR12": 0, "LINE_DIR13": 0, "LINE_DIR14": 0, "layer_id": "bus_stops", "feature_name": "Bus Stop", "heat_layer": 7.4758, "index_right": 1827, "socioeconomic_layer": 2.8409808997107788, "heat_socio_layer": 10.316780899710778 }, "geometry": { "type": "Point", "coordinates": [ -13164098.072305100038648, 4033016.372138112317771 ] } },
{ "type": "Feature", "properties": { "STOPNUM": 9751, "STOPNAME": "7th / Maple", "LAT": 34.042167, "LONG": -118.249104, "LINE_DIR1": "51-S", "LINE_DIR2": "60-S", "LINE_DIR3": 0, "LINE_DIR4": 0, "LINE_DIR5": 0, "LINE_DIR6": 0, "LINE_DIR7": 0, "LINE_DIR8": 0, "LINE_DIR9": 0, "LINE_DIR10": 0, "LINE_DIR11": 0, "LINE_DIR12": 0, "LINE_DIR13": 0, "LINE_DIR14": 0, "layer_id": "bus_stops", "feature_name": "Bus Stop", "heat_layer": 7.4758, "index_right": 1827, "socioeconomic_layer": 2.8409808997107788, "heat_socio_layer": 10.316780899710778 }, "geometry": { "type": "Point", "coordinates": [ -13163430.044040847569704, 4034465.430305499583483 ] } },
{ "type": "Feature", "properties": { "STOPNUM": 3691, "STOPNAME": "Central / Washington", "LAT": 34.0246, "LONG": -118.250167, "LINE_DIR1": "53-N", "LINE_DIR2": null, "LINE_DIR3": 0, "LINE_DIR4": 0, "LINE_DIR5": 0, "LINE_DIR6": 0, "LINE_DIR7": 0, "LINE_DIR8": 0, "LINE_DIR9": 0, "LINE_DIR10": 0, "LINE_DIR11": 0, "LINE_DIR12": 0, "LINE_DIR13": 0, "LINE_DIR14": 0, "layer_id": "bus_stops", "feature_name": "Bus Stop", "heat_layer": 7.4568, "index_right": 1826, "socioeconomic_layer": 4.4925893809188828, "heat_socio_layer": 11.949389380918884 }, "geometry": { "type": "Point", "coordinates": [ -13163548.37665956094861, 4032105.683598305098712 ] } },
{ "type": "Feature", "properties": { "STOPNUM": 5483, "STOPNAME": "San Pedro / 21st", "LAT": 34.026064, "LONG": -118.25862, "LINE_DIR1": "51-S", "LINE_DIR2": null, "LINE_DIR3": 0, "LINE_DIR4": 0, "LINE_DIR5": 0, "LINE_DIR6": 0, "LINE_DIR7": 0, "LINE_DIR8": 0, "LINE_DIR9": 0, "LINE_DIR10": 0, "LINE_DIR11": 0, "LINE_DIR12": 0, "LINE_DIR13": 0, "LINE_DIR14": 0, "layer_id": "bus_stops", "feature_name": "Bus Stop", "heat_layer": 7.4568, "index_right": 1826, "socioeconomic_layer": 4.4925893809188828, "heat_socio_layer": 11.949389380918884 }, "geometry": { "type": "Point", "coordinates": [ -13164489.360315235331655, 4032302.321689887437969 ] } },
{ "type": "Feature", "properties": { "STOPNUM": 1216, "STOPNAME": "6th / Towne", "LAT": 34.041238, "LONG": -118.243777, "LINE_DIR1": "18-E", "LINE_DIR2": "62-S", "LINE_DIR3": 0, "LINE_DIR4": 0, "LINE_DIR5": 0, "LINE_DIR6": 0, "LINE_DIR7": 0, "LINE_DIR8": 0, "LINE_DIR9": 0, "LINE_DIR10": 0, "LINE_DIR11": 0, "LINE_DIR12": 0, "LINE_DIR13": 0, "LINE_DIR14": 0, "layer_id": "bus_stops", "feature_name": "Bus Stop", "heat_layer": 7.2614, "index_right": 1422, "socioeconomic_layer": 4.5922241777298698, "heat_socio_layer": 11.85362417772987 }, "geometry": { "type": "Point", "coordinates": [ -13162837.045113392174244, 4034340.626999225467443 ] } },
{ "type": "Feature", "properties": { "STOPNUM": 2272, "STOPNAME": "Grand / Adams", "LAT": 34.026297, "LONG": -118.272212, "LINE_DIR1": "35-N", "LINE_DIR2": null, "LINE_DIR3": 0, "LINE_DIR4": 0, "LINE_DIR5": 0, "LINE_DIR6": 0, "LINE_DIR7": 0, "LINE_DIR8": 0, "LINE_DIR9": 0, "LINE_DIR10": 0, "LINE_DIR11": 0, "LINE_DIR12": 0, "LINE_DIR13": 0, "LINE_DIR14": 0, "layer_id": "bus_stops", "feature_name": "Bus Stop", "heat_layer": 6.995, "index_right": 1823, "socioeconomic_layer": 4.0012046941292949, "heat_socio_layer": 10.996204694129295 }, "geometry": { "type": "Point", "coordinates": [ -13166002.414834098890424, 4032333.617546062916517 ] } },
{ "type": "Feature", "properties": { "STOPNUM": 4772, "STOPNAME": "Broadway / 30th", "LAT": 34.022375, "LONG": -118.271509, "LINE_DIR1": "40-N", "LINE_DIR2": "45-N", "LINE_DIR3": 0, "LINE_DIR4": 0, "LINE_DIR5": 0, "LINE_DIR6": 0, "LINE_DIR7": 0, "LINE_DIR8": 0, "LINE_DIR9": 0, "LINE_DIR10": 0, "LINE_DIR11": 0, "LINE_DIR12": 0, "LINE_DIR13": 0, "LINE_DIR14": 0, "layer_id": "bus_stops", "feature_name": "Bus Stop", "heat_layer": 6.995, "index_right": 1823, "socioeconomic_layer": 4.0012046941292949, "heat_socio_layer": 10.996204694129295 }, "geometry": { "type": "Point", "coordinates": [ -13165924.157232072204351, 4031806.837802685331553 ] } },
{ "type": "Feature", "properties": { "STOPNUM": 5110, "STOPNAME": "Grand / Jefferson", "LAT": 34.020455, "LONG": -118.275948, "LINE_DIR1": "35-N", "LINE_DIR2": null, "LINE_DIR3": 0, "LINE_DIR4": 0, "LINE_DIR5": 0, "LINE_DIR6": 0, "LINE_DIR7": 0, "LINE_DIR8": 0, "LINE_DIR9": 0, "LINE_DIR10": 0, "LINE_DIR11": 0, "LINE_DIR12": 0, "LINE_DIR13": 0, "LINE_DIR14": 0, "layer_id": "bus_stops", "feature_name": "Bus Stop", "heat_layer": 6.995, "index_right": 1823, "socioeconomic_layer": 4.0012046941292949, "heat_socio_layer": 10.996204694129295 }, "geometry": { "type": "Point", "coordinates": [ -13166418.304451704025269, 4031548.963682882487774 ] } },
{ "type": "Feature", "properties": { "STOPNUM": 15708, "STOPNAME": "6th / Bonnie Brae", "LAT": 34.058508, "LONG": -118.272207, "LINE_DIR1": "18-W", "LINE_DIR2": null, "LINE_DIR3": 0, "LINE_DIR4": 0, "LINE_DIR5": 0, "LINE_DIR6": 0, "LINE_DIR7": 0, "LINE_DIR8": 0, "LINE_DIR9": 0, "LINE_DIR10": 0, "LINE_DIR11": 0, "LINE_DIR12": 0, "LINE_DIR13": 0, "LINE_DIR14": 0, "layer_id": "bus_stops", "feature_name": "Bus Stop", "heat_layer": 6.719, "index_right": 1483, "socioeconomic_layer": 4.4870798736572794, "heat_socio_layer": 11.206079873657281 }, "geometry": { "type": "Point", "coordinates": [ -13166001.858236644417048, 4036660.929257607553154 ] } },
{ "type": "Feature", "properties": { "STOPNUM": 4659, "STOPNAME": "Alvarado / 7th", "LAT": 34.056275, "LONG": -118.276763, "LINE_DIR1": "2-W", "LINE_DIR2": null, "LINE_DIR3": 0, "LINE_DIR4": 0, "LINE_DIR5": 0, "LINE_DIR6": 0, "LINE_DIR7": 0, "LINE_DIR8": 0, "LINE_DIR9": 0, "LINE_DIR10": 0, "LINE_DIR11": 0, "LINE_DIR12": 0, "LINE_DIR13": 0, "LINE_DIR14": 0, "layer_id": "bus_stops", "feature_name": "Bus Stop", "heat_layer": 6.6648, "index_right": 1497, "socioeconomic_layer": 4.6636642360117104, "heat_socio_layer": 11.32846423601171 }, "geometry": { "type": "Point", "coordinates": [ -13166509.02983669936657, 4036360.889046375174075 ] } },
{ "type": "Feature", "properties": { "STOPNUM": 1258, "STOPNAME": "Adams / San Pedro", "LAT": 34.021831, "LONG": -118.261597, "LINE_DIR1": "55-N", "LINE_DIR2": null, "LINE_DIR3": 0, "LINE_DIR4": 0, "LINE_DIR5": 0, "LINE_DIR6": 0, "LINE_DIR7": 0, "LINE_DIR8": 0, "LINE_DIR9": 0, "LINE_DIR10": 0, "LINE_DIR11": 0, "LINE_DIR12": 0, "LINE_DIR13": 0, "LINE_DIR14": 0, "layer_id": "bus_stops", "feature_name": "Bus Stop", "heat_layer": 6.601, "index_right": 1830, "socioeconomic_layer": 4.0418143881437949, "heat_socio_layer": 10.642814388143794 }, "geometry": { "type": "Point", "coordinates": [ -13164820.75843932852149, 4031733.772876481059939 ] } },
{ "type": "Feature", "properties": { "STOPNUM": 483, "STOPNAME": "Broadway / Washington", "LAT": 34.031195, "LONG": -118.265755, "LINE_DIR1": "40-N", "LINE_DIR2": "45-N", "LINE_DIR3": 0, "LINE_DIR4": 0, "LINE_DIR5": 0, "LINE_DIR6": 0, "LINE_DIR7": 0, "LINE_DIR8": 0, "LINE_DIR9": 0, "LINE_DIR10": 0, "LINE_DIR11": 0, "LINE_DIR12": 0, "LINE_DIR13": 0, "LINE_DIR14": 0, "layer_id": "bus_stops", "feature_name": "Bus Stop", "heat_layer": 6.5238, "index_right": 1811, "socioeconomic_layer": 4.1759712630451817, "heat_socio_layer": 10.699771263045182 }, "geometry": { "type": "Point", "coordinates": [ -13165283.624882047995925, 4032991.522001341916621 ] } },
{ "type": "Feature", "properties": { "STOPNUM": 4800001, "STOPNAME": "23rd / Main", "LAT": 34.027354, "LONG": -118.266898, "LINE_DIR1": "10-W", "LINE_DIR2": null, "LINE_DIR3": 0, "LINE_DIR4": 0, "LINE_DIR5": 0, "LINE_DIR6": 0, "LINE_DIR7": 0, "LINE_DIR8": 0, "LINE_DIR9": 0, "LINE_DIR10": 0, "LINE_DIR11": 0, "LINE_DIR12": 0, "LINE_DIR13": 0, "LINE_DIR14": 0, "layer_id": "bus_stops", "feature_name": "Bus Stop", "heat_layer": 6.5238, "index_right": 1811, "socioeconomic_layer": 4.1759712630451817, "heat_socio_layer": 10.699771263045182 }, "geometry": { "type": "Point", "coordinates": [ -13165410.863060023635626, 4032475.591672285459936 ] } },
{ "type": "Feature", "properties": { "STOPNUM": 13885, "STOPNAME": "San Pedro / 8th", "LAT": 34.038292, "LONG": -118.249089, "LINE_DIR1": "51-N", "LINE_DIR2": null, "LINE_DIR3": 0, "LINE_DIR4": 0, "LINE_DIR5": 0, "LINE_DIR6": 0, "LINE_DIR7": 0, "LINE_DIR8": 0, "LINE_DIR9": 0, "LINE_DIR10": 0, "LINE_DIR11": 0, "LINE_DIR12": 0, "LINE_DIR13": 0, "LINE_DIR14": 0, "layer_id": "bus_stops", "feature_name": "Bus Stop", "heat_layer": 7.4758, "index_right": 1827, "socioeconomic_layer": 2.8409808997107788, "heat_socio_layer": 10.316780899710778 }, "geometry": { "type": "Point", "coordinates": [ -13163428.374248487874866, 4033944.865813671145588 ] } },
{ "type": "Feature", "properties": { "STOPNUM": 1204, "STOPNAME": "5th / Wall", "LAT": 34.044875, "LONG": -118.245544, "LINE_DIR1": "16-W", "LINE_DIR2": "62-N", "LINE_DIR3": 0, "LINE_DIR4": 0, "LINE_DIR5": 0, "LINE_DIR6": 0, "LINE_DIR7": 0, "LINE_DIR8": 0, "LINE_DIR9": 0, "LINE_DIR10": 0, "LINE_DIR11": 0, "LINE_DIR12": 0, "LINE_DIR13": 0, "LINE_DIR14": 0, "layer_id": "bus_stops", "feature_name": "Bus Stop", "heat_layer": 6.4696, "index_right": 1416, "socioeconomic_layer": 3.9230401485131328, "heat_socio_layer": 10.392640148513133 }, "geometry": { "type": "Point", "coordinates": [ -13163033.746653623878956, 4034829.23504217620939 ] } },
{ "type": "Feature", "properties": { "STOPNUM": 1211, "STOPNAME": "6th / Mateo", "LAT": 34.038132, "LONG": -118.232839, "LINE_DIR1": "18-E", "LINE_DIR2": null, "LINE_DIR3": 0, "LINE_DIR4": 0, "LINE_DIR5": 0, "LINE_DIR6": 0, "LINE_DIR7": 0, "LINE_DIR8": 0, "LINE_DIR9": 0, "LINE_DIR10": 0, "LINE_DIR11": 0, "LINE_DIR12": 0, "LINE_DIR13": 0, "LINE_DIR14": 0, "layer_id": "bus_stops", "feature_name": "Bus Stop", "heat_layer": 6.4136, "index_right": 1410, "socioeconomic_layer": 1.9233717772954733, "heat_socio_layer": 8.3369717772954726 }, "geometry": { "type": "Point", "coordinates": [ -13161619.432523095980287, 4033923.372049142140895 ] } },
{ "type": "Feature", "properties": { "STOPNUM": 1581, "STOPNAME": "Olympic / Lawrence", "LAT": 34.02694, "LONG": -118.237112, "LINE_DIR1": "66-E", "LINE_DIR2": null, "LINE_DIR3": 0, "LINE_DIR4": 0, "LINE_DIR5": 0, "LINE_DIR6": 0, "LINE_DIR7": 0, "LINE_DIR8": 0, "LINE_DIR9": 0, "LINE_DIR10": 0, "LINE_DIR11": 0, "LINE_DIR12": 0, "LINE_DIR13": 0, "LINE_DIR14": 0, "layer_id": "bus_stops", "feature_name": "Bus Stop", "heat_layer": 6.4136, "index_right": 1410, "socioeconomic_layer": 1.9233717772954733, "heat_socio_layer": 8.3369717772954726 }, "geometry": { "type": "Point", "coordinates": [ -13162095.100707257166505, 4032419.983809520024806 ] } },
{ "type": "Feature", "properties": { "STOPNUM": 1583, "STOPNAME": "Olympic / Mateo", "LAT": 34.025807, "LONG": -118.231841, "LINE_DIR1": "66-E", "LINE_DIR2": null, "LINE_DIR3": 0, "LINE_DIR4": 0, "LINE_DIR5": 0, "LINE_DIR6": 0, "LINE_DIR7": 0, "LINE_DIR8": 0, "LINE_DIR9": 0, "LINE_DIR10": 0, "LINE_DIR11": 0, "LINE_DIR12": 0, "LINE_DIR13": 0, "LINE_DIR14": 0, "layer_id": "bus_stops", "feature_name": "Bus Stop", "heat_layer": 6.4136, "index_right": 1410, "socioeconomic_layer": 1.9233717772954733, "heat_socio_layer": 8.3369717772954726 }, "geometry": { "type": "Point", "coordinates": [ -13161508.335671285167336, 4032267.802325869910419 ] } },
{ "type": "Feature", "properties": { "STOPNUM": 2826, "STOPNAME": "7th / Imperial", "LAT": 34.034696, "LONG": -118.231008, "LINE_DIR1": "60-N", "LINE_DIR2": "62-N", "LINE_DIR3": 0, "LINE_DIR4": 0, "LINE_DIR5": 0, "LINE_DIR6": 0, "LINE_DIR7": 0, "LINE_DIR8": 0, "LINE_DIR9": 0, "LINE_DIR10": 0, "LINE_DIR11": 0, "LINE_DIR12": 0, "LINE_DIR13": 0, "LINE_DIR14": 0, "layer_id": "bus_stops", "feature_name": "Bus Stop", "heat_layer": 6.4136, "index_right": 1410, "socioeconomic_layer": 1.9233717772954733, "heat_socio_layer": 8.3369717772954726 }, "geometry": { "type": "Point", "coordinates": [ -13161415.606535455211997, 4033461.803239494562149 ] } },
{ "type": "Feature", "properties": { "STOPNUM": 5528, "STOPNAME": "Santa Fe / 15th", "LAT": 34.020964, "LONG": -118.230003, "LINE_DIR1": "60-N", "LINE_DIR2": null, "LINE_DIR3": 0, "LINE_DIR4": 0, "LINE_DIR5": 0, "LINE_DIR6": 0, "LINE_DIR7": 0, "LINE_DIR8": 0, "LINE_DIR9": 0, "LINE_DIR10": 0, "LINE_DIR11": 0, "LINE_DIR12": 0, "LINE_DIR13": 0, "LINE_DIR14": 0, "layer_id": "bus_stops", "feature_name": "Bus Stop", "heat_layer": 6.4136, "index_right": 1410, "socioeconomic_layer": 1.9233717772954733, "heat_socio_layer": 8.3369717772954726 }, "geometry": { "type": "Point", "coordinates": [ -13161303.730447208508849, 4031617.326618276070803 ] } },
{ "type": "Feature", "properties": { "STOPNUM": 16931, "STOPNAME": "Santa Fe / 8th", "LAT": 34.029724, "LONG": -118.230096, "LINE_DIR1": "60-S", "LINE_DIR2": null, "LINE_DIR3": 0, "LINE_DIR4": 0, "LINE_DIR5": 0, "LINE_DIR6": 0, "LINE_DIR7": 0, "LINE_DIR8": 0, "LINE_DIR9": 0, "LINE_DIR10": 0, "LINE_DIR11": 0, "LINE_DIR12": 0, "LINE_DIR13": 0, "LINE_DIR14": 0, "layer_id": "bus_stops", "feature_name": "Bus Stop", "heat_layer": 6.4136, "index_right": 1410, "socioeconomic_layer": 1.9233717772954733, "heat_socio_layer": 8.3369717772954726 }, "geometry": { "type": "Point", "coordinates": [ -13161314.083159849047661, 4032793.931761004496366 ] } },
{ "type": "Feature", "properties": { "STOPNUM": 15762, "STOPNAME": "7th / Union", "LAT": 34.054083, "LONG": -118.271345, "LINE_DIR1": "51-N", "LINE_DIR2": null, "LINE_DIR3": 0, "LINE_DIR4": 0, "LINE_DIR5": 0, "LINE_DIR6": 0, "LINE_DIR7": 0, "LINE_DIR8": 0, "LINE_DIR9": 0, "LINE_DIR10": 0, "LINE_DIR11": 0, "LINE_DIR12": 0, "LINE_DIR13": 0, "LINE_DIR14": 0, "layer_id": "bus_stops", "feature_name": "Bus Stop", "heat_layer": 6.1928, "index_right": 1479, "socioeconomic_layer": 4.0806350335640422, "heat_socio_layer": 10.273435033564041 }, "geometry": { "type": "Point", "coordinates": [ -13165905.900835581123829, 4036066.365545930340886 ] } },
{ "type": "Feature", "properties": { "STOPNUM": 2460, "STOPNAME": "Hill / Venice", "LAT": 34.034893, "LONG": -118.264529, "LINE_DIR1": "94-S", "LINE_DIR2": null, "LINE_DIR3": 0, "LINE_DIR4": 0, "LINE_DIR5": 0, "LINE_DIR6": 0, "LINE_DIR7": 0, "LINE_DIR8": 0, "LINE_DIR9": 0, "LINE_DIR10": 0, "LINE_DIR11": 0, "LINE_DIR12": 0, "LINE_DIR13": 0, "LINE_DIR14": 0, "layer_id": "bus_stops", "feature_name": "Bus Stop", "heat_layer": 5.397, "index_right": 1808, "socioeconomic_layer": 3.5578625043066285, "heat_socio_layer": 8.9548625043066288 }, "geometry": { "type": "Point", "coordinates": [ -13165147.147186333313584, 4033488.266370917670429 ] } },
{ "type": "Feature", "properties": { "STOPNUM": 13574, "STOPNAME": "Pico / Grand", "LAT": 34.038869, "LONG": -118.264552, "LINE_DIR1": "30-E", "LINE_DIR2": null, "LINE_DIR3": 0, "LINE_DIR4": 0, "LINE_DIR5": 0, "LINE_DIR6": 0, "LINE_DIR7": 0, "LINE_DIR8": 0, "LINE_DIR9": 0, "LINE_DIR10": 0, "LINE_DIR11": 0, "LINE_DIR12": 0, "LINE_DIR13": 0, "LINE_DIR14": 0, "layer_id": "bus_stops", "feature_name": "Bus Stop", "heat_layer": 5.397, "index_right": 1808, "socioeconomic_layer": 3.5578625043066285, "heat_socio_layer": 8.9548625043066288 }, "geometry": { "type": "Point", "coordinates": [ -13165149.707534624263644, 4034022.3780387500301 ] } },
{ "type": "Feature", "properties": { "STOPNUM": 1255, "STOPNAME": "Adams / Maple", "LAT": 34.023636, "LONG": -118.265675, "LINE_DIR1": "55-N", "LINE_DIR2": null, "LINE_DIR3": 0, "LINE_DIR4": 0, "LINE_DIR5": 0, "LINE_DIR6": 0, "LINE_DIR7": 0, "LINE_DIR8": 0, "LINE_DIR9": 0, "LINE_DIR10": 0, "LINE_DIR11": 0, "LINE_DIR12": 0, "LINE_DIR13": 0, "LINE_DIR14": 0, "layer_id": "bus_stops", "feature_name": "Bus Stop", "heat_layer": 6.5238, "index_right": 1811, "socioeconomic_layer": 4.1759712630451817, "heat_socio_layer": 10.699771263045182 }, "geometry": { "type": "Point", "coordinates": [ -13165274.719322783872485, 4031976.205177091993392 ] } },
{ "type": "Feature", "properties": { "STOPNUM": 4851, "STOPNAME": "Central / 22nd", "LAT": 34.02139, "LONG": -118.253151, "LINE_DIR1": "53-N", "LINE_DIR2": null, "LINE_DIR3": 0, "LINE_DIR4": 0, "LINE_DIR5": 0, "LINE_DIR6": 0, "LINE_DIR7": 0, "LINE_DIR8": 0, "LINE_DIR9": 0, "LINE_DIR10": 0, "LINE_DIR11": 0, "LINE_DIR12": 0, "LINE_DIR13": 0, "LINE_DIR14": 0, "layer_id": "bus_stops", "feature_name": "Bus Stop", "heat_layer": 5.3354, "index_right": 1840, "socioeconomic_layer": 4.3309699717383046, "heat_socio_layer": 9.6663699717383054 }, "geometry": { "type": "Point", "coordinates": [ -13163880.554020090028644, 4031674.542278164066374 ] } },
{ "type": "Feature", "properties": { "STOPNUM": 5279, "STOPNAME": "Main / Pico", "LAT": 34.036145, "LONG": -118.260335, "LINE_DIR1": "55-N", "LINE_DIR2": "33-E", "LINE_DIR3": 0, "LINE_DIR4": 0, "LINE_DIR5": 0, "LINE_DIR6": 0, "LINE_DIR7": 0, "LINE_DIR8": 0, "LINE_DIR9": 0, "LINE_DIR10": 0, "LINE_DIR11": 0, "LINE_DIR12": 0, "LINE_DIR13": 0, "LINE_DIR14": 0, "layer_id": "bus_stops", "feature_name": "Bus Stop", "heat_layer": 5.397, "index_right": 1808, "socioeconomic_layer": 3.5578625043066285, "heat_socio_layer": 8.9548625043066288 }, "geometry": { "type": "Point", "coordinates": [ -13164680.273241948336363, 4033656.449738951399922 ] } },
{ "type": "Feature", "properties": { "STOPNUM": 9750, "STOPNAME": "7th / Decatur", "LAT": 34.034635, "LONG": -118.235203, "LINE_DIR1": "60-S", "LINE_DIR2": "62-S", "LINE_DIR3": 0, "LINE_DIR4": 0, "LINE_DIR5": 0, "LINE_DIR6": 0, "LINE_DIR7": 0, "LINE_DIR8": 0, "LINE_DIR9": 0, "LINE_DIR10": 0, "LINE_DIR11": 0, "LINE_DIR12": 0, "LINE_DIR13": 0, "LINE_DIR14": 0, "layer_id": "bus_stops", "feature_name": "Bus Stop", "heat_layer": 6.4136, "index_right": 1410, "socioeconomic_layer": 1.9233717772954733, "heat_socio_layer": 8.3369717772954726 }, "geometry": { "type": "Point", "coordinates": [ -13161882.591799333691597, 4033453.609084358438849 ] } },
{ "type": "Feature", "properties": { "STOPNUM": 13120, "STOPNAME": "Alvarado / Olympic", "LAT": 34.051959, "LONG": -118.279862, "LINE_DIR1": "2-E", "LINE_DIR2": null, "LINE_DIR3": 0, "LINE_DIR4": 0, "LINE_DIR5": 0, "LINE_DIR6": 0, "LINE_DIR7": 0, "LINE_DIR8": 0, "LINE_DIR9": 0, "LINE_DIR10": 0, "LINE_DIR11": 0, "LINE_DIR12": 0, "LINE_DIR13": 0, "LINE_DIR14": 0, "layer_id": "bus_stops", "feature_name": "Bus Stop", "heat_layer": 5.0372, "index_right": 1500, "socioeconomic_layer": 4.5491144189991699, "heat_socio_layer": 9.5863144189991694 }, "geometry": { "type": "Point", "coordinates": [ -13166854.008938666433096, 4035780.985988307278603 ] } },
{ "type": "Feature", "properties": { "STOPNUM": 7272, "STOPNAME": "3rd / Bonnie Brae", "LAT": 34.061851, "LONG": -118.270396, "LINE_DIR1": "16-E", "LINE_DIR2": null, "LINE_DIR3": 0, "LINE_DIR4": 0, "LINE_DIR5": 0, "LINE_DIR6": 0, "LINE_DIR7": 0, "LINE_DIR8": 0, "LINE_DIR9": 0, "LINE_DIR10": 0, "LINE_DIR11": 0, "LINE_DIR12": 0, "LINE_DIR13": 0, "LINE_DIR14": 0, "layer_id": "bus_stops", "feature_name": "Bus Stop", "heat_layer": 5.2558, "index_right": 1480, "socioeconomic_layer": 4.5354192661559676, "heat_socio_layer": 9.7912192661559665 }, "geometry": { "type": "Point", "coordinates": [ -13165800.258638819679618, 4037110.130968661047518 ] } },
{ "type": "Feature", "properties": { "STOPNUM": 1253, "STOPNAME": "Adams / Griffith", "LAT": 34.0201, "LONG": -118.257698, "LINE_DIR1": "55-N", "LINE_DIR2": null, "LINE_DIR3": 0, "LINE_DIR4": 0, "LINE_DIR5": 0, "LINE_DIR6": 0, "LINE_DIR7": 0, "LINE_DIR8": 0, "LINE_DIR9": 0, "LINE_DIR10": 0, "LINE_DIR11": 0, "LINE_DIR12": 0, "LINE_DIR13": 0, "LINE_DIR14": 0, "layer_id": "bus_stops", "feature_name": "Bus Stop", "heat_layer": 5.1188, "index_right": 1832, "socioeconomic_layer": 3.7487194136665773, "heat_socio_layer": 8.867519413666578 }, "geometry": { "type": "Point", "coordinates": [ -13164386.723744725808501, 4031501.284471592400223 ] } },
{ "type": "Feature", "properties": { "STOPNUM": 8994, "STOPNAME": "Beverly / Benton", "LAT": 34.069819, "LONG": -118.277861, "LINE_DIR1": "14-S", "LINE_DIR2": null, "LINE_DIR3": 0, "LINE_DIR4": 0, "LINE_DIR5": 0, "LINE_DIR6": 0, "LINE_DIR7": 0, "LINE_DIR8": 0, "LINE_DIR9": 0, "LINE_DIR10": 0, "LINE_DIR11": 0, "LINE_DIR12": 0, "LINE_DIR13": 0, "LINE_DIR14": 0, "layer_id": "bus_stops", "feature_name": "Bus Stop", "heat_layer": 4.6246, "index_right": 1469, "socioeconomic_layer": 3.3595049139848268, "heat_socio_layer": 7.9841049139848268 }, "geometry": { "type": "Point", "coordinates": [ -13166631.258637592196465, 4038180.86926158843562 ] } },
{ "type": "Feature", "properties": { "STOPNUM": 9020, "STOPNAME": "Beverly / Union", "LAT": 34.064611, "LONG": -118.26603, "LINE_DIR1": "14-S", "LINE_DIR2": null, "LINE_DIR3": 0, "LINE_DIR4": 0, "LINE_DIR5": 0, "LINE_DIR6": 0, "LINE_DIR7": 0, "LINE_DIR8": 0, "LINE_DIR9": 0, "LINE_DIR10": 0, "LINE_DIR11": 0, "LINE_DIR12": 0, "LINE_DIR13": 0, "LINE_DIR14": 0, "layer_id": "bus_stops", "feature_name": "Bus Stop", "heat_layer": 4.3462, "index_right": 1456, "socioeconomic_layer": 4.1935603853474124, "heat_socio_layer": 8.539760385347412 }, "geometry": { "type": "Point", "coordinates": [ -13165314.237742016091943, 4037481.00783510832116 ] } },
{ "type": "Feature", "properties": { "STOPNUM": 7418, "STOPNAME": "8th / Columbia", "LAT": 34.050585, "LONG": -118.270095, "LINE_DIR1": "66-E", "LINE_DIR2": null, "LINE_DIR3": 0, "LINE_DIR4": 0, "LINE_DIR5": 0, "LINE_DIR6": 0, "LINE_DIR7": 0, "LINE_DIR8": 0, "LINE_DIR9": 0, "LINE_DIR10": 0, "LINE_DIR11": 0, "LINE_DIR12": 0, "LINE_DIR13": 0, "LINE_DIR14": 0, "layer_id": "bus_stops", "feature_name": "Bus Stop", "heat_layer": 4.6404, "index_right": 1491, "socioeconomic_layer": 3.868397258440555, "heat_socio_layer": 8.5087972584405556 }, "geometry": { "type": "Point", "coordinates": [ -13165766.751472089439631, 4035596.379857032094151 ] } },
{ "type": "Feature", "properties": { "STOPNUM": 16197, "STOPNAME": "Pico / Bonnie Brae", "LAT": 34.04604, "LONG": -118.27967, "LINE_DIR1": "30-W", "LINE_DIR2": null, "LINE_DIR3": 0, "LINE_DIR4": 0, "LINE_DIR5": 0, "LINE_DIR6": 0, "LINE_DIR7": 0, "LINE_DIR8": 0, "LINE_DIR9": 0, "LINE_DIR10": 0, "LINE_DIR11": 0, "LINE_DIR12": 0, "LINE_DIR13": 0, "LINE_DIR14": 0, "layer_id": "bus_stops", "feature_name": "Bus Stop", "heat_layer": 4.2916, "index_right": 1507, "socioeconomic_layer": 4.2891787854927594, "heat_socio_layer": 8.5807787854927593 }, "geometry": { "type": "Point", "coordinates": [ -13166832.635596435517073, 4034985.749885853845626 ] } },
{ "type": "Feature", "properties": { "STOPNUM": 15651, "STOPNAME": "3rd / Rampart", "LAT": 34.06627, "LONG": -118.278648, "LINE_DIR1": "16-W", "LINE_DIR2": null, "LINE_DIR3": 0, "LINE_DIR4": 0, "LINE_DIR5": 0, "LINE_DIR6": 0, "LINE_DIR7": 0, "LINE_DIR8": 0, "LINE_DIR9": 0, "LINE_DIR10": 0, "LINE_DIR11": 0, "LINE_DIR12": 0, "LINE_DIR13": 0, "LINE_DIR14": 0, "layer_id": "bus_stops", "feature_name": "Bus Stop", "heat_layer": 4.6246, "index_right": 1469, "socioeconomic_layer": 3.3595049139848268, "heat_socio_layer": 7.9841049139848268 }, "geometry": { "type": "Point", "coordinates": [ -13166718.867076843976974, 4037703.942894746083766 ] } },
{ "type": "Feature", "properties": { "STOPNUM": 3429, "STOPNAME": "Broadway / College", "LAT": 34.063852, "LONG": -118.237371, "LINE_DIR1": "45-N", "LINE_DIR2": null, "LINE_DIR3": 0, "LINE_DIR4": 0, "LINE_DIR5": 0, "LINE_DIR6": 0, "LINE_DIR7": 0, "LINE_DIR8": 0, "LINE_DIR9": 0, "LINE_DIR10": 0, "LINE_DIR11": 0, "LINE_DIR12": 0, "LINE_DIR13": 0, "LINE_DIR14": 0, "layer_id": "bus_stops", "feature_name": "Bus Stop", "heat_layer": 3.9106, "index_right": 1427, "socioeconomic_layer": 4.2601086467671427, "heat_socio_layer": 8.1707086467671424 }, "geometry": { "type": "Point", "coordinates": [ -13162123.932455372065306, 4037379.015492680482566 ] } },
{ "type": "Feature", "properties": { "STOPNUM": 6196, "STOPNAME": "Central / 1st", "LAT": 34.048483, "LONG": -118.239016, "LINE_DIR1": "30-E", "LINE_DIR2": "30-W", "LINE_DIR3": 0, "LINE_DIR4": 0, "LINE_DIR5": 0, "LINE_DIR6": 0, "LINE_DIR7": 0, "LINE_DIR8": 0, "LINE_DIR9": 0, "LINE_DIR10": 0, "LINE_DIR11": 0, "LINE_DIR12": 0, "LINE_DIR13": 0, "LINE_DIR14": 0, "layer_id": "bus_stops", "feature_name": "Bus Stop", "heat_layer": 3.886, "index_right": 1418, "socioeconomic_layer": 4.0514704839207818, "heat_socio_layer": 7.9374704839207819 }, "geometry": { "type": "Point", "coordinates": [ -13162307.053017726168036, 4035313.967823942191899 ] } },
{ "type": "Feature", "properties": { "STOPNUM": 8099, "STOPNAME": "Temple / Occidental", "LAT": 34.073644, "LONG": -118.277738, "LINE_DIR1": "10-E", "LINE_DIR2": null, "LINE_DIR3": 0, "LINE_DIR4": 0, "LINE_DIR5": 0, "LINE_DIR6": 0, "LINE_DIR7": 0, "LINE_DIR8": 0, "LINE_DIR9": 0, "LINE_DIR10": 0, "LINE_DIR11": 0, "LINE_DIR12": 0, "LINE_DIR13": 0, "LINE_DIR14": 0, "layer_id": "bus_stops", "feature_name": "Bus Stop", "heat_layer": 3.4842, "index_right": 1465, "socioeconomic_layer": 3.3673137651075571, "heat_socio_layer": 6.8515137651075566 }, "geometry": { "type": "Point", "coordinates": [ -13166617.566340224817395, 4038694.907792004290968 ] } },
{ "type": "Feature", "properties": { "STOPNUM": 1213, "STOPNAME": "Central / 6th", "LAT": 34.039201, "LONG": -118.239787, "LINE_DIR1": "18-W", "LINE_DIR2": "720-W", "LINE_DIR3": 0, "LINE_DIR4": 0, "LINE_DIR5": 0, "LINE_DIR6": 0, "LINE_DIR7": 0, "LINE_DIR8": 0, "LINE_DIR9": 0, "LINE_DIR10": 0, "LINE_DIR11": 0, "LINE_DIR12": 0, "LINE_DIR13": 0, "LINE_DIR14": 0, "layer_id": "bus_stops", "feature_name": "Bus Stop", "heat_layer": 7.2614, "index_right": 1422, "socioeconomic_layer": 4.5922241777298698, "heat_socio_layer": 11.85362417772987 }, "geometry": { "type": "Point", "coordinates": [ -13162392.880345130339265, 4034066.978032889775932 ] } },
{ "type": "Feature", "properties": { "STOPNUM": 1177, "STOPNAME": "1st / Vignes", "LAT": 34.048333, "LONG": -118.234053, "LINE_DIR1": "106-S", "LINE_DIR2": null, "LINE_DIR3": 0, "LINE_DIR4": 0, "LINE_DIR5": 0, "LINE_DIR6": 0, "LINE_DIR7": 0, "LINE_DIR8": 0, "LINE_DIR9": 0, "LINE_DIR10": 0, "LINE_DIR11": 0, "LINE_DIR12": 0, "LINE_DIR13": 0, "LINE_DIR14": 0, "layer_id": "bus_stops", "feature_name": "Bus Stop", "heat_layer": 3.2978, "index_right": 1412, "socioeconomic_layer": 2.6415830528515021, "heat_socio_layer": 5.9393830528515021 }, "geometry": { "type": "Point", "coordinates": [ -13161754.574384918436408, 4035293.814996923319995 ] } },
{ "type": "Feature", "properties": { "STOPNUM": 3773, "STOPNAME": "Main / Ann", "LAT": 34.064616, "LONG": -118.231345, "LINE_DIR1": "76-E", "LINE_DIR2": null, "LINE_DIR3": 0, "LINE_DIR4": 0, "LINE_DIR5": 0, "LINE_DIR6": 0, "LINE_DIR7": 0, "LINE_DIR8": 0, "LINE_DIR9": 0, "LINE_DIR10": 0, "LINE_DIR11": 0, "LINE_DIR12": 0, "LINE_DIR13": 0, "LINE_DIR14": 0, "layer_id": "bus_stops", "feature_name": "Bus Stop", "heat_layer": 3.0496, "index_right": 1407, "socioeconomic_layer": 4.367999574329966, "heat_socio_layer": 7.4175995743299659 }, "geometry": { "type": "Point", "coordinates": [ -13161453.121203850954771, 4037481.679724450223148 ] } },
{ "type": "Feature", "properties": { "STOPNUM": 7899, "STOPNAME": "Pico / Albany", "LAT": 34.043297, "LONG": -118.274224, "LINE_DIR1": "30-E", "LINE_DIR2": null, "LINE_DIR3": 0, "LINE_DIR4": 0, "LINE_DIR5": 0, "LINE_DIR6": 0, "LINE_DIR7": 0, "LINE_DIR8": 0, "LINE_DIR9": 0, "LINE_DIR10": 0, "LINE_DIR11": 0, "LINE_DIR12": 0, "LINE_DIR13": 0, "LINE_DIR14": 0, "layer_id": "bus_stops", "feature_name": "Bus Stop", "heat_layer": 2.9798, "index_right": 1812, "socioeconomic_layer": 4.0394536030550583, "heat_socio_layer": 7.0192536030550583 }, "geometry": { "type": "Point", "coordinates": [ -13166226.389649577438831, 4034617.238107470329851 ] } },
{ "type": "Feature", "properties": { "STOPNUM": 15621, "STOPNAME": "3rd / Loma", "LAT": 34.059939, "LONG": -118.265302, "LINE_DIR1": "16-W", "LINE_DIR2": null, "LINE_DIR3": 0, "LINE_DIR4": 0, "LINE_DIR5": 0, "LINE_DIR6": 0, "LINE_DIR7": 0, "LINE_DIR8": 0, "LINE_DIR9": 0, "LINE_DIR10": 0, "LINE_DIR11": 0, "LINE_DIR12": 0, "LINE_DIR13": 0, "LINE_DIR14": 0, "layer_id": "bus_stops", "feature_name": "Bus Stop", "heat_layer": 2.9368, "index_right": 1452, "socioeconomic_layer": 4.2227950844664406, "heat_socio_layer": 7.1595950844664404 }, "geometry": { "type": "Point", "coordinates": [ -13165233.197152717038989, 4036853.211757674347609 ] } },
{ "type": "Feature", "properties": { "STOPNUM": 1813, "STOPNAME": "Flower / 23rd", "LAT": 34.030324, "LONG": -118.273023, "LINE_DIR1": "460-E", "LINE_DIR2": "910-S", "LINE_DIR3": 0, "LINE_DIR4": 0, "LINE_DIR5": 0, "LINE_DIR6": 0, "LINE_DIR7": 0, "LINE_DIR8": 0, "LINE_DIR9": 0, "LINE_DIR10": 0, "LINE_DIR11": 0, "LINE_DIR12": 0, "LINE_DIR13": 0, "LINE_DIR14": 0, "layer_id": "bus_stops", "feature_name": "Bus Stop", "heat_layer": 2.8998, "index_right": 1810, "socioeconomic_layer": 3.7749837642375321, "heat_socio_layer": 6.6747837642375316 }, "geometry": { "type": "Point", "coordinates": [ -13166092.694941131398082, 4032874.525599001441151 ] } },
{ "type": "Feature", "properties": { "STOPNUM": 5049, "STOPNAME": "Figueroa / Washington", "LAT": 34.034572, "LONG": -118.27174, "LINE_DIR1": "81-N", "LINE_DIR2": "910-N", "LINE_DIR3": 0, "LINE_DIR4": 0, "LINE_DIR5": 0, "LINE_DIR6": 0, "LINE_DIR7": 0, "LINE_DIR8": 0, "LINE_DIR9": 0, "LINE_DIR10": 0, "LINE_DIR11": 0, "LINE_DIR12": 0, "LINE_DIR13": 0, "LINE_DIR14": 0, "layer_id": "bus_stops", "feature_name": "Bus Stop", "heat_layer": 2.8998, "index_right": 1810, "socioeconomic_layer": 3.7749837642375321, "heat_socio_layer": 6.6747837642375316 }, "geometry": { "type": "Point", "coordinates": [ -13165949.872034445405006, 4033445.146274580154568 ] } },
{ "type": "Feature", "properties": { "STOPNUM": 15732, "STOPNAME": "6th / Valencia", "LAT": 34.056447, "LONG": -118.267457, "LINE_DIR1": "18-W", "LINE_DIR2": null, "LINE_DIR3": 0, "LINE_DIR4": 0, "LINE_DIR5": 0, "LINE_DIR6": 0, "LINE_DIR7": 0, "LINE_DIR8": 0, "LINE_DIR9": 0, "LINE_DIR10": 0, "LINE_DIR11": 0, "LINE_DIR12": 0, "LINE_DIR13": 0, "LINE_DIR14": 0, "layer_id": "bus_stops", "feature_name": "Bus Stop", "heat_layer": 2.823, "index_right": 1487, "socioeconomic_layer": 4.7619211667069266, "heat_socio_layer": 7.584921166706927 }, "geometry": { "type": "Point", "coordinates": [ -13165473.090655377134681, 4036383.999789286870509 ] } },
{ "type": "Feature", "properties": { "STOPNUM": 16176, "STOPNAME": "Olympic / Union", "LAT": 34.04949, "LONG": -118.274476, "LINE_DIR1": "28-W", "LINE_DIR2": null, "LINE_DIR3": 0, "LINE_DIR4": 0, "LINE_DIR5": 0, "LINE_DIR6": 0, "LINE_DIR7": 0, "LINE_DIR8": 0, "LINE_DIR9": 0, "LINE_DIR10": 0, "LINE_DIR11": 0, "LINE_DIR12": 0, "LINE_DIR13": 0, "LINE_DIR14": 0, "layer_id": "bus_stops", "feature_name": "Bus Stop", "heat_layer": 2.8174, "index_right": 1502, "socioeconomic_layer": 4.3621861962603683, "heat_socio_layer": 7.1795861962603684 }, "geometry": { "type": "Point", "coordinates": [ -13166254.442161256447434, 4035449.261392402928323 ] } },
{ "type": "Feature", "properties": { "STOPNUM": 16319, "STOPNAME": "Sunset / Beaudry", "LAT": 34.06515, "LONG": -118.248988, "LINE_DIR1": "4-W", "LINE_DIR2": null, "LINE_DIR3": 0, "LINE_DIR4": 0, "LINE_DIR5": 0, "LINE_DIR6": 0, "LINE_DIR7": 0, "LINE_DIR8": 0, "LINE_DIR9": 0, "LINE_DIR10": 0, "LINE_DIR11": 0, "LINE_DIR12": 0, "LINE_DIR13": 0, "LINE_DIR14": 0, "layer_id": "bus_stops", "feature_name": "Bus Stop", "heat_layer": 2.7822, "index_right": 1294, "socioeconomic_layer": 3.2628429892806534, "heat_socio_layer": 6.0450429892806534 }, "geometry": { "type": "Point", "coordinates": [ -13163417.130979916080832, 4037553.437734458129853 ] } },
{ "type": "Feature", "properties": { "STOPNUM": 16927, "STOPNAME": "Cesar E Chavez / Grand", "LAT": 34.060901, "LONG": -118.24398, "LINE_DIR1": "4-W", "LINE_DIR2": null, "LINE_DIR3": 0, "LINE_DIR4": 0, "LINE_DIR5": 0, "LINE_DIR6": 0, "LINE_DIR7": 0, "LINE_DIR8": 0, "LINE_DIR9": 0, "LINE_DIR10": 0, "LINE_DIR11": 0, "LINE_DIR12": 0, "LINE_DIR13": 0, "LINE_DIR14": 0, "layer_id": "bus_stops", "feature_name": "Bus Stop", "heat_layer": 2.6026, "index_right": 1423, "socioeconomic_layer": 3.6099212279158577, "heat_socio_layer": 6.2125212279158575 }, "geometry": { "type": "Point", "coordinates": [ -13162859.642970021814108, 4036982.476870502345264 ] } },
{ "type": "Feature", "properties": { "STOPNUM": 3947, "STOPNAME": "Temple / Rosemont", "LAT": 34.071082, "LONG": -118.270888, "LINE_DIR1": "10-E", "LINE_DIR2": null, "LINE_DIR3": 0, "LINE_DIR4": 0, "LINE_DIR5": 0, "LINE_DIR6": 0, "LINE_DIR7": 0, "LINE_DIR8": 0, "LINE_DIR9": 0, "LINE_DIR10": 0, "LINE_DIR11": 0, "LINE_DIR12": 0, "LINE_DIR13": 0, "LINE_DIR14": 0, "layer_id": "bus_stops", "feature_name": "Bus Stop", "heat_layer": 2.5966, "index_right": 1461, "socioeconomic_layer": 3.1957387974938483, "heat_socio_layer": 5.7923387974938478 }, "geometry": { "type": "Point", "coordinates": [ -13165855.027828289195895, 4038350.600201947148889 ] } },
{ "type": "Feature", "properties": { "STOPNUM": 4703, "STOPNAME": "Venice / Toberman", "LAT": 34.041393, "LONG": -118.279022, "LINE_DIR1": "33-E", "LINE_DIR2": null, "LINE_DIR3": 0, "LINE_DIR4": 0, "LINE_DIR5": 0, "LINE_DIR6": 0, "LINE_DIR7": 0, "LINE_DIR8": 0, "LINE_DIR9": 0, "LINE_DIR10": 0, "LINE_DIR11": 0, "LINE_DIR12": 0, "LINE_DIR13": 0, "LINE_DIR14": 0, "layer_id": "bus_stops", "feature_name": "Bus Stop", "heat_layer": 2.4842, "index_right": 1813, "socioeconomic_layer": 3.7824015688104566, "heat_socio_layer": 6.2666015688104562 }, "geometry": { "type": "Point", "coordinates": [ -13166760.500566402450204, 4034361.449845514725894 ] } },
{ "type": "Feature", "properties": { "STOPNUM": 8173, "STOPNAME": "Washington / Oak", "LAT": 34.03691, "LONG": -118.27791, "LINE_DIR1": "35-S", "LINE_DIR2": null, "LINE_DIR3": 0, "LINE_DIR4": 0, "LINE_DIR5": 0, "LINE_DIR6": 0, "LINE_DIR7": 0, "LINE_DIR8": 0, "LINE_DIR9": 0, "LINE_DIR10": 0, "LINE_DIR11": 0, "LINE_DIR12": 0, "LINE_DIR13": 0, "LINE_DIR14": 0, "layer_id": "bus_stops", "feature_name": "Bus Stop", "heat_layer": 2.4702, "index_right": 1819, "socioeconomic_layer": 3.5183794289285193, "heat_socio_layer": 5.988579428928519 }, "geometry": { "type": "Point", "coordinates": [ -13166636.713292639702559, 4033759.21475982805714 ] } },
{ "type": "Feature", "properties": { "STOPNUM": 3357, "STOPNAME": "Alvarado / Beverly", "LAT": 34.066451, "LONG": -118.270275, "LINE_DIR1": "2-W", "LINE_DIR2": null, "LINE_DIR3": 0, "LINE_DIR4": 0, "LINE_DIR5": 0, "LINE_DIR6": 0, "LINE_DIR7": 0, "LINE_DIR8": 0, "LINE_DIR9": 0, "LINE_DIR10": 0, "LINE_DIR11": 0, "LINE_DIR12": 0, "LINE_DIR13": 0, "LINE_DIR14": 0, "layer_id": "bus_stops", "feature_name": "Bus Stop", "heat_layer": 2.4106, "index_right": 1457, "socioeconomic_layer": 4.1232843841669702, "heat_socio_layer": 6.5338843841669707 }, "geometry": { "type": "Point", "coordinates": [ -13165786.788980431854725, 4037728.265790410805494 ] } },
{ "type": "Feature", "properties": { "STOPNUM": 99, "STOPNAME": "Olive / Olympic", "LAT": 34.042134, "LONG": -118.259555, "LINE_DIR1": "14-N", "LINE_DIR2": "78-E", "LINE_DIR3": 0, "LINE_DIR4": 0, "LINE_DIR5": 0, "LINE_DIR6": 0, "LINE_DIR7": 0, "LINE_DIR8": 0, "LINE_DIR9": 0, "LINE_DIR10": 0, "LINE_DIR11": 0, "LINE_DIR12": 0, "LINE_DIR13": 0, "LINE_DIR14": 0, "layer_id": "bus_stops", "feature_name": "Bus Stop", "heat_layer": 2.222, "index_right": 1447, "socioeconomic_layer": 2.8582636218966657, "heat_socio_layer": 5.0802636218966661 }, "geometry": { "type": "Point", "coordinates": [ -13164593.444039130583405, 4034460.997010706458241 ] } },
{ "type": "Feature", "properties": { "STOPNUM": 1247, "STOPNAME": "9th / Main", "LAT": 34.041319, "LONG": -118.254855, "LINE_DIR1": "66-E", "LINE_DIR2": null, "LINE_DIR3": 0, "LINE_DIR4": 0, "LINE_DIR5": 0, "LINE_DIR6": 0, "LINE_DIR7": 0, "LINE_DIR8": 0, "LINE_DIR9": 0, "LINE_DIR10": 0, "LINE_DIR11": 0, "LINE_DIR12": 0, "LINE_DIR13": 0, "LINE_DIR14": 0, "layer_id": "bus_stops", "feature_name": "Bus Stop", "heat_layer": 2.222, "index_right": 1447, "socioeconomic_layer": 2.8582636218966657, "heat_socio_layer": 5.0802636218966661 }, "geometry": { "type": "Point", "coordinates": [ -13164070.242432402446866, 4034351.508610926102847 ] } },
{ "type": "Feature", "properties": { "STOPNUM": 8089, "STOPNAME": "Temple / Bonnie Brae", "LAT": 34.069371, "LONG": -118.265711, "LINE_DIR1": "10-E", "LINE_DIR2": null, "LINE_DIR3": 0, "LINE_DIR4": 0, "LINE_DIR5": 0, "LINE_DIR6": 0, "LINE_DIR7": 0, "LINE_DIR8": 0, "LINE_DIR9": 0, "LINE_DIR10": 0, "LINE_DIR11": 0, "LINE_DIR12": 0, "LINE_DIR13": 0, "LINE_DIR14": 0, "layer_id": "bus_stops", "feature_name": "Bus Stop", "heat_layer": 1.9926, "index_right": 1459, "socioeconomic_layer": 3.3437569515432335, "heat_socio_layer": 5.3363569515432339 }, "geometry": { "type": "Point", "coordinates": [ -13165278.726824453100562, 4038120.664437005762011 ] } },
{ "type": "Feature", "properties": { "STOPNUM": 73, "STOPNAME": "Alameda / Arcadia", "LAT": 34.054387, "LONG": -118.237945, "LINE_DIR1": "76-W", "LINE_DIR2": null, "LINE_DIR3": 0, "LINE_DIR4": 0, "LINE_DIR5": 0, "LINE_DIR6": 0, "LINE_DIR7": 0, "LINE_DIR8": 0, "LINE_DIR9": 0, "LINE_DIR10": 0, "LINE_DIR11": 0, "LINE_DIR12": 0, "LINE_DIR13": 0, "LINE_DIR14": 0, "layer_id": "bus_stops", "feature_name": "Bus Stop", "heat_layer": 1.9144, "index_right": 1425, "socioeconomic_layer": 4.2907955447235571, "heat_socio_layer": 6.2051955447235567 }, "geometry": { "type": "Point", "coordinates": [ -13162187.829843085259199, 4036107.211415940430015 ] } },
{ "type": "Feature", "properties": { "STOPNUM": 680, "STOPNAME": "Cesar E Chavez / New High", "LAT": 34.058181, "LONG": -118.239699, "LINE_DIR1": "4-E", "LINE_DIR2": null, "LINE_DIR3": 0, "LINE_DIR4": 0, "LINE_DIR5": 0, "LINE_DIR6": 0, "LINE_DIR7": 0, "LINE_DIR8": 0, "LINE_DIR9": 0, "LINE_DIR10": 0, "LINE_DIR11": 0, "LINE_DIR12": 0, "LINE_DIR13": 0, "LINE_DIR14": 0, "layer_id": "bus_stops", "feature_name": "Bus Stop", "heat_layer": 1.9144, "index_right": 1425, "socioeconomic_layer": 4.2907955447235571, "heat_socio_layer": 6.2051955447235567 }, "geometry": { "type": "Point", "coordinates": [ -13162383.084229938685894, 4036616.990944929886609 ] } },
{ "type": "Feature", "properties": { "STOPNUM": 8028, "STOPNAME": "Sunset / Alvarado", "LAT": 34.077443, "LONG": -118.263769, "LINE_DIR1": "2-E", "LINE_DIR2": "4-E", "LINE_DIR3": 0, "LINE_DIR4": 0, "LINE_DIR5": 0, "LINE_DIR6": 0, "LINE_DIR7": 0, "LINE_DIR8": 0, "LINE_DIR9": 0, "LINE_DIR10": 0, "LINE_DIR11": 0, "LINE_DIR12": 0, "LINE_DIR13": 0, "LINE_DIR14": 0, "layer_id": "bus_stops", "feature_name": "Bus Stop", "heat_layer": 1.6512, "index_right": 1261, "socioeconomic_layer": 2.9690946177193887, "heat_socio_layer": 4.6202946177193889 }, "geometry": { "type": "Point", "coordinates": [ -13165062.544373331591487, 4039205.475179770961404 ] } },
{ "type": "Feature", "properties": { "STOPNUM": 8033, "STOPNAME": "Sunset / Coronado", "LAT": 34.079278, "LONG": -118.26885, "LINE_DIR1": "2-E", "LINE_DIR2": "93-N", "LINE_DIR3": 0, "LINE_DIR4": 0, "LINE_DIR5": 0, "LINE_DIR6": 0, "LINE_DIR7": 0, "LINE_DIR8": 0, "LINE_DIR9": 0, "LINE_DIR10": 0, "LINE_DIR11": 0, "LINE_DIR12": 0, "LINE_DIR13": 0, "LINE_DIR14": 0, "layer_id": "bus_stops", "feature_name": "Bus Stop", "heat_layer": 1.6512, "index_right": 1261, "socioeconomic_layer": 2.9690946177193887, "heat_socio_layer": 4.6202946177193889 }, "geometry": { "type": "Point", "coordinates": [ -13165628.158706054091454, 4039452.098585108295083 ] } },
{ "type": "Feature", "properties": { "STOPNUM": 3414, "STOPNAME": "Broadway / Bishops", "LAT": 34.068657, "LONG": -118.233357, "LINE_DIR1": "45-N", "LINE_DIR2": null, "LINE_DIR3": 0, "LINE_DIR4": 0, "LINE_DIR5": 0, "LINE_DIR6": 0, "LINE_DIR7": 0, "LINE_DIR8": 0, "LINE_DIR9": 0, "LINE_DIR10": 0, "LINE_DIR11": 0, "LINE_DIR12": 0, "LINE_DIR13": 0, "LINE_DIR14": 0, "layer_id": "bus_stops", "feature_name": "Bus Stop", "heat_layer": 1.3642, "index_right": 1406, "socioeconomic_layer": 3.2420790417442666, "heat_socio_layer": 4.6062790417442665 }, "geometry": { "type": "Point", "coordinates": [ -13161677.096019325777888, 4038024.713655824307352 ] } },
{ "type": "Feature", "properties": { "STOPNUM": 17107, "STOPNAME": "23rd / Scarff", "LAT": 34.033376, "LONG": -118.279621, "LINE_DIR1": "93-N", "LINE_DIR2": null, "LINE_DIR3": 0, "LINE_DIR4": 0, "LINE_DIR5": 0, "LINE_DIR6": 0, "LINE_DIR7": 0, "LINE_DIR8": 0, "LINE_DIR9": 0, "LINE_DIR10": 0, "LINE_DIR11": 0, "LINE_DIR12": 0, "LINE_DIR13": 0, "LINE_DIR14": 0, "layer_id": "bus_stops", "feature_name": "Bus Stop", "heat_layer": 1.2426, "index_right": 1818, "socioeconomic_layer": 3.3345767925953593, "heat_socio_layer": 4.5771767925953597 }, "geometry": { "type": "Point", "coordinates": [ -13166827.180941386148334, 4033284.488411262631416 ] } },
{ "type": "Feature", "properties": { "STOPNUM": 17129, "STOPNAME": "Coronado / Bellevue", "LAT": 34.075208, "LONG": -118.271694, "LINE_DIR1": "93-S", "LINE_DIR2": null, "LINE_DIR3": 0, "LINE_DIR4": 0, "LINE_DIR5": 0, "LINE_DIR6": 0, "LINE_DIR7": 0, "LINE_DIR8": 0, "LINE_DIR9": 0, "LINE_DIR10": 0, "LINE_DIR11": 0, "LINE_DIR12": 0, "LINE_DIR13": 0, "LINE_DIR14": 0, "layer_id": "bus_stops", "feature_name": "Bus Stop", "heat_layer": 1.1836, "index_right": 1270, "socioeconomic_layer": 2.8128621352099485, "heat_socio_layer": 3.9964621352099483 }, "geometry": { "type": "Point", "coordinates": [ -13165944.751337869092822, 4038905.099121164064854 ] } },
{ "type": "Feature", "properties": { "STOPNUM": 15636, "STOPNAME": "3rd / Grand View", "LAT": 34.063949, "LONG": -118.27446, "LINE_DIR1": "16-W", "LINE_DIR2": null, "LINE_DIR3": 0, "LINE_DIR4": 0, "LINE_DIR5": 0, "LINE_DIR6": 0, "LINE_DIR7": 0, "LINE_DIR8": 0, "LINE_DIR9": 0, "LINE_DIR10": 0, "LINE_DIR11": 0, "LINE_DIR12": 0, "LINE_DIR13": 0, "LINE_DIR14": 0, "layer_id": "bus_stops", "feature_name": "Bus Stop", "heat_layer": 1.1236, "index_right": 1463, "socioeconomic_layer": 4.1265311828514779, "heat_socio_layer": 5.2501311828514776 }, "geometry": { "type": "Point", "coordinates": [ -13166252.661049403250217, 4037392.050036253407598 ] } },
{ "type": "Feature", "properties": { "STOPNUM": 15721, "STOPNAME": "6th / Park View", "LAT": 34.061184, "LONG": -118.278281, "LINE_DIR1": "18-W", "LINE_DIR2": "93-N", "LINE_DIR3": 0, "LINE_DIR4": 0, "LINE_DIR5": 0, "LINE_DIR6": 0, "LINE_DIR7": 0, "LINE_DIR8": 0, "LINE_DIR9": 0, "LINE_DIR10": 0, "LINE_DIR11": 0, "LINE_DIR12": 0, "LINE_DIR13": 0, "LINE_DIR14": 0, "layer_id": "bus_stops", "feature_name": "Bus Stop", "heat_layer": 1.0804, "index_right": 1476, "socioeconomic_layer": 3.4381239634772451, "heat_socio_layer": 4.5185239634772447 }, "geometry": { "type": "Point", "coordinates": [ -13166678.012823726981878, 4037020.504204836674035 ] } },
{ "type": "Feature", "properties": { "STOPNUM": 2150, "STOPNAME": "Flower / Venice", "LAT": 34.037151, "LONG": -118.268837, "LINE_DIR1": "460-E", "LINE_DIR2": null, "LINE_DIR3": 0, "LINE_DIR4": 0, "LINE_DIR5": 0, "LINE_DIR6": 0, "LINE_DIR7": 0, "LINE_DIR8": 0, "LINE_DIR9": 0, "LINE_DIR10": 0, "LINE_DIR11": 0, "LINE_DIR12": 0, "LINE_DIR13": 0, "LINE_DIR14": 0, "layer_id": "bus_stops", "feature_name": "Bus Stop", "heat_layer": 1.8752, "index_right": 1809, "socioeconomic_layer": 3.2906005355624188, "heat_socio_layer": 5.1658005355624184 }, "geometry": { "type": "Point", "coordinates": [ -13165626.711552672088146, 4033791.589291709475219 ] } },
{ "type": "Feature", "properties": { "STOPNUM": 3692, "STOPNAME": "Figueroa / 30th", "LAT": 34.025233, "LONG": -118.277688, "LINE_DIR1": "81-N", "LINE_DIR2": null, "LINE_DIR3": 0, "LINE_DIR4": 0, "LINE_DIR5": 0, "LINE_DIR6": 0, "LINE_DIR7": 0, "LINE_DIR8": 0, "LINE_DIR9": 0, "LINE_DIR10": 0, "LINE_DIR11": 0, "LINE_DIR12": 0, "LINE_DIR13": 0, "LINE_DIR14": 0, "layer_id": "bus_stops", "feature_name": "Bus Stop", "heat_layer": 0.8752, "index_right": 1825, "socioeconomic_layer": 3.700850923195929, "heat_socio_layer": 4.576050923195929 }, "geometry": { "type": "Point", "coordinates": [ -13166612.000365681946278, 4032190.704979825764894 ] } },
{ "type": "Feature", "properties": { "STOPNUM": 7847, "STOPNAME": "Olympic / Blaine", "LAT": 34.047304, "LONG": -118.270299, "LINE_DIR1": "28-E", "LINE_DIR2": null, "LINE_DIR3": 0, "LINE_DIR4": 0, "LINE_DIR5": 0, "LINE_DIR6": 0, "LINE_DIR7": 0, "LINE_DIR8": 0, "LINE_DIR9": 0, "LINE_DIR10": 0, "LINE_DIR11": 0, "LINE_DIR12": 0, "LINE_DIR13": 0, "LINE_DIR14": 0, "layer_id": "bus_stops", "feature_name": "Bus Stop", "heat_layer": 2.9156, "index_right": 1509, "socioeconomic_layer": 3.8215264606193373, "heat_socio_layer": 6.7371264606193373 }, "geometry": { "type": "Point", "coordinates": [ -13165789.460648212581873, 4035155.56756473518908 ] } },
{ "type": "Feature", "properties": { "STOPNUM": 8086, "STOPNAME": "Temple / Edgeware", "LAT": 34.066403, "LONG": -118.254502, "LINE_DIR1": "10-E", "LINE_DIR2": "92-S", "LINE_DIR3": 0, "LINE_DIR4": 0, "LINE_DIR5": 0, "LINE_DIR6": 0, "LINE_DIR7": 0, "LINE_DIR8": 0, "LINE_DIR9": 0, "LINE_DIR10": 0, "LINE_DIR11": 0, "LINE_DIR12": 0, "LINE_DIR13": 0, "LINE_DIR14": 0, "layer_id": "bus_stops", "feature_name": "Bus Stop", "heat_layer": 0.7842, "index_right": 1450, "socioeconomic_layer": 4.2847957654919329, "heat_socio_layer": 5.0689957654919331 }, "geometry": { "type": "Point", "coordinates": [ -13164030.94665215164423, 4037721.815514674875885 ] } },
{ "type": "Feature", "properties": { "STOPNUM": 2422, "STOPNAME": "Sunset / Vin Scully - Dodger Stadium", "LAT": 34.072623, "LONG": -118.250922, "LINE_DIR1": "4-W", "LINE_DIR2": null, "LINE_DIR3": 0, "LINE_DIR4": 0, "LINE_DIR5": 0, "LINE_DIR6": 0, "LINE_DIR7": 0, "LINE_DIR8": 0, "LINE_DIR9": 0, "LINE_DIR10": 0, "LINE_DIR11": 0, "LINE_DIR12": 0, "LINE_DIR13": 0, "LINE_DIR14": 0, "layer_id": "bus_stops", "feature_name": "Bus Stop", "heat_layer": 0.7626, "index_right": 1293, "socioeconomic_layer": 3.4018008819116576, "heat_socio_layer": 4.1644008819116571 }, "geometry": { "type": "Point", "coordinates": [ -13163632.422875111922622, 4038557.694190588314086 ] } },
{ "type": "Feature", "properties": { "STOPNUM": 7455, "STOPNAME": "Adams / Chester", "LAT": 34.029264, "LONG": -118.278713, "LINE_DIR1": "14-N", "LINE_DIR2": null, "LINE_DIR3": 0, "LINE_DIR4": 0, "LINE_DIR5": 0, "LINE_DIR6": 0, "LINE_DIR7": 0, "LINE_DIR8": 0, "LINE_DIR9": 0, "LINE_DIR10": 0, "LINE_DIR11": 0, "LINE_DIR12": 0, "LINE_DIR13": 0, "LINE_DIR14": 0, "layer_id": "bus_stops", "feature_name": "Bus Stop", "heat_layer": 0.578, "index_right": 1824, "socioeconomic_layer": 3.2453194704619666, "heat_socio_layer": 3.8233194704619664 }, "geometry": { "type": "Point", "coordinates": [ -13166726.102843746542931, 4032732.143537825904787 ] } },
{ "type": "Feature", "properties": { "STOPNUM": 652, "STOPNAME": "Cesar E Chavez / Vignes", "LAT": 34.056569, "LONG": -118.232191, "LINE_DIR1": "33-E", "LINE_DIR2": "40-N", "LINE_DIR3": 0, "LINE_DIR4": 0, "LINE_DIR5": 0, "LINE_DIR6": 0, "LINE_DIR7": 0, "LINE_DIR8": 0, "LINE_DIR9": 0, "LINE_DIR10": 0, "LINE_DIR11": 0, "LINE_DIR12": 0, "LINE_DIR13": 0, "LINE_DIR14": 0, "layer_id": "bus_stops", "feature_name": "Bus Stop", "heat_layer": 0.563, "index_right": 1408, "socioeconomic_layer": 2.7759465506022822, "heat_socio_layer": 3.338946550602282 }, "geometry": { "type": "Point", "coordinates": [ -13161547.297493062913418, 4036400.392321408260614 ] } },
{ "type": "Feature", "properties": { "STOPNUM": 7341, "STOPNAME": "6th / Lucas", "LAT": 34.054701, "LONG": -118.263994, "LINE_DIR1": "18-E", "LINE_DIR2": null, "LINE_DIR3": 0, "LINE_DIR4": 0, "LINE_DIR5": 0, "LINE_DIR6": 0, "LINE_DIR7": 0, "LINE_DIR8": 0, "LINE_DIR9": 0, "LINE_DIR10": 0, "LINE_DIR11": 0, "LINE_DIR12": 0, "LINE_DIR13": 0, "LINE_DIR14": 0, "layer_id": "bus_stops", "feature_name": "Bus Stop", "heat_layer": 2.2414, "index_right": 1488, "socioeconomic_layer": 3.7082149720659903, "heat_socio_layer": 5.9496149720659908 }, "geometry": { "type": "Point", "coordinates": [ -13165087.591258758679032, 4036149.401053883135319 ] } },
{ "type": "Feature", "properties": { "STOPNUM": 16304, "STOPNAME": "Sunset / Echo Park", "LAT": 34.077066, "LONG": -118.257708, "LINE_DIR1": "4-W", "LINE_DIR2": null, "LINE_DIR3": 0, "LINE_DIR4": 0, "LINE_DIR5": 0, "LINE_DIR6": 0, "LINE_DIR7": 0, "LINE_DIR8": 0, "LINE_DIR9": 0, "LINE_DIR10": 0, "LINE_DIR11": 0, "LINE_DIR12": 0, "LINE_DIR13": 0, "LINE_DIR14": 0, "layer_id": "bus_stops", "feature_name": "Bus Stop", "heat_layer": 0.477, "index_right": 1287, "socioeconomic_layer": 2.9069662898521949, "heat_socio_layer": 3.3839662898521947 }, "geometry": { "type": "Point", "coordinates": [ -13164387.836939632892609, 4039154.807163598015904 ] } },
{ "type": "Feature", "properties": { "STOPNUM": 5259, "STOPNAME": "Main / 3rd", "LAT": 34.049268, "LONG": -118.245923, "LINE_DIR1": "92-N", "LINE_DIR2": "33-E", "LINE_DIR3": 0, "LINE_DIR4": 0, "LINE_DIR5": 0, "LINE_DIR6": 0, "LINE_DIR7": 0, "LINE_DIR8": 0, "LINE_DIR9": 0, "LINE_DIR10": 0, "LINE_DIR11": 0, "LINE_DIR12": 0, "LINE_DIR13": 0, "LINE_DIR14": 0, "layer_id": "bus_stops", "feature_name": "Bus Stop", "heat_layer": 0.3176, "index_right": 1433, "socioeconomic_layer": 2.6055945652495152, "heat_socio_layer": 2.9231945652495153 }, "geometry": { "type": "Point", "coordinates": [ -13163075.936740636825562, 4035419.434866844210774 ] } },
{ "type": "Feature", "properties": { "STOPNUM": 15291, "STOPNAME": "Venice / Oak", "LAT": 34.039942, "LONG": -118.275332, "LINE_DIR1": "33-W", "LINE_DIR2": null, "LINE_DIR3": 0, "LINE_DIR4": 0, "LINE_DIR5": 0, "LINE_DIR6": 0, "LINE_DIR7": 0, "LINE_DIR8": 0, "LINE_DIR9": 0, "LINE_DIR10": 0, "LINE_DIR11": 0, "LINE_DIR12": 0, "LINE_DIR13": 0, "LINE_DIR14": 0, "layer_id": "bus_stops", "feature_name": "Bus Stop", "heat_layer": 2.9798, "index_right": 1812, "socioeconomic_layer": 4.0394536030550583, "heat_socio_layer": 7.0192536030550583 }, "geometry": { "type": "Point", "coordinates": [ -13166349.731645375490189, 4034166.522625357843935 ] } },
{ "type": "Feature", "properties": { "STOPNUM": 9029, "STOPNAME": "Beverly / Park View", "LAT": 34.068263, "LONG": -118.273609, "LINE_DIR1": "14-N", "LINE_DIR2": null, "LINE_DIR3": 0, "LINE_DIR4": 0, "LINE_DIR5": 0, "LINE_DIR6": 0, "LINE_DIR7": 0, "LINE_DIR8": 0, "LINE_DIR9": 0, "LINE_DIR10": 0, "LINE_DIR11": 0, "LINE_DIR12": 0, "LINE_DIR13": 0, "LINE_DIR14": 0, "layer_id": "bus_stops", "feature_name": "Bus Stop", "heat_layer": 2.5966, "index_right": 1461, "socioeconomic_layer": 3.1957387974938483, "heat_socio_layer": 5.7923387974938478 }, "geometry": { "type": "Point", "coordinates": [ -13166157.928162736818194, 4037971.766372086014599 ] } },
{ "type": "Feature", "properties": { "STOPNUM": 3426, "STOPNAME": "Broadway / Solano", "LAT": 34.070826, "LONG": -118.230143, "LINE_DIR1": "45-N", "LINE_DIR2": null, "LINE_DIR3": 0, "LINE_DIR4": 0, "LINE_DIR5": 0, "LINE_DIR6": 0, "LINE_DIR7": 0, "LINE_DIR8": 0, "LINE_DIR9": 0, "LINE_DIR10": 0, "LINE_DIR11": 0, "LINE_DIR12": 0, "LINE_DIR13": 0, "LINE_DIR14": 0, "layer_id": "bus_stops", "feature_name": "Bus Stop", "heat_layer": 1.3642, "index_right": 1406, "socioeconomic_layer": 3.2420790417442666, "heat_socio_layer": 4.6062790417442665 }, "geometry": { "type": "Point", "coordinates": [ -13161319.315175918862224, 4038316.196893183048815 ] } },
{ "type": "Feature", "properties": { "STOPNUM": 10752, "STOPNAME": "Glendale / Santa Ynez", "LAT": 34.074535, "LONG": -118.261788, "LINE_DIR1": "92-S", "LINE_DIR2": null, "LINE_DIR3": 0, "LINE_DIR4": 0, "LINE_DIR5": 0, "LINE_DIR6": 0, "LINE_DIR7": 0, "LINE_DIR8": 0, "LINE_DIR9": 0, "LINE_DIR10": 0, "LINE_DIR11": 0, "LINE_DIR12": 0, "LINE_DIR13": 0, "LINE_DIR14": 0, "layer_id": "bus_stops", "feature_name": "Bus Stop", "heat_layer": 1.5778, "index_right": 1264, "socioeconomic_layer": 3.2960642885673854, "heat_socio_layer": 4.8738642885673853 }, "geometry": { "type": "Point", "coordinates": [ -13164842.020462069660425, 4038814.651865087915212 ] } },
{ "type": "Feature", "properties": { "STOPNUM": 7257, "STOPNAME": "1st / Beaudry", "LAT": 34.059407, "LONG": -118.254342, "LINE_DIR1": "14-N", "LINE_DIR2": null, "LINE_DIR3": 0, "LINE_DIR4": 0, "LINE_DIR5": 0, "LINE_DIR6": 0, "LINE_DIR7": 0, "LINE_DIR8": 0, "LINE_DIR9": 0, "LINE_DIR10": 0, "LINE_DIR11": 0, "LINE_DIR12": 0, "LINE_DIR13": 0, "LINE_DIR14": 0, "layer_id": "bus_stops", "feature_name": "Bus Stop", "heat_layer": -0.4378, "index_right": 1449, "socioeconomic_layer": 3.1568272837891498, "heat_socio_layer": 2.7190272837891496 }, "geometry": { "type": "Point", "coordinates": [ -13164013.13553362339735, 4036781.726899145636708 ] } },
{ "type": "Feature", "properties": { "STOPNUM": 15628, "STOPNAME": "3rd / Bixel", "LAT": 34.057785, "LONG": -118.260009, "LINE_DIR1": "16-W", "LINE_DIR2": null, "LINE_DIR3": 0, "LINE_DIR4": 0, "LINE_DIR5": 0, "LINE_DIR6": 0, "LINE_DIR7": 0, "LINE_DIR8": 0, "LINE_DIR9": 0, "LINE_DIR10": 0, "LINE_DIR11": 0, "LINE_DIR12": 0, "LINE_DIR13": 0, "LINE_DIR14": 0, "layer_id": "bus_stops", "feature_name": "Bus Stop", "heat_layer": -0.4378, "index_right": 1449, "socioeconomic_layer": 3.1568272837891498, "heat_socio_layer": 2.7190272837891496 }, "geometry": { "type": "Point", "coordinates": [ -13164643.983087949454784, 4036563.781472116243094 ] } },
{ "type": "Feature", "properties": { "STOPNUM": 17262, "STOPNAME": "Jefferson / Figueroa", "LAT": 34.021952, "LONG": -118.279699, "LINE_DIR1": "35-S", "LINE_DIR2": null, "LINE_DIR3": 0, "LINE_DIR4": 0, "LINE_DIR5": 0, "LINE_DIR6": 0, "LINE_DIR7": 0, "LINE_DIR8": 0, "LINE_DIR9": 0, "LINE_DIR10": 0, "LINE_DIR11": 0, "LINE_DIR12": 0, "LINE_DIR13": 0, "LINE_DIR14": 0, "layer_id": "bus_stops", "feature_name": "Bus Stop", "heat_layer": 0.8752, "index_right": 1825, "socioeconomic_layer": 3.700850923195929, "heat_socio_layer": 4.576050923195929 }, "geometry": { "type": "Point", "coordinates": [ -13166835.863861668854952, 4031750.024409643374383 ] } },
{ "type": "Feature", "properties": { "STOPNUM": 8087, "STOPNAME": "Temple / Glendale", "LAT": 34.067962, "LONG": -118.260576, "LINE_DIR1": "10-E", "LINE_DIR2": null, "LINE_DIR3": 0, "LINE_DIR4": 0, "LINE_DIR5": 0, "LINE_DIR6": 0, "LINE_DIR7": 0, "LINE_DIR8": 0, "LINE_DIR9": 0, "LINE_DIR10": 0, "LINE_DIR11": 0, "LINE_DIR12": 0, "LINE_DIR13": 0, "LINE_DIR14": 0, "layer_id": "bus_stops", "feature_name": "Bus Stop", "heat_layer": -0.7708, "index_right": 1451, "socioeconomic_layer": 3.8650799580144048, "heat_socio_layer": 3.0942799580144049 }, "geometry": { "type": "Point", "coordinates": [ -13164707.10123923048377, 4037931.316963354125619 ] } },
{ "type": "Feature", "properties": { "STOPNUM": 7422, "STOPNAME": "8th / Burlington", "LAT": 34.053186, "LONG": -118.274319, "LINE_DIR1": "66-E", "LINE_DIR2": null, "LINE_DIR3": 0, "LINE_DIR4": 0, "LINE_DIR5": 0, "LINE_DIR6": 0, "LINE_DIR7": 0, "LINE_DIR8": 0, "LINE_DIR9": 0, "LINE_DIR10": 0, "LINE_DIR11": 0, "LINE_DIR12": 0, "LINE_DIR13": 0, "LINE_DIR14": 0, "layer_id": "bus_stops", "feature_name": "Bus Stop", "heat_layer": 4.5312, "index_right": 1499, "socioeconomic_layer": 4.4017347385864394, "heat_socio_layer": 8.9329347385864395 }, "geometry": { "type": "Point", "coordinates": [ -13166236.96500120125711, 4035945.844210851471871 ] } },
{ "type": "Feature", "properties": { "STOPNUM": 13474, "STOPNAME": "Figueroa / Pico", "LAT": 34.040474, "LONG": -118.268313, "LINE_DIR1": "81-S", "LINE_DIR2": null, "LINE_DIR3": 0, "LINE_DIR4": 0, "LINE_DIR5": 0, "LINE_DIR6": 0, "LINE_DIR7": 0, "LINE_DIR8": 0, "LINE_DIR9": 0, "LINE_DIR10": 0, "LINE_DIR11": 0, "LINE_DIR12": 0, "LINE_DIR13": 0, "LINE_DIR14": 0, "layer_id": "bus_stops", "feature_name": "Bus Stop", "heat_layer": 1.8752, "index_right": 1809, "socioeconomic_layer": 3.2906005355624188, "heat_socio_layer": 5.1658005355624184 }, "geometry": { "type": "Point", "coordinates": [ -13165568.38013949804008, 4034237.991074222605675 ] } },
{ "type": "Feature", "properties": { "STOPNUM": 14257, "STOPNAME": "San Pedro / 16th", "LAT": 34.029636, "LONG": -118.255942, "LINE_DIR1": "51-N", "LINE_DIR2": null, "LINE_DIR3": 0, "LINE_DIR4": 0, "LINE_DIR5": 0, "LINE_DIR6": 0, "LINE_DIR7": 0, "LINE_DIR8": 0, "LINE_DIR9": 0, "LINE_DIR10": 0, "LINE_DIR11": 0, "LINE_DIR12": 0, "LINE_DIR13": 0, "LINE_DIR14": 0, "layer_id": "bus_stops", "feature_name": "Bus Stop", "heat_layer": 7.4758, "index_right": 1827, "socioeconomic_layer": 2.8409808997107788, "heat_socio_layer": 10.316780899710778 }, "geometry": { "type": "Point", "coordinates": [ -13164191.246718894690275, 4032782.111379355657846 ] } },
{ "type": "Feature", "properties": { "STOPNUM": 8992, "STOPNAME": "Beverly / Belmont", "LAT": 34.06323, "LONG": -118.262961, "LINE_DIR1": "14-S", "LINE_DIR2": null, "LINE_DIR3": 0, "LINE_DIR4": 0, "LINE_DIR5": 0, "LINE_DIR6": 0, "LINE_DIR7": 0, "LINE_DIR8": 0, "LINE_DIR9": 0, "LINE_DIR10": 0, "LINE_DIR11": 0, "LINE_DIR12": 0, "LINE_DIR13": 0, "LINE_DIR14": 0, "layer_id": "bus_stops", "feature_name": "Bus Stop", "heat_layer": 2.5358, "index_right": 1455, "socioeconomic_layer": 4.087530456134747, "heat_socio_layer": 6.623330456134747 }, "geometry": { "type": "Point", "coordinates": [ -13164972.598224772140384, 4037295.433516312856227 ] } },
{ "type": "Feature", "properties": { "STOPNUM": 1131, "STOPNAME": "Main / 11th", "LAT": 34.038897, "LONG": -118.258109, "LINE_DIR1": "10-W", "LINE_DIR2": "55-N", "LINE_DIR3": 0, "LINE_DIR4": 0, "LINE_DIR5": 0, "LINE_DIR6": 0, "LINE_DIR7": 0, "LINE_DIR8": 0, "LINE_DIR9": 0, "LINE_DIR10": 0, "LINE_DIR11": 0, "LINE_DIR12": 0, "LINE_DIR13": 0, "LINE_DIR14": 0, "layer_id": "bus_stops", "feature_name": "Bus Stop", "heat_layer": 2.222, "index_right": 1447, "socioeconomic_layer": 2.8582636218966657, "heat_socio_layer": 5.0802636218966661 }, "geometry": { "type": "Point", "coordinates": [ -13164432.476055441424251, 4034026.13947729812935 ] } },
{ "type": "Feature", "properties": { "STOPNUM": 3780, "STOPNAME": "Main / Vignes", "LAT": 34.061097, "LONG": -118.235218, "LINE_DIR1": "76-E", "LINE_DIR2": null, "LINE_DIR3": 0, "LINE_DIR4": 0, "LINE_DIR5": 0, "LINE_DIR6": 0, "LINE_DIR7": 0, "LINE_DIR8": 0, "LINE_DIR9": 0, "LINE_DIR10": 0, "LINE_DIR11": 0, "LINE_DIR12": 0, "LINE_DIR13": 0, "LINE_DIR14": 0, "layer_id": "bus_stops", "feature_name": "Bus Stop", "heat_layer": 0.563, "index_right": 1408, "socioeconomic_layer": 2.7759465506022822, "heat_socio_layer": 3.338946550602282 }, "geometry": { "type": "Point", "coordinates": [ -13161884.261591693386436, 4037008.813809385057539 ] } },
{ "type": "Feature", "properties": { "STOPNUM": 9754, "STOPNAME": "7th / Alameda", "LAT": 34.034977, "LONG": -118.238801, "LINE_DIR1": "60-S", "LINE_DIR2": "62-S", "LINE_DIR3": 0, "LINE_DIR4": 0, "LINE_DIR5": 0, "LINE_DIR6": 0, "LINE_DIR7": 0, "LINE_DIR8": 0, "LINE_DIR9": 0, "LINE_DIR10": 0, "LINE_DIR11": 0, "LINE_DIR12": 0, "LINE_DIR13": 0, "LINE_DIR14": 0, "layer_id": "bus_stops", "feature_name": "Bus Stop", "heat_layer": 7.5664, "index_right": 1828, "socioeconomic_layer": 3.8850682986319809, "heat_socio_layer": 11.45146829863198 }, "geometry": { "type": "Point", "coordinates": [ -13162283.119327204301953, 4033499.550161380320787 ] } },
{ "type": "Feature", "properties": { "STOPNUM": 8024, "STOPNAME": "Sunset / Marion", "LAT": 34.068285, "LONG": -118.250364, "LINE_DIR1": "4-E", "LINE_DIR2": null, "LINE_DIR3": 0, "LINE_DIR4": 0, "LINE_DIR5": 0, "LINE_DIR6": 0, "LINE_DIR7": 0, "LINE_DIR8": 0, "LINE_DIR9": 0, "LINE_DIR10": 0, "LINE_DIR11": 0, "LINE_DIR12": 0, "LINE_DIR13": 0, "LINE_DIR14": 0, "layer_id": "bus_stops", "feature_name": "Bus Stop", "heat_layer": -0.1498, "index_right": 1292, "socioeconomic_layer": 2.7289162493880514, "heat_socio_layer": 2.5791162493880515 }, "geometry": { "type": "Point", "coordinates": [ -13163570.3065992500633, 4037974.722812911961228 ] } },
{ "type": "Feature", "properties": { "STOPNUM": 5585, "STOPNAME": "6th / Spring", "LAT": 34.045711, "LONG": -118.250749, "LINE_DIR1": "16-E", "LINE_DIR2": "60-S", "LINE_DIR3": 0, "LINE_DIR4": 0, "LINE_DIR5": 0, "LINE_DIR6": 0, "LINE_DIR7": 0, "LINE_DIR8": 0, "LINE_DIR9": 0, "LINE_DIR10": 0, "LINE_DIR11": 0, "LINE_DIR12": 0, "LINE_DIR13": 0, "LINE_DIR14": 0, "layer_id": "bus_stops", "feature_name": "Bus Stop", "heat_layer": -2.2382, "index_right": 1436, "socioeconomic_layer": 2.3911429839274474, "heat_socio_layer": 0.15294298392744743 }, "geometry": { "type": "Point", "coordinates": [ -13163613.164603205397725, 4034941.549338731914759 ] } }
]
}
