{
"type": "FeatureCollection",
"name": "optimized_shades_Greedy_Inglewood_20",
"crs": { "type": "name", "properties": { "name": "urn:ogc:def:crs:EPSG::3857" } },
"features": [
{ "type": "Feature", "properties": { "id": "6029", "STOPNUM": 9939, "STOPNAME": "Florence / Centinela", "LAT": 33.96969, "LONG": -118.347672, "LINE_DIR1": "40-S", "LINE_DIR2": "111-W", "LINE_DIR3": 0, "LINE_DIR4": 0, "LINE_DIR5": 0, "LINE_DIR6": 0, "LINE_DIR7": 0, "LINE_DIR8": 0, "LINE_DIR9": 0, "LINE_DIR10": 0, "LINE_DIR11": 0, "LINE_DIR12": 0, "LINE_DIR13": 0, "LINE_DIR14": 0, "layer_id": "bus_stops", "feature_name": "Bus Stop", "heat_layer": 0.568, "index_right": 5515, "socioeconomic_layer": 3.1041650197974633, "heat_socio_layer": 3.6721650197974633, "heat_socio_public_layer": 1.6420424336645718 }, "geometry": { "type": "Point", "coordinates": [ -13174402.58360935933888, 4024732.859423676505685 ] } },
{ "type": "Feature", "properties": { "id": "6108", "STOPNUM": 10102, "STOPNAME": "Manchester / Grevillea", "LAT": 33.96188, "LONG": -118.355366, "LINE_DIR1": "211-N", "LINE_DIR2": "115-W", "LINE_DIR3": 0, "LINE_DIR4": 0, "LINE_DIR5": 0, "LINE_DIR6": 0, "LINE_DIR7": 0, "LINE_DIR8": 0, "LINE_DIR9": 0, "LINE_DIR10": 0, "LINE_DIR11": 0, "LINE_DIR12": 0, "LINE_DIR13": 0, "LINE_DIR14": 0, "layer_id": "bus_stops", "feature_name": "Bus Stop", "heat_layer": 1.0606, "index_right": 5526, "socioeconomic_layer": 3.5260084255488744, "heat_socio_layer": 4.5866084255488744, "heat_socio_public_layer": 1.3907456594624927 }, "geometry": { "type": "Point", "coordinates": [ -13175259.075771525502205, 4023684.589285897091031 ] } },
{ "type": "Feature", "properties": { "id": "11370", "STOPNUM": 140974, "STOPNAME": "La Brea / Plymouth", "LAT": 33.974401, "LONG": -118.357487, "LINE_DIR1": "212-N", "LINE_DIR2": null, "LINE_DIR3": 0, "LINE_DIR4": 0, "LINE_DIR5": 0, "LINE_DIR6": 0, "LINE_DIR7": 0, "LINE_DIR8": 0, "LINE_DIR9": 0, "LINE_DIR10": 0, "LINE_DIR11": 0, "LINE_DIR12": 0, "LINE_DIR13": 0, "LINE_DIR14": 0, "layer_id": "bus_stops", "feature_name": "Bus Stop", "heat_layer": 4.281, "index_right": 5509, "socioeconomic_layer": 3.9128556664994685, "heat_socio_layer": 8.1938556664994682, "heat_socio_public_layer": 1.4502605523883068 }, "geometry": { "type": "Point", "coordinates": [ -13175495.184411495923996, 4025365.22359364759177 ] } },
{ "type": "Feature", "properties": { "id": "876", "STOPNUM": 1520, "STOPNAME": "La Brea / Market", "LAT": 33.957338, "LONG": -118.352418, "LINE_DIR1": "40-N", "LINE_DIR2": "111-E", "LINE_DIR3": 0, "LINE_DIR4": 0, "LINE_DIR5": 0, "LINE_DIR6": 0, "LINE_DIR7": 0, "LINE_DIR8": 0, "LINE_DIR9": 0, "LINE_DIR10": 0, "LINE_DIR11": 0, "LINE_DIR12": 0, "LINE_DIR13": 0, "LINE_DIR14": 0, "layer_id": "bus_stops", "feature_name": "Bus Stop", "heat_layer": 2.594, "index_right": 5516, "socioeconomic_layer": 4.1973871381090593, "heat_socio_layer": 6.7913871381090587, "heat_socio_public_layer": 1.004704221423846 }, "geometry": { "type": "Point", "coordinates": [ -13174930.905912665650249, 4023074.999364355579019 ] } },
{ "type": "Feature", "properties": { "id": "5956", "STOPNUM": 9805, "STOPNAME": "Arbor Vitae / Grevillea", "LAT": 33.952807, "LONG": -118.355288, "LINE_DIR1": "111-W", "LINE_DIR2": null, "LINE_DIR3": 0, "LINE_DIR4": 0, "LINE_DIR5": 0, "LINE_DIR6": 0, "LINE_DIR7": 0, "LINE_DIR8": 0, "LINE_DIR9": 0, "LINE_DIR10": 0, "LINE_DIR11": 0, "LINE_DIR12": 0, "LINE_DIR13": 0, "LINE_DIR14": 0, "layer_id": "bus_stops", "feature_name": "Bus Stop", "heat_layer": 6.2296, "index_right": 5530, "socioeconomic_layer": 3.6295974640226141, "heat_socio_layer": 9.8591974640226141, "heat_socio_public_layer": 1.259973640207328 }, "geometry": { "type": "Point", "coordinates": [ -13175250.392851242795587, 4022466.91819603042677 ] } },
{ "type": "Feature", "properties": { "id": "9520", "STOPNUM": 16118, "STOPNAME": "Manchester / Eucalyptus", "LAT": 33.961823, "LONG": -118.359864, "LINE_DIR1": "115-W", "LINE_DIR2": null, "LINE_DIR3": 0, "LINE_DIR4": 0, "LINE_DIR5": 0, "LINE_DIR6": 0, "LINE_DIR7": 0, "LINE_DIR8": 0, "LINE_DIR9": 0, "LINE_DIR10": 0, "LINE_DIR11": 0, "LINE_DIR12": 0, "LINE_DIR13": 0, "LINE_DIR14": 0, "layer_id": "bus_stops", "feature_name": "Bus Stop", "heat_layer": 3.3404, "index_right": 5527, "socioeconomic_layer": 3.7653596543338672, "heat_socio_layer": 7.105759654333867, "heat_socio_public_layer": 1.0866679236266992 }, "geometry": { "type": "Point", "coordinates": [ -13175759.790841113775969, 4023676.93901256704703 ] } },
{ "type": "Feature", "properties": { "id": "4697", "STOPNUM": 7563, "STOPNAME": "Century / La Cienega", "LAT": 33.945292, "LONG": -118.36972, "LINE_DIR1": "117-E", "LINE_DIR2": null, "LINE_DIR3": 0, "LINE_DIR4": 0, "LINE_DIR5": 0, "LINE_DIR6": 0, "LINE_DIR7": 0, "LINE_DIR8": 0, "LINE_DIR9": 0, "LINE_DIR10": 0, "LINE_DIR11": 0, "LINE_DIR12": 0, "LINE_DIR13": 0, "LINE_DIR14": 0, "layer_id": "bus_stops", "feature_name": "Bus Stop", "heat_layer": 1.8296, "index_right": 5549, "socioeconomic_layer": 4.1307137070309619, "heat_socio_layer": 5.960313707030962, "heat_socio_public_layer": 0.95918305795594883 }, "geometry": { "type": "Point", "coordinates": [ -13176856.955742370337248, 4021458.44179732631892 ] } },
{ "type": "Feature", "properties": { "id": "11414", "STOPNUM": 141076, "STOPNAME": "Eucalyptus / Spruce", "LAT": 33.955111, "LONG": -118.35936, "LINE_DIR1": "211-S", "LINE_DIR2": null, "LINE_DIR3": 0, "LINE_DIR4": 0, "LINE_DIR5": 0, "LINE_DIR6": 0, "LINE_DIR7": 0, "LINE_DIR8": 0, "LINE_DIR9": 0, "LINE_DIR10": 0, "LINE_DIR11": 0, "LINE_DIR12": 0, "LINE_DIR13": 0, "LINE_DIR14": 0, "layer_id": "bus_stops", "feature_name": "Bus Stop", "heat_layer": 4.3842, "index_right": 5529, "socioeconomic_layer": 3.6964521629114233, "heat_socio_layer": 8.0806521629114236, "heat_socio_public_layer": 1.1180694597128442 }, "geometry": { "type": "Point", "coordinates": [ -13175703.685817752033472, 4022776.121611945796758 ] } },
{ "type": "Feature", "properties": { "id": "862", "STOPNUM": 1494, "STOPNAME": "Hyde Park / Marlborough", "LAT": 33.976495, "LONG": -118.346414, "LINE_DIR1": "110-E", "LINE_DIR2": null, "LINE_DIR3": 0, "LINE_DIR4": 0, "LINE_DIR5": 0, "LINE_DIR6": 0, "LINE_DIR7": 0, "LINE_DIR8": 0, "LINE_DIR9": 0, "LINE_DIR10": 0, "LINE_DIR11": 0, "LINE_DIR12": 0, "LINE_DIR13": 0, "LINE_DIR14": 0, "layer_id": "bus_stops", "feature_name": "Bus Stop", "heat_layer": 1.4354, "index_right": 5506, "socioeconomic_layer": 3.7860659030652521, "heat_socio_layer": 5.2214659030652522, "heat_socio_public_layer": 0.95558260964497466 }, "geometry": { "type": "Point", "coordinates": [ -13174262.54368994012475, 4025646.31541288131848 ] } },
{ "type": "Feature", "properties": { "id": "8182", "STOPNUM": 13987, "STOPNAME": "Van Ness / Cullivan", "LAT": 33.935545, "LONG": -118.317886, "LINE_DIR1": "209-S", "LINE_DIR2": null, "LINE_DIR3": 0, "LINE_DIR4": 0, "LINE_DIR5": 0, "LINE_DIR6": 0, "LINE_DIR7": 0, "LINE_DIR8": 0, "LINE_DIR9": 0, "LINE_DIR10": 0, "LINE_DIR11": 0, "LINE_DIR12": 0, "LINE_DIR13": 0, "LINE_DIR14": 0, "layer_id": "bus_stops", "feature_name": "Bus Stop", "heat_layer": 2.7008, "index_right": 5488, "socioeconomic_layer": 3.5590496682831607, "heat_socio_layer": 6.2598496682831613, "heat_socio_public_layer": 1.0183662940648506 }, "geometry": { "type": "Point", "coordinates": [ -13171086.821256592869759, 4020150.574487787205726 ] } },
{ "type": "Feature", "properties": { "id": "7528", "STOPNUM": 12864, "STOPNAME": "Prairie / Kelso", "LAT": 33.956505, "LONG": -118.344089, "LINE_DIR1": "211-S", "LINE_DIR2": "212-S", "LINE_DIR3": 0, "LINE_DIR4": 0, "LINE_DIR5": 0, "LINE_DIR6": 0, "LINE_DIR7": 0, "LINE_DIR8": 0, "LINE_DIR9": 0, "LINE_DIR10": 0, "LINE_DIR11": 0, "LINE_DIR12": 0, "LINE_DIR13": 0, "LINE_DIR14": 0, "layer_id": "bus_stops", "feature_name": "Bus Stop", "heat_layer": 3.7926, "index_right": 5517, "socioeconomic_layer": 3.21960837866059, "heat_socio_layer": 7.0122083786605902, "heat_socio_public_layer": 1.1115676910448529 }, "geometry": { "type": "Point", "coordinates": [ -13174003.725873848423362, 4022963.204480094835162 ] } },
{ "type": "Feature", "properties": { "id": "11308", "STOPNUM": 140804, "STOPNAME": "Imperial / Yukon", "LAT": 33.931096, "LONG": -118.334985, "LINE_DIR1": "120-W", "LINE_DIR2": null, "LINE_DIR3": 0, "LINE_DIR4": 0, "LINE_DIR5": 0, "LINE_DIR6": 0, "LINE_DIR7": 0, "LINE_DIR8": 0, "LINE_DIR9": 0, "LINE_DIR10": 0, "LINE_DIR11": 0, "LINE_DIR12": 0, "LINE_DIR13": 0, "LINE_DIR14": 0, "layer_id": "bus_stops", "feature_name": "Bus Stop", "heat_layer": 0.4656, "index_right": 5703, "socioeconomic_layer": 3.4470631955011277, "heat_socio_layer": 3.9126631955011275, "heat_socio_public_layer": 0.90945792565060879 }, "geometry": { "type": "Point", "coordinates": [ -13172990.273229666054249, 4019553.650653670541942 ] } },
{ "type": "Feature", "properties": { "id": "8011", "STOPNUM": 13675, "STOPNAME": "La Tijera / Fairview", "LAT": 33.980042, "LONG": -118.369537, "LINE_DIR1": "102-W", "LINE_DIR2": null, "LINE_DIR3": 0, "LINE_DIR4": 0, "LINE_DIR5": 0, "LINE_DIR6": 0, "LINE_DIR7": 0, "LINE_DIR8": 0, "LINE_DIR9": 0, "LINE_DIR10": 0, "LINE_DIR11": 0, "LINE_DIR12": 0, "LINE_DIR13": 0, "LINE_DIR14": 0, "layer_id": "bus_stops", "feature_name": "Bus Stop", "heat_layer": -0.2596, "index_right": 5532, "socioeconomic_layer": 3.3769044908444736, "heat_socio_layer": 3.1173044908444738, "heat_socio_public_layer": 0.85109228953034088 }, "geometry": { "type": "Point", "coordinates": [ -13176836.584275554865599, 4026122.469071069266647 ] } },
{ "type": "Feature", "properties": { "id": "7184", "STOPNUM": 12181, "STOPNAME": "Locust / Grace", "LAT": 33.966596, "LONG": -118.35036, "LINE_DIR1": "211-S", "LINE_DIR2": null, "LINE_DIR3": 0, "LINE_DIR4": 0, "LINE_DIR5": 0, "LINE_DIR6": 0, "LINE_DIR7": 0, "LINE_DIR8": 0, "LINE_DIR9": 0, "LINE_DIR10": 0, "LINE_DIR11": 0, "LINE_DIR12": 0, "LINE_DIR13": 0, "LINE_DIR14": 0, "layer_id": "bus_stops", "feature_name": "Bus Stop", "heat_layer": 0.568, "index_right": 5515, "socioeconomic_layer": 3.1041650197974633, "heat_socio_layer": 3.6721650197974633, "heat_socio_public_layer": 0.92225790186222789 }, "geometry": { "type": "Point", "coordinates": [ -13174701.810400610789657, 4024317.56650118669495 ] } },
{ "type": "Feature", "properties": { "id": "6913", "STOPNUM": 11616, "STOPNAME": "Manchester / Crenshaw Drive", "LAT": 33.960114, "LONG": -118.331981, "LINE_DIR1": "115-W", "LINE_DIR2": null, "LINE_DIR3": 0, "LINE_DIR4": 0, "LINE_DIR5": 0, "LINE_DIR6": 0, "LINE_DIR7": 0, "LINE_DIR8": 0, "LINE_DIR9": 0, "LINE_DIR10": 0, "LINE_DIR11": 0, "LINE_DIR12": 0, "LINE_DIR13": 0, "LINE_DIR14": 0, "layer_id": "bus_stops", "feature_name": "Bus Stop", "heat_layer": -1.0732, "index_right": 5505, "socioeconomic_layer": 3.2406436167291197, "heat_socio_layer": 2.1674436167291198, "heat_socio_public_layer": 0.81819940279916847 }, "geometry": { "type": "Point", "coordinates": [ -13172655.869479320943356, 4023447.567408852279186 ] } },
{ "type": "Feature", "properties": { "id": "2957", "STOPNUM": 4911, "STOPNAME": "Crenshaw / 108th", "LAT": 33.938429, "LONG": -118.326333, "LINE_DIR1": "210-N", "LINE_DIR2": null, "LINE_DIR3": 0, "LINE_DIR4": 0, "LINE_DIR5": 0, "LINE_DIR6": 0, "LINE_DIR7": 0, "LINE_DIR8": 0, "LINE_DIR9": 0, "LINE_DIR10": 0, "LINE_DIR11": 0, "LINE_DIR12": 0, "LINE_DIR13": 0, "LINE_DIR14": 0, "layer_id": "bus_stops", "feature_name": "Bus Stop", "heat_layer": 0.7494, "index_right": 5490, "socioeconomic_layer": 3.1786498710530724, "heat_socio_layer": 3.9280498710530725, "heat_socio_public_layer": 0.88960887997533733 }, "geometry": { "type": "Point", "coordinates": [ -13172027.136995323002338, 4020537.538404308259487 ] } },
{ "type": "Feature", "properties": { "id": "7843", "STOPNUM": 13371, "STOPNAME": "Crenshaw / Arbor Vitae", "LAT": 33.952077, "LONG": -118.326631, "LINE_DIR1": "210-S", "LINE_DIR2": null, "LINE_DIR3": 0, "LINE_DIR4": 0, "LINE_DIR5": 0, "LINE_DIR6": 0, "LINE_DIR7": 0, "LINE_DIR8": 0, "LINE_DIR9": 0, "LINE_DIR10": 0, "LINE_DIR11": 0, "LINE_DIR12": 0, "LINE_DIR13": 0, "LINE_DIR14": 0, "layer_id": "bus_stops", "feature_name": "Bus Stop", "heat_layer": -2.5554, "index_right": 5495, "socioeconomic_layer": 3.3126594142723031, "heat_socio_layer": 0.75725941427230303, "heat_socio_public_layer": 0.69798272683972828 }, "geometry": { "type": "Point", "coordinates": [ -13172060.310203580185771, 4022368.951846342068166 ] } },
{ "type": "Feature", "properties": { "id": "11419", "STOPNUM": 141081, "STOPNAME": "Prairie / Grace", "LAT": 33.967343, "LONG": -118.344093, "LINE_DIR1": "211-S", "LINE_DIR2": null, "LINE_DIR3": 0, "LINE_DIR4": 0, "LINE_DIR5": 0, "LINE_DIR6": 0, "LINE_DIR7": 0, "LINE_DIR8": 0, "LINE_DIR9": 0, "LINE_DIR10": 0, "LINE_DIR11": 0, "LINE_DIR12": 0, "LINE_DIR13": 0, "LINE_DIR14": 0, "layer_id": "bus_stops", "feature_name": "Bus Stop", "heat_layer": 0.568, "index_right": 5515, "socioeconomic_layer": 3.1041650197974633, "heat_socio_layer": 3.6721650197974633, "heat_socio_public_layer": 0.87850134930679369 }, "geometry": { "type": "Point", "coordinates": [ -13174004.17115180939436, 4024417.831379202194512 ] } },
{ "type": "Feature", "properties": { "id": "7846", "STOPNUM": 13375, "STOPNAME": "Crenshaw / Manchester", "LAT": 33.960167, "LONG": -118.326642, "LINE_DIR1": "210-S", "LINE_DIR2": null, "LINE_DIR3": 0, "LINE_DIR4": 0, "LINE_DIR5": 0, "LINE_DIR6": 0, "LINE_DIR7": 0, "LINE_DIR8": 0, "LINE_DIR9": 0, "LINE_DIR10": 0, "LINE_DIR11": 0, "LINE_DIR12": 0, "LINE_DIR13": 0, "LINE_DIR14": 0, "layer_id": "bus_stops", "feature_name": "Bus Stop", "heat_layer": -1.0732, "index_right": 5505, "socioeconomic_layer": 3.2406436167291197, "heat_socio_layer": 2.1674436167291198, "heat_socio_public_layer": 0.77018486147630416 }, "geometry": { "type": "Point", "coordinates": [ -13172061.534717977046967, 4023454.680677825119346 ] } },
{ "type": "Feature", "properties": { "id": "2937", "STOPNUM": 4883, "STOPNAME": "Century / Prairie", "LAT": 33.945596, "LONG": -118.344248, "LINE_DIR1": "117-W", "LINE_DIR2": null, "LINE_DIR3": 0, "LINE_DIR4": 0, "LINE_DIR5": 0, "LINE_DIR6": 0, "LINE_DIR7": 0, "LINE_DIR8": 0, "LINE_DIR9": 0, "LINE_DIR10": 0, "LINE_DIR11": 0, "LINE_DIR12": 0, "LINE_DIR13": 0, "LINE_DIR14": 0, "layer_id": "bus_stops", "feature_name": "Bus Stop", "heat_layer": 5.633, "index_right": 5521, "socioeconomic_layer": 3.9572010707835341, "heat_socio_layer": 9.5902010707835341, "heat_socio_public_layer": 0.96227965847962893 }, "geometry": { "type": "Point", "coordinates": [ -13174021.425672883167863, 4021499.23538856068626 ] } }
]
}
