{
"type": "FeatureCollection",
"name": "optimized_shades_TopHeatSocio_Inglewood_20",
"crs": { "type": "name", "properties": { "name": "urn:ogc:def:crs:EPSG::3857" } },
"features": [
{ "type": "Feature", "properties": { "id": "5956", "STOPNUM": 9805, "STOPNAME": "Arbor Vitae / Grevillea", "LAT": 33.952807, "LONG": -118.355288, "LINE_DIR1": "111-W", "LINE_DIR2": null, "LINE_DIR3": 0, "LINE_DIR4": 0, "LINE_DIR5": 0, "LINE_DIR6": 0, "LINE_DIR7": 0, "LINE_DIR8": 0, "LINE_DIR9": 0, "LINE_DIR10": 0, "LINE_DIR11": 0, "LINE_DIR12": 0, "LINE_DIR13": 0, "LINE_DIR14": 0, "layer_id": "bus_stops", "feature_name": "Bus Stop", "heat_layer": 6.2296, "index_right": 5530, "socioeconomic_layer": 3.6295974640226141, "heat_socio_layer": 9.8591974640226141, "heat_socio_public_layer": 1.259973640207328 }, "geometry": { "type": "Point", "coordinates": [ -13175250.392851242795587, 4022466.91819603042677 ] } },
{ "type": "Feature", "properties": { "id": "2937", "STOPNUM": 4883, "STOPNAME": "Century / Prairie", "LAT": 33.945596, "LONG": -118.344248, "LINE_DIR1": "117-W", "LINE_DIR2": null, "LINE_DIR3": 0, "LINE_DIR4": 0, "LINE_DIR5": 0, "LINE_DIR6": 0, "LINE_DIR7": 0, "LINE_DIR8": 0, "LINE_DIR9": 0, "LINE_DIR10": 0, "LINE_DIR11": 0, "LINE_DIR12": 0, "LINE_DIR13": 0, "LINE_DIR14": 0, "layer_id": "bus_stops", "feature_name": "Bus Stop", "heat_layer": 5.633, "index_right": 5521, "socioeconomic_layer": 3.9572010707835341, "heat_socio_layer": 9.5902010707835341, "heat_socio_public_layer": 0.96227965847962893 }, "geometry": { "type": "Point", "coordinates": [ -13174021.425672883167863, 4021499.23538856068626 ] } },
{ "type": "Feature", "properties": { "id": "9398", "STOPNUM": 15907, "STOPNAME": "Century / Freeman", "LAT": 33.945595, "LONG": -118.348102, "LINE_DIR1": "117-W", "LINE_DIR2": null, "LINE_DIR3": 0, "LINE_DIR4": 0, "LINE_DIR5": 0, "LINE_DIR6": 0, "LINE_DIR7": 0, "LINE_DIR8": 0, "LINE_DIR9": 0, "LINE_DIR10": 0, "LINE_DIR11": 0, "LINE_DIR12": 0, "LINE_DIR13": 0, "LINE_DIR14": 0, "layer_id": "bus_stops", "feature_name": "Bus Stop", "heat_layer": 5.633, "index_right": 5521, "socioeconomic_layer": 3.9572010707835341, "heat_socio_layer": 9.5902010707835341, "heat_socio_public_layer": 0.96227965847962893 }, "geometry": { "type": "Point", "coordinates": [ -13174450.450990401208401, 4021499.10119887534529 ] } },
{ "type": "Feature", "properties": { "id": "3136", "STOPNUM": 5176, "STOPNAME": "La Brea / Hardy", "LAT": 33.948952, "LONG": -118.352489, "LINE_DIR1": "40-N", "LINE_DIR2": null, "LINE_DIR3": 0, "LINE_DIR4": 0, "LINE_DIR5": 0, "LINE_DIR6": 0, "LINE_DIR7": 0, "LINE_DIR8": 0, "LINE_DIR9": 0, "LINE_DIR10": 0, "LINE_DIR11": 0, "LINE_DIR12": 0, "LINE_DIR13": 0, "LINE_DIR14": 0, "layer_id": "bus_stops", "feature_name": "Bus Stop", "heat_layer": 5.5528, "index_right": 5522, "socioeconomic_layer": 3.9292461880244498, "heat_socio_layer": 9.4820461880244498, "heat_socio_public_layer": 0.95720897235957048 }, "geometry": { "type": "Point", "coordinates": [ -13174938.809596512466669, 4021949.584848005790263 ] } },
{ "type": "Feature", "properties": { "id": "3157", "STOPNUM": 5201, "STOPNAME": "La Brea / Century", "LAT": 33.945734, "LONG": -118.352491, "LINE_DIR1": "40-N", "LINE_DIR2": null, "LINE_DIR3": 0, "LINE_DIR4": 0, "LINE_DIR5": 0, "LINE_DIR6": 0, "LINE_DIR7": 0, "LINE_DIR8": 0, "LINE_DIR9": 0, "LINE_DIR10": 0, "LINE_DIR11": 0, "LINE_DIR12": 0, "LINE_DIR13": 0, "LINE_DIR14": 0, "layer_id": "bus_stops", "feature_name": "Bus Stop", "heat_layer": 5.5528, "index_right": 5522, "socioeconomic_layer": 3.9292461880244498, "heat_socio_layer": 9.4820461880244498, "heat_socio_public_layer": 0.95720897235957048 }, "geometry": { "type": "Point", "coordinates": [ -13174939.032235492020845, 4021517.75358002865687 ] } },
{ "type": "Feature", "properties": { "id": "9400", "STOPNUM": 15909, "STOPNAME": "Century / La Brea", "LAT": 33.945588, "LONG": -118.352445, "LINE_DIR1": "117-W", "LINE_DIR2": null, "LINE_DIR3": 0, "LINE_DIR4": 0, "LINE_DIR5": 0, "LINE_DIR6": 0, "LINE_DIR7": 0, "LINE_DIR8": 0, "LINE_DIR9": 0, "LINE_DIR10": 0, "LINE_DIR11": 0, "LINE_DIR12": 0, "LINE_DIR13": 0, "LINE_DIR14": 0, "layer_id": "bus_stops", "feature_name": "Bus Stop", "heat_layer": 5.5528, "index_right": 5522, "socioeconomic_layer": 3.9292461880244498, "heat_socio_layer": 9.4820461880244498, "heat_socio_public_layer": 0.95720897235957048 }, "geometry": { "type": "Point", "coordinates": [ -13174933.911538917571306, 4021498.161871134769171 ] } },
{ "type": "Feature", "properties": { "id": "7164", "STOPNUM": 12143, "STOPNAME": "La Brea / Plymouth", "LAT": 33.974727, "LONG": -118.357798, "LINE_DIR1": "212-S", "LINE_DIR2": null, "LINE_DIR3": 0, "LINE_DIR4": 0, "LINE_DIR5": 0, "LINE_DIR6": 0, "LINE_DIR7": 0, "LINE_DIR8": 0, "LINE_DIR9": 0, "LINE_DIR10": 0, "LINE_DIR11": 0, "LINE_DIR12": 0, "LINE_DIR13": 0, "LINE_DIR14": 0, "layer_id": "bus_stops", "feature_name": "Bus Stop", "heat_layer": 5.4812, "index_right": 5540, "socioeconomic_layer": 3.6537546576023718, "heat_socio_layer": 9.1349546576023712, "heat_socio_public_layer": 1.5053413550773376 }, "geometry": { "type": "Point", "coordinates": [ -13175529.804773133248091, 4025408.98432923713699 ] } },
{ "type": "Feature", "properties": { "id": "376", "STOPNUM": 623, "STOPNAME": "Centinela / Inglewood", "LAT": 33.976453, "LONG": -118.36149, "LINE_DIR1": "110-E", "LINE_DIR2": null, "LINE_DIR3": 0, "LINE_DIR4": 0, "LINE_DIR5": 0, "LINE_DIR6": 0, "LINE_DIR7": 0, "LINE_DIR8": 0, "LINE_DIR9": 0, "LINE_DIR10": 0, "LINE_DIR11": 0, "LINE_DIR12": 0, "LINE_DIR13": 0, "LINE_DIR14": 0, "layer_id": "bus_stops", "feature_name": "Bus Stop", "heat_layer": 5.4812, "index_right": 5540, "socioeconomic_layer": 3.6537546576023718, "heat_socio_layer": 9.1349546576023712, "heat_socio_public_layer": 0.95268202564889481 }, "geometry": { "type": "Point", "coordinates": [ -13175940.796333141624928, 4025640.677400046959519 ] } },
{ "type": "Feature", "properties": { "id": "3144", "STOPNUM": 5188, "STOPNAME": "La Brea / Tamarack", "LAT": 33.954649, "LONG": -118.352278, "LINE_DIR1": "40-N", "LINE_DIR2": "111-E", "LINE_DIR3": 0, "LINE_DIR4": 0, "LINE_DIR5": 0, "LINE_DIR6": 0, "LINE_DIR7": 0, "LINE_DIR8": 0, "LINE_DIR9": 0, "LINE_DIR10": 0, "LINE_DIR11": 0, "LINE_DIR12": 0, "LINE_DIR13": 0, "LINE_DIR14": 0, "layer_id": "bus_stops", "feature_name": "Bus Stop", "heat_layer": 5.4124, "index_right": 5518, "socioeconomic_layer": 3.524207035553454, "heat_socio_layer": 8.9366070355534539, "heat_socio_public_layer": 0.94833211037383214 }, "geometry": { "type": "Point", "coordinates": [ -13174915.321183953434229, 4022714.119214228820056 ] } },
{ "type": "Feature", "properties": { "id": "1637", "STOPNUM": 2767, "STOPNAME": "La Brea / Arbor Vitae", "LAT": 33.952975, "LONG": -118.352469, "LINE_DIR1": "111-E", "LINE_DIR2": "40-N", "LINE_DIR3": 0, "LINE_DIR4": 0, "LINE_DIR5": 0, "LINE_DIR6": 0, "LINE_DIR7": 0, "LINE_DIR8": 0, "LINE_DIR9": 0, "LINE_DIR10": 0, "LINE_DIR11": 0, "LINE_DIR12": 0, "LINE_DIR13": 0, "LINE_DIR14": 0, "layer_id": "bus_stops", "feature_name": "Bus Stop", "heat_layer": 5.4124, "index_right": 5518, "socioeconomic_layer": 3.524207035553454, "heat_socio_layer": 8.9366070355534539, "heat_socio_public_layer": 1.20201423091215 }, "geometry": { "type": "Point", "coordinates": [ -13174936.583206696435809, 4022489.463995466940105 ] } },
{ "type": "Feature", "properties": { "id": "7527", "STOPNUM": 12863, "STOPNAME": "Prairie / Hardy", "LAT": 33.949278, "LONG": -118.344075, "LINE_DIR1": "211-S", "LINE_DIR2": "212-S", "LINE_DIR3": 0, "LINE_DIR4": 0, "LINE_DIR5": 0, "LINE_DIR6": 0, "LINE_DIR7": 0, "LINE_DIR8": 0, "LINE_DIR9": 0, "LINE_DIR10": 0, "LINE_DIR11": 0, "LINE_DIR12": 0, "LINE_DIR13": 0, "LINE_DIR14": 0, "layer_id": "bus_stops", "feature_name": "Bus Stop", "heat_layer": 5.408, "index_right": 5520, "socioeconomic_layer": 3.524872244738678, "heat_socio_layer": 8.9328722447386788, "heat_socio_public_layer": 0.94805391811786888 }, "geometry": { "type": "Point", "coordinates": [ -13174002.167400976642966, 4021993.332493854686618 ] } },
{ "type": "Feature", "properties": { "id": "7526", "STOPNUM": 12862, "STOPNAME": "Prairie / Arbor Vitae", "LAT": 33.952455, "LONG": -118.344078, "LINE_DIR1": "212-S", "LINE_DIR2": "211-S", "LINE_DIR3": 0, "LINE_DIR4": 0, "LINE_DIR5": 0, "LINE_DIR6": 0, "LINE_DIR7": 0, "LINE_DIR8": 0, "LINE_DIR9": 0, "LINE_DIR10": 0, "LINE_DIR11": 0, "LINE_DIR12": 0, "LINE_DIR13": 0, "LINE_DIR14": 0, "layer_id": "bus_stops", "feature_name": "Bus Stop", "heat_layer": 5.408, "index_right": 5520, "socioeconomic_layer": 3.524872244738678, "heat_socio_layer": 8.9328722447386788, "heat_socio_public_layer": 0.94805391811786888 }, "geometry": { "type": "Point", "coordinates": [ -13174002.501359449699521, 4022419.679522497113794 ] } },
{ "type": "Feature", "properties": { "id": "6840", "STOPNUM": 11449, "STOPNAME": "Prairie / Lennox", "LAT": 33.938356, "LONG": -118.344057, "LINE_DIR1": "211-S", "LINE_DIR2": "212-S", "LINE_DIR3": 0, "LINE_DIR4": 0, "LINE_DIR5": 0, "LINE_DIR6": 0, "LINE_DIR7": 0, "LINE_DIR8": 0, "LINE_DIR9": 0, "LINE_DIR10": 0, "LINE_DIR11": 0, "LINE_DIR12": 0, "LINE_DIR13": 0, "LINE_DIR14": 0, "layer_id": "bus_stops", "feature_name": "Bus Stop", "heat_layer": 4.7098, "index_right": 5562, "socioeconomic_layer": 3.8178911662669477, "heat_socio_layer": 8.5276911662669477, "heat_socio_public_layer": 0.90390986513750926 }, "geometry": { "type": "Point", "coordinates": [ -13174000.163650142028928, 4020527.743386207148433 ] } },
{ "type": "Feature", "properties": { "id": "8096", "STOPNUM": 13826, "STOPNAME": "Prairie / 104th", "LAT": 33.941562, "LONG": -118.34406, "LINE_DIR1": "212-S", "LINE_DIR2": "211-S", "LINE_DIR3": 0, "LINE_DIR4": 0, "LINE_DIR5": 0, "LINE_DIR6": 0, "LINE_DIR7": 0, "LINE_DIR8": 0, "LINE_DIR9": 0, "LINE_DIR10": 0, "LINE_DIR11": 0, "LINE_DIR12": 0, "LINE_DIR13": 0, "LINE_DIR14": 0, "layer_id": "bus_stops", "feature_name": "Bus Stop", "heat_layer": 4.7098, "index_right": 5562, "socioeconomic_layer": 3.8178911662669477, "heat_socio_layer": 8.5276911662669477, "heat_socio_public_layer": 0.90390986513750926 }, "geometry": { "type": "Point", "coordinates": [ -13174000.497608613222837, 4020957.927027848083526 ] } },
{ "type": "Feature", "properties": { "id": "7957", "STOPNUM": 13588, "STOPNAME": "Hawthorne / Century", "LAT": 33.945046, "LONG": -118.352795, "LINE_DIR1": "40-S", "LINE_DIR2": null, "LINE_DIR3": 0, "LINE_DIR4": 0, "LINE_DIR5": 0, "LINE_DIR6": 0, "LINE_DIR7": 0, "LINE_DIR8": 0, "LINE_DIR9": 0, "LINE_DIR10": 0, "LINE_DIR11": 0, "LINE_DIR12": 0, "LINE_DIR13": 0, "LINE_DIR14": 0, "layer_id": "bus_stops", "feature_name": "Bus Stop", "heat_layer": 4.4032, "index_right": 5558, "socioeconomic_layer": 4.0108943163427826, "heat_socio_layer": 8.4140943163427835, "heat_socio_public_layer": 0.88452492293788409 }, "geometry": { "type": "Point", "coordinates": [ -13174972.873360693454742, 4021425.431300541386008 ] } },
{ "type": "Feature", "properties": { "id": "377", "STOPNUM": 624, "STOPNAME": "La Brea / Centinela", "LAT": 33.976061, "LONG": -118.357448, "LINE_DIR1": "212-N", "LINE_DIR2": null, "LINE_DIR3": 0, "LINE_DIR4": 0, "LINE_DIR5": 0, "LINE_DIR6": 0, "LINE_DIR7": 0, "LINE_DIR8": 0, "LINE_DIR9": 0, "LINE_DIR10": 0, "LINE_DIR11": 0, "LINE_DIR12": 0, "LINE_DIR13": 0, "LINE_DIR14": 0, "layer_id": "bus_stops", "feature_name": "Bus Stop", "heat_layer": 4.281, "index_right": 5509, "socioeconomic_layer": 3.9128556664994685, "heat_socio_layer": 8.1938556664994682, "heat_socio_public_layer": 1.3678792647498181 }, "geometry": { "type": "Point", "coordinates": [ -13175490.842951355502009, 4025588.056081234011799 ] } },
{ "type": "Feature", "properties": { "id": "2180", "STOPNUM": 3650, "STOPNAME": "La Brea / Hyde Park", "LAT": 33.971585, "LONG": -118.35735, "LINE_DIR1": "212-N", "LINE_DIR2": null, "LINE_DIR3": 0, "LINE_DIR4": 0, "LINE_DIR5": 0, "LINE_DIR6": 0, "LINE_DIR7": 0, "LINE_DIR8": 0, "LINE_DIR9": 0, "LINE_DIR10": 0, "LINE_DIR11": 0, "LINE_DIR12": 0, "LINE_DIR13": 0, "LINE_DIR14": 0, "layer_id": "bus_stops", "feature_name": "Bus Stop", "heat_layer": 4.281, "index_right": 5509, "socioeconomic_layer": 3.9128556664994685, "heat_socio_layer": 8.1938556664994682, "heat_socio_public_layer": 0.87679876528363032 }, "geometry": { "type": "Point", "coordinates": [ -13175479.933641256764531, 4024987.223732779733837 ] } },
{ "type": "Feature", "properties": { "id": "3049", "STOPNUM": 5045, "STOPNAME": "Centinela / La Brea", "LAT": 33.976097, "LONG": -118.35729, "LINE_DIR1": "110-E", "LINE_DIR2": null, "LINE_DIR3": 0, "LINE_DIR4": 0, "LINE_DIR5": 0, "LINE_DIR6": 0, "LINE_DIR7": 0, "LINE_DIR8": 0, "LINE_DIR9": 0, "LINE_DIR10": 0, "LINE_DIR11": 0, "LINE_DIR12": 0, "LINE_DIR13": 0, "LINE_DIR14": 0, "layer_id": "bus_stops", "feature_name": "Bus Stop", "heat_layer": 4.281, "index_right": 5509, "socioeconomic_layer": 3.9128556664994685, "heat_socio_layer": 8.1938556664994682, "heat_socio_public_layer": 1.3660121813033228 }, "geometry": { "type": "Point", "coordinates": [ -13175473.254471810534596, 4025592.888641212135553 ] } },
{ "type": "Feature", "properties": { "id": "11370", "STOPNUM": 140974, "STOPNAME": "La Brea / Plymouth", "LAT": 33.974401, "LONG": -118.357487, "LINE_DIR1": "212-N", "LINE_DIR2": null, "LINE_DIR3": 0, "LINE_DIR4": 0, "LINE_DIR5": 0, "LINE_DIR6": 0, "LINE_DIR7": 0, "LINE_DIR8": 0, "LINE_DIR9": 0, "LINE_DIR10": 0, "LINE_DIR11": 0, "LINE_DIR12": 0, "LINE_DIR13": 0, "LINE_DIR14": 0, "layer_id": "bus_stops", "feature_name": "Bus Stop", "heat_layer": 4.281, "index_right": 5509, "socioeconomic_layer": 3.9128556664994685, "heat_socio_layer": 8.1938556664994682, "heat_socio_public_layer": 1.4502605523883068 }, "geometry": { "type": "Point", "coordinates": [ -13175495.184411495923996, 4025365.22359364759177 ] } },
{ "type": "Feature", "properties": { "id": "371", "STOPNUM": 617, "STOPNAME": "Centinela / Edgewood", "LAT": 33.975842, "LONG": -118.354594, "LINE_DIR1": "110-E", "LINE_DIR2": null, "LINE_DIR3": 0, "LINE_DIR4": 0, "LINE_DIR5": 0, "LINE_DIR6": 0, "LINE_DIR7": 0, "LINE_DIR8": 0, "LINE_DIR9": 0, "LINE_DIR10": 0, "LINE_DIR11": 0, "LINE_DIR12": 0, "LINE_DIR13": 0, "LINE_DIR14": 0, "layer_id": "bus_stops", "feature_name": "Bus Stop", "heat_layer": 4.281, "index_right": 5509, "socioeconomic_layer": 3.9128556664994685, "heat_socio_layer": 8.1938556664994682, "heat_socio_public_layer": 0.87679876528363032 }, "geometry": { "type": "Point", "coordinates": [ -13175173.137124633416533, 4025558.658052122220397 ] } }
]
}
