{
"type": "FeatureCollection",
"name": "optimized_shades_TopPublic_LAC_20",
"crs": { "type": "name", "properties": { "name": "urn:ogc:def:crs:EPSG::3857" } },
"features": [
{ "type": "Feature", "properties": { "id": "6029", "STOPNUM": 9939, "STOPNAME": "Florence / Centinela", "LAT": 33.96969, "LONG": -118.347672, "LINE_DIR1": "40-S", "LINE_DIR2": "111-W", "LINE_DIR3": 0, "LINE_DIR4": 0, "LINE_DIR5": 0, "LINE_DIR6": 0, "LINE_DIR7": 0, "LINE_DIR8": 0, "LINE_DIR9": 0, "LINE_DIR10": 0, "LINE_DIR11": 0, "LINE_DIR12": 0, "LINE_DIR13": 0, "LINE_DIR14": 0, "layer_id": "bus_stops", "feature_name": "Bus Stop", "heat_layer": 0.568, "index_right": 5515, "socioeconomic_layer": 3.1041650197974633, "heat_socio_layer": 3.6721650197974633, "heat_socio_public_layer": 1.6420424336645718 }, "geometry": { "type": "Point", "coordinates": [ -13174402.58360935933888, 4024732.859423676505685 ] } },
{ "type": "Feature", "properties": { "id": "815", "STOPNUM": 1411, "STOPNAME": "Florence / Centinela", "LAT": 33.969567, "LONG": -118.347312, "LINE_DIR1": "40-N", "LINE_DIR2": "111-E", "LINE_DIR3": 0, "LINE_DIR4": 0, "LINE_DIR5": 0, "LINE_DIR6": 0, "LINE_DIR7": 0, "LINE_DIR8": 0, "LINE_DIR9": 0, "LINE_DIR10": 0, "LINE_DIR11": 0, "LINE_DIR12": 0, "LINE_DIR13": 0, "LINE_DIR14": 0, "layer_id": "bus_stops", "feature_name": "Bus Stop", "heat_layer": 0.568, "index_right": 5515, "socioeconomic_layer": 3.1041650197974633, "heat_socio_layer": 3.6721650197974633, "heat_socio_public_layer": 1.4247010762948671 }, "geometry": { "type": "Point", "coordinates": [ -13174362.508592674508691, 4024716.349429585970938 ] } },
{ "type": "Feature", "properties": { "id": "6108", "STOPNUM": 10102, "STOPNAME": "Manchester / Grevillea", "LAT": 33.96188, "LONG": -118.355366, "LINE_DIR1": "211-N", "LINE_DIR2": "115-W", "LINE_DIR3": 0, "LINE_DIR4": 0, "LINE_DIR5": 0, "LINE_DIR6": 0, "LINE_DIR7": 0, "LINE_DIR8": 0, "LINE_DIR9": 0, "LINE_DIR10": 0, "LINE_DIR11": 0, "LINE_DIR12": 0, "LINE_DIR13": 0, "LINE_DIR14": 0, "layer_id": "bus_stops", "feature_name": "Bus Stop", "heat_layer": 1.0606, "index_right": 5526, "socioeconomic_layer": 3.5260084255488744, "heat_socio_layer": 4.5866084255488744, "heat_socio_public_layer": 1.3907456594624927 }, "geometry": { "type": "Point", "coordinates": [ -13175259.075771525502205, 4023684.589285897091031 ] } },
{ "type": "Feature", "properties": { "id": "11370", "STOPNUM": 140974, "STOPNAME": "La Brea / Plymouth", "LAT": 33.974401, "LONG": -118.357487, "LINE_DIR1": "212-N", "LINE_DIR2": null, "LINE_DIR3": 0, "LINE_DIR4": 0, "LINE_DIR5": 0, "LINE_DIR6": 0, "LINE_DIR7": 0, "LINE_DIR8": 0, "LINE_DIR9": 0, "LINE_DIR10": 0, "LINE_DIR11": 0, "LINE_DIR12": 0, "LINE_DIR13": 0, "LINE_DIR14": 0, "layer_id": "bus_stops", "feature_name": "Bus Stop", "heat_layer": 4.281, "index_right": 5509, "socioeconomic_layer": 3.9128556664994685, "heat_socio_layer": 8.1938556664994682, "heat_socio_public_layer": 1.4502605523883068 }, "geometry": { "type": "Point", "coordinates": [ -13175495.184411495923996, 4025365.22359364759177 ] } },
{ "type": "Feature", "properties": { "id": "7164", "STOPNUM": 12143, "STOPNAME": "La Brea / Plymouth", "LAT": 33.974727, "LONG": -118.357798, "LINE_DIR1": "212-S", "LINE_DIR2": null, "LINE_DIR3": 0, "LINE_DIR4": 0, "LINE_DIR5": 0, "LINE_DIR6": 0, "LINE_DIR7": 0, "LINE_DIR8": 0, "LINE_DIR9": 0, "LINE_DIR10": 0, "LINE_DIR11": 0, "LINE_DIR12": 0, "LINE_DIR13": 0, "LINE_DIR14": 0, "layer_id": "bus_stops", "feature_name": "Bus Stop", "heat_layer": 5.4812, "index_right": 5540, "socioeconomic_layer": 3.6537546576023718, "heat_socio_layer": 9.1349546576023712, "heat_socio_public_layer": 1.5053413550773376 }, "geometry": { "type": "Point", "coordinates": [ -13175529.804773133248091, 4025408.98432923713699 ] } },
{ "type": "Feature", "properties": { "id": "7249", "STOPNUM": 12316, "STOPNAME": "Grace / Prairie", "LAT": 33.968568, "LONG": -118.345068, "LINE_DIR1": "211-N", "LINE_DIR2": null, "LINE_DIR3": 0, "LINE_DIR4": 0, "LINE_DIR5": 0, "LINE_DIR6": 0, "LINE_DIR7": 0, "LINE_DIR8": 0, "LINE_DIR9": 0, "LINE_DIR10": 0, "LINE_DIR11": 0, "LINE_DIR12": 0, "LINE_DIR13": 0, "LINE_DIR14": 0, "layer_id": "bus_stops", "feature_name": "Bus Stop", "heat_layer": 0.568, "index_right": 5515, "socioeconomic_layer": 3.1041650197974633, "heat_socio_layer": 3.6721650197974633, "heat_socio_public_layer": 1.1804655000012656 }, "geometry": { "type": "Point", "coordinates": [ -13174112.707655334845185, 4024582.256947516463697 ] } },
{ "type": "Feature", "properties": { "id": "823", "STOPNUM": 1422, "STOPNAME": "Florence / Hillcrest", "LAT": 33.968814, "LONG": -118.348925, "LINE_DIR1": "40-N", "LINE_DIR2": "111-E", "LINE_DIR3": 0, "LINE_DIR4": 0, "LINE_DIR5": 0, "LINE_DIR6": 0, "LINE_DIR7": 0, "LINE_DIR8": 0, "LINE_DIR9": 0, "LINE_DIR10": 0, "LINE_DIR11": 0, "LINE_DIR12": 0, "LINE_DIR13": 0, "LINE_DIR14": 0, "layer_id": "bus_stops", "feature_name": "Bus Stop", "heat_layer": 0.568, "index_right": 5515, "socioeconomic_layer": 3.1041650197974633, "heat_socio_layer": 3.6721650197974633, "heat_socio_public_layer": 1.1677358617847395 }, "geometry": { "type": "Point", "coordinates": [ -13174542.066931322216988, 4024615.276571693364531 ] } },
{ "type": "Feature", "properties": { "id": "1854", "STOPNUM": 3100, "STOPNAME": "Downtown Inglewood Station", "LAT": 33.968274, "LONG": -118.350296, "LINE_DIR1": "40-S", "LINE_DIR2": "212-S", "LINE_DIR3": 0, "LINE_DIR4": 0, "LINE_DIR5": 0, "LINE_DIR6": 0, "LINE_DIR7": 0, "LINE_DIR8": 0, "LINE_DIR9": 0, "LINE_DIR10": 0, "LINE_DIR11": 0, "LINE_DIR12": 0, "LINE_DIR13": 0, "LINE_DIR14": 0, "layer_id": "bus_stops", "feature_name": "Bus Stop", "heat_layer": 0.568, "index_right": 5515, "socioeconomic_layer": 3.1041650197974633, "heat_socio_layer": 3.6721650197974633, "heat_socio_public_layer": 1.1589621550272842 }, "geometry": { "type": "Point", "coordinates": [ -13174694.685953199863434, 4024542.794595126062632 ] } },
{ "type": "Feature", "properties": { "id": "3417", "STOPNUM": 5590, "STOPNAME": "Florence / Locust", "LAT": 33.967772, "LONG": -118.350462, "LINE_DIR1": "40-N", "LINE_DIR2": "111-E", "LINE_DIR3": 0, "LINE_DIR4": 0, "LINE_DIR5": 0, "LINE_DIR6": 0, "LINE_DIR7": 0, "LINE_DIR8": 0, "LINE_DIR9": 0, "LINE_DIR10": 0, "LINE_DIR11": 0, "LINE_DIR12": 0, "LINE_DIR13": 0, "LINE_DIR14": 0, "layer_id": "bus_stops", "feature_name": "Bus Stop", "heat_layer": 0.568, "index_right": 5515, "socioeconomic_layer": 3.1041650197974633, "heat_socio_layer": 3.6721650197974633, "heat_socio_public_layer": 1.1570953637996912 }, "geometry": { "type": "Point", "coordinates": [ -13174713.164988672360778, 4024475.413614878896624 ] } },
{ "type": "Feature", "properties": { "id": "1349", "STOPNUM": 2261, "STOPNAME": "Prairie / Grace", "LAT": 33.968293, "LONG": -118.344091, "LINE_DIR1": "211-S", "LINE_DIR2": null, "LINE_DIR3": 0, "LINE_DIR4": 0, "LINE_DIR5": 0, "LINE_DIR6": 0, "LINE_DIR7": 0, "LINE_DIR8": 0, "LINE_DIR9": 0, "LINE_DIR10": 0, "LINE_DIR11": 0, "LINE_DIR12": 0, "LINE_DIR13": 0, "LINE_DIR14": 0, "layer_id": "bus_stops", "feature_name": "Bus Stop", "heat_layer": 0.568, "index_right": 5515, "socioeconomic_layer": 3.1041650197974633, "heat_socio_layer": 3.6721650197974633, "heat_socio_public_layer": 1.1387125662222111 }, "geometry": { "type": "Point", "coordinates": [ -13174003.948512829840183, 4024545.3448790833354 ] } },
{ "type": "Feature", "properties": { "id": "377", "STOPNUM": 624, "STOPNAME": "La Brea / Centinela", "LAT": 33.976061, "LONG": -118.357448, "LINE_DIR1": "212-N", "LINE_DIR2": null, "LINE_DIR3": 0, "LINE_DIR4": 0, "LINE_DIR5": 0, "LINE_DIR6": 0, "LINE_DIR7": 0, "LINE_DIR8": 0, "LINE_DIR9": 0, "LINE_DIR10": 0, "LINE_DIR11": 0, "LINE_DIR12": 0, "LINE_DIR13": 0, "LINE_DIR14": 0, "layer_id": "bus_stops", "feature_name": "Bus Stop", "heat_layer": 4.281, "index_right": 5509, "socioeconomic_layer": 3.9128556664994685, "heat_socio_layer": 8.1938556664994682, "heat_socio_public_layer": 1.3678792647498181 }, "geometry": { "type": "Point", "coordinates": [ -13175490.842951355502009, 4025588.056081234011799 ] } },
{ "type": "Feature", "properties": { "id": "3049", "STOPNUM": 5045, "STOPNAME": "Centinela / La Brea", "LAT": 33.976097, "LONG": -118.35729, "LINE_DIR1": "110-E", "LINE_DIR2": null, "LINE_DIR3": 0, "LINE_DIR4": 0, "LINE_DIR5": 0, "LINE_DIR6": 0, "LINE_DIR7": 0, "LINE_DIR8": 0, "LINE_DIR9": 0, "LINE_DIR10": 0, "LINE_DIR11": 0, "LINE_DIR12": 0, "LINE_DIR13": 0, "LINE_DIR14": 0, "layer_id": "bus_stops", "feature_name": "Bus Stop", "heat_layer": 4.281, "index_right": 5509, "socioeconomic_layer": 3.9128556664994685, "heat_socio_layer": 8.1938556664994682, "heat_socio_public_layer": 1.3660121813033228 }, "geometry": { "type": "Point", "coordinates": [ -13175473.254471810534596, 4025592.888641212135553 ] } },
{ "type": "Feature", "properties": { "id": "901", "STOPNUM": 1558, "STOPNAME": "Manchester / Grevillea", "LAT": 33.961632, "LONG": -118.354784, "LINE_DIR1": "115-E", "LINE_DIR2": "211-S", "LINE_DIR3": 0, "LINE_DIR4": 0, "LINE_DIR5": 0, "LINE_DIR6": 0, "LINE_DIR7": 0, "LINE_DIR8": 0, "LINE_DIR9": 0, "LINE_DIR10": 0, "LINE_DIR11": 0, "LINE_DIR12": 0, "LINE_DIR13": 0, "LINE_DIR14": 0, "layer_id": "bus_stops", "feature_name": "Bus Stop", "heat_layer": 3.3404, "index_right": 5527, "socioeconomic_layer": 3.7653596543338672, "heat_socio_layer": 7.105759654333867, "heat_socio_public_layer": 1.3052284027439871 }, "geometry": { "type": "Point", "coordinates": [ -13175194.287827882915735, 4023651.303923514205962 ] } },
{ "type": "Feature", "properties": { "id": "5654", "STOPNUM": 9190, "STOPNAME": "Centinela / La Brea", "LAT": 33.976409, "LONG": -118.357908, "LINE_DIR1": "110-W", "LINE_DIR2": null, "LINE_DIR3": 0, "LINE_DIR4": 0, "LINE_DIR5": 0, "LINE_DIR6": 0, "LINE_DIR7": 0, "LINE_DIR8": 0, "LINE_DIR9": 0, "LINE_DIR10": 0, "LINE_DIR11": 0, "LINE_DIR12": 0, "LINE_DIR13": 0, "LINE_DIR14": 0, "layer_id": "bus_stops", "feature_name": "Bus Stop", "heat_layer": 2.1456, "index_right": 5533, "socioeconomic_layer": 2.829009698599446, "heat_socio_layer": 4.9746096985994459, "heat_socio_public_layer": 1.2124112573409629 }, "geometry": { "type": "Point", "coordinates": [ -13175542.049917118623853, 4025634.770913397427648 ] } },
{ "type": "Feature", "properties": { "id": "7153", "STOPNUM": 12128, "STOPNAME": "La Brea / Centinela", "LAT": 33.976464, "LONG": -118.357746, "LINE_DIR1": "212-S", "LINE_DIR2": null, "LINE_DIR3": 0, "LINE_DIR4": 0, "LINE_DIR5": 0, "LINE_DIR6": 0, "LINE_DIR7": 0, "LINE_DIR8": 0, "LINE_DIR9": 0, "LINE_DIR10": 0, "LINE_DIR11": 0, "LINE_DIR12": 0, "LINE_DIR13": 0, "LINE_DIR14": 0, "layer_id": "bus_stops", "feature_name": "Bus Stop", "heat_layer": 2.1456, "index_right": 5533, "socioeconomic_layer": 2.829009698599446, "heat_socio_layer": 4.9746096985994459, "heat_socio_public_layer": 1.2108647116939237 }, "geometry": { "type": "Point", "coordinates": [ -13175524.016159612685442, 4025642.154022186528891 ] } },
{ "type": "Feature", "properties": { "id": "4784", "STOPNUM": 7735, "STOPNAME": "Imperial / Yukon", "LAT": 33.930843, "LONG": -118.335313, "LINE_DIR1": "120-E", "LINE_DIR2": null, "LINE_DIR3": 0, "LINE_DIR4": 0, "LINE_DIR5": 0, "LINE_DIR6": 0, "LINE_DIR7": 0, "LINE_DIR8": 0, "LINE_DIR9": 0, "LINE_DIR10": 0, "LINE_DIR11": 0, "LINE_DIR12": 0, "LINE_DIR13": 0, "LINE_DIR14": 0, "layer_id": "bus_stops", "feature_name": "Bus Stop", "heat_layer": -0.0302, "index_right": 5702, "socioeconomic_layer": 3.2649869164746681, "heat_socio_layer": 3.2347869164746683, "heat_socio_public_layer": 0.88709463903940189 }, "geometry": { "type": "Point", "coordinates": [ -13173026.786022646352649, 4019519.706495236139745 ] } },
{ "type": "Feature", "properties": { "id": "3137", "STOPNUM": 5180, "STOPNAME": "La Brea / Queen", "LAT": 33.962763, "LONG": -118.353196, "LINE_DIR1": "212-N", "LINE_DIR2": null, "LINE_DIR3": 0, "LINE_DIR4": 0, "LINE_DIR5": 0, "LINE_DIR6": 0, "LINE_DIR7": 0, "LINE_DIR8": 0, "LINE_DIR9": 0, "LINE_DIR10": 0, "LINE_DIR11": 0, "LINE_DIR12": 0, "LINE_DIR13": 0, "LINE_DIR14": 0, "layer_id": "bus_stops", "feature_name": "Bus Stop", "heat_layer": 2.594, "index_right": 5516, "socioeconomic_layer": 4.1973871381090593, "heat_socio_layer": 6.7913871381090587, "heat_socio_public_layer": 1.0526745658737662 }, "geometry": { "type": "Point", "coordinates": [ -13175017.51247650384903, 4023803.102069647051394 ] } },
{ "type": "Feature", "properties": { "id": "7184", "STOPNUM": 12181, "STOPNAME": "Locust / Grace", "LAT": 33.966596, "LONG": -118.35036, "LINE_DIR1": "211-S", "LINE_DIR2": null, "LINE_DIR3": 0, "LINE_DIR4": 0, "LINE_DIR5": 0, "LINE_DIR6": 0, "LINE_DIR7": 0, "LINE_DIR8": 0, "LINE_DIR9": 0, "LINE_DIR10": 0, "LINE_DIR11": 0, "LINE_DIR12": 0, "LINE_DIR13": 0, "LINE_DIR14": 0, "layer_id": "bus_stops", "feature_name": "Bus Stop", "heat_layer": 0.568, "index_right": 5515, "socioeconomic_layer": 3.1041650197974633, "heat_socio_layer": 3.6721650197974633, "heat_socio_public_layer": 0.92225790186222789 }, "geometry": { "type": "Point", "coordinates": [ -13174701.810400610789657, 4024317.56650118669495 ] } },
{ "type": "Feature", "properties": { "id": "6913", "STOPNUM": 11616, "STOPNAME": "Manchester / Crenshaw Drive", "LAT": 33.960114, "LONG": -118.331981, "LINE_DIR1": "115-W", "LINE_DIR2": null, "LINE_DIR3": 0, "LINE_DIR4": 0, "LINE_DIR5": 0, "LINE_DIR6": 0, "LINE_DIR7": 0, "LINE_DIR8": 0, "LINE_DIR9": 0, "LINE_DIR10": 0, "LINE_DIR11": 0, "LINE_DIR12": 0, "LINE_DIR13": 0, "LINE_DIR14": 0, "layer_id": "bus_stops", "feature_name": "Bus Stop", "heat_layer": -1.0732, "index_right": 5505, "socioeconomic_layer": 3.2406436167291197, "heat_socio_layer": 2.1674436167291198, "heat_socio_public_layer": 0.81819940279916847 }, "geometry": { "type": "Point", "coordinates": [ -13172655.869479320943356, 4023447.567408852279186 ] } },
{ "type": "Feature", "properties": { "id": "6861", "STOPNUM": 11487, "STOPNAME": "Locust / Grace", "LAT": 33.966596, "LONG": -118.350531, "LINE_DIR1": "211-N", "LINE_DIR2": null, "LINE_DIR3": 0, "LINE_DIR4": 0, "LINE_DIR5": 0, "LINE_DIR6": 0, "LINE_DIR7": 0, "LINE_DIR8": 0, "LINE_DIR9": 0, "LINE_DIR10": 0, "LINE_DIR11": 0, "LINE_DIR12": 0, "LINE_DIR13": 0, "LINE_DIR14": 0, "layer_id": "bus_stops", "feature_name": "Bus Stop", "heat_layer": 0.568, "index_right": 5515, "socioeconomic_layer": 3.1041650197974633, "heat_socio_layer": 3.6721650197974633, "heat_socio_public_layer": 0.91859861951512256 }, "geometry": { "type": "Point", "coordinates": [ -13174720.846033537760377, 4024317.56650118669495 ] } }
]
}
