{
"type": "FeatureCollection",
"name": "optimized_shades_MILPHeatSocioPublic_DTLA_20",
"crs": { "type": "name", "properties": { "name": "urn:ogc:def:crs:EPSG::3857" } },
"features": [
{ "type": "Feature", "properties": { "OBJECTID": 1043, "stop_id": 19354, "route_count": 6, "route_stop": "MT040, MT035, MT004, MT033, DA  D, MT045", "lat": 34.034151669769003, "lon": -118.26357295643, "heat_layer": 5.397, "index_right": 1808, "socioeconomic_layer": 3.5578625043066285, "heat_socio_layer": 8.9548625043066288, "heat_socio_public_layer": 1.192507441291921 }, "geometry": { "type": "Point", "coordinates": [ -13165040.720902945846319, 4033388.683343546465039 ] } },
{ "type": "Feature", "properties": { "OBJECTID": 1112, "stop_id": 18907, "route_count": 4, "route_stop": "MT081, MT603, MT910, DA  F", "lat": 34.030750490658001, "lon": -118.27437119947, "heat_layer": -1.5528, "index_right": 1821, "socioeconomic_layer": 4.3877959607664865, "heat_socio_layer": 2.8349959607664865, "heat_socio_public_layer": 0.78725183136562293 }, "geometry": { "type": "Point", "coordinates": [ -13166242.775819620117545, 4032931.813477199990302 ] } },
{ "type": "Feature", "properties": { "OBJECTID": 1138, "stop_id": 19103, "route_count": 5, "route_stop": "DAPIC, MT603, MT035, DA  D, MT055", "lat": 34.032632605640998, "lon": -118.26833412038999, "heat_layer": 2.8998, "index_right": 1810, "socioeconomic_layer": 3.7749837642375321, "heat_socio_layer": 6.6747837642375316, "heat_socio_public_layer": 1.0599924015405282 }, "geometry": { "type": "Point", "coordinates": [ -13165570.731250556185842, 4033184.629896038211882 ] } },
{ "type": "Feature", "properties": { "OBJECTID": 1139, "stop_id": 19105, "route_count": 4, "route_stop": "DAPIC, MT014, DA  D, MT055", "lat": 34.032772958296, "lon": -118.26823885523, "heat_layer": 2.8998, "index_right": 1810, "socioeconomic_layer": 3.7749837642375321, "heat_socio_layer": 6.6747837642375316, "heat_socio_public_layer": 1.0574508009519703 }, "geometry": { "type": "Point", "coordinates": [ -13165560.126381453126669, 4033203.483089844696224 ] } },
{ "type": "Feature", "properties": { "OBJECTID": 1144, "stop_id": 18815, "route_count": 2, "route_stop": "DAPIC, MT030", "lat": 34.044635145834, "lon": -118.27690897756, "heat_layer": 5.174, "index_right": 1816, "socioeconomic_layer": 4.3236445329102189, "heat_socio_layer": 9.4976445329102184, "heat_socio_public_layer": 1.3740141712416634 }, "geometry": { "type": "Point", "coordinates": [ -13166525.279984347522259, 4034797.011500256601721 ] } },
{ "type": "Feature", "properties": { "OBJECTID": 1145, "stop_id": 18925, "route_count": 2, "route_stop": "DAPIC, MT028", "lat": 34.049213795207002, "lon": -118.27419075956, "heat_layer": 2.8174, "index_right": 1502, "socioeconomic_layer": 4.3621861962603683, "heat_socio_layer": 7.1795861962603684, "heat_socio_public_layer": 1.2122868403761216 }, "geometry": { "type": "Point", "coordinates": [ -13166222.689340719953179, 4035412.152263194322586 ] } },
{ "type": "Feature", "properties": { "OBJECTID": 1149, "stop_id": 19003, "route_count": 2, "route_stop": "DAPIC, MT018", "lat": 34.058021355576003, "lon": -118.27146945918, "heat_layer": 3.797, "index_right": 1478, "socioeconomic_layer": 4.5109568252363301, "heat_socio_layer": 8.3079568252363298, "heat_socio_public_layer": 1.0704877557082755 }, "geometry": { "type": "Point", "coordinates": [ -13165919.755568122491241, 4036595.539915935602039 ] } },
{ "type": "Feature", "properties": { "OBJECTID": 1153, "stop_id": 19406, "route_count": 2, "route_stop": "DAPIC, MT016", "lat": 34.058301360493999, "lon": -118.26163510700999, "heat_layer": 0.6536, "index_right": 1485, "socioeconomic_layer": 4.181205680169124, "heat_socio_layer": 4.8348056801691239, "heat_socio_public_layer": 1.4474127238994661 }, "geometry": { "type": "Point", "coordinates": [ -13164825.000492276623845, 4036633.163515490014106 ] } },
{ "type": "Feature", "properties": { "OBJECTID": 1165, "stop_id": 19435, "route_count": 2, "route_stop": "DAPIC, MT016", "lat": 34.055785933149998, "lon": -118.26088772, "heat_layer": -0.9524, "index_right": 1490, "socioeconomic_layer": 3.5458646948496546, "heat_socio_layer": 2.5934646948496547, "heat_socio_public_layer": 1.2746831272468311 }, "geometry": { "type": "Point", "coordinates": [ -13164741.801750898361206, 4036295.175940775312483 ] } },
{ "type": "Feature", "properties": { "OBJECTID": 1166, "stop_id": 19012, "route_count": 2, "route_stop": "DAPIC, MT018", "lat": 34.057879187034999, "lon": -118.27114875093, "heat_layer": 6.1928, "index_right": 1479, "socioeconomic_layer": 4.0806350335640422, "heat_socio_layer": 10.273435033564041, "heat_socio_public_layer": 1.2185738439613765 }, "geometry": { "type": "Point", "coordinates": [ -13165884.05448904260993, 4036576.437112408224493 ] } },
{ "type": "Feature", "properties": { "OBJECTID": 1168, "stop_id": 19120, "route_count": 3, "route_stop": "DAPIC, MT014, MT035", "lat": 34.032296254597, "lon": -118.26759702925, "heat_layer": 2.8998, "index_right": 1810, "socioeconomic_layer": 3.7749837642375321, "heat_socio_layer": 6.6747837642375316, "heat_socio_public_layer": 1.0375161590124995 }, "geometry": { "type": "Point", "coordinates": [ -13165488.678640183061361, 4033139.448893908411264 ] } },
{ "type": "Feature", "properties": { "OBJECTID": 1170, "stop_id": 18973, "route_count": 3, "route_stop": "MT603, MT910, MT950", "lat": 34.030181932578003, "lon": -118.27304916654001, "heat_layer": 2.8998, "index_right": 1810, "socioeconomic_layer": 3.7749837642375321, "heat_socio_layer": 6.6747837642375316, "heat_socio_public_layer": 1.1766401267611164 }, "geometry": { "type": "Point", "coordinates": [ -13166095.607787042856216, 4032855.442616184707731 ] } },
{ "type": "Feature", "properties": { "OBJECTID": 1484, "stop_id": 20215, "route_count": 3, "route_stop": "MT720, MT053, MT018", "lat": 34.044203443980003, "lon": -118.24391431181, "heat_layer": 2.009, "index_right": 1420, "socioeconomic_layer": 4.2056171163205356, "heat_socio_layer": 6.2146171163205359, "heat_socio_public_layer": 1.6580314046237152 }, "geometry": { "type": "Point", "coordinates": [ -13162852.330594163388014, 4034739.014143196865916 ] } },
{ "type": "Feature", "properties": { "OBJECTID": 1634, "stop_id": 19358, "route_count": 2, "route_stop": "MT004, MT094", "lat": 34.036080965380997, "lon": -118.26343710499, "heat_layer": 5.397, "index_right": 1808, "socioeconomic_layer": 3.5578625043066285, "heat_socio_layer": 8.9548625043066288, "heat_socio_public_layer": 1.188143502596265 }, "geometry": { "type": "Point", "coordinates": [ -13165025.597989823669195, 4033647.847795418463647 ] } },
{ "type": "Feature", "properties": { "OBJECTID": 1718, "stop_id": 20167, "route_count": 3, "route_stop": "MT016, MT053, MT018", "lat": 34.044897494036, "lon": -118.24584081819, "heat_layer": 3.047, "index_right": 1419, "socioeconomic_layer": 4.2611475813781556, "heat_socio_layer": 7.3081475813781562, "heat_socio_public_layer": 1.3873330095912619 }, "geometry": { "type": "Point", "coordinates": [ -13163066.788303393870592, 4034832.257039438933134 ] } },
{ "type": "Feature", "properties": { "OBJECTID": 1739, "stop_id": 20119, "route_count": 2, "route_stop": "MT018, MT053", "lat": 34.043465959434002, "lon": -118.24713718417, "heat_layer": 3.047, "index_right": 1419, "socioeconomic_layer": 4.2611475813781556, "heat_socio_layer": 7.3081475813781562, "heat_socio_public_layer": 1.1898152938976865 }, "geometry": { "type": "Point", "coordinates": [ -13163211.099104167893529, 4034639.936830239370465 ] } },
{ "type": "Feature", "properties": { "OBJECTID": 1740, "stop_id": 20227, "route_count": 2, "route_stop": "MT018, MT053", "lat": 34.041252817627999, "lon": -118.24362843895, "heat_layer": 7.2614, "index_right": 1422, "socioeconomic_layer": 4.5922241777298698, "heat_socio_layer": 11.85362417772987, "heat_socio_public_layer": 1.4540101895923998 }, "geometry": { "type": "Point", "coordinates": [ -13162820.50737295486033, 4034342.617611710913479 ] } },
{ "type": "Feature", "properties": { "OBJECTID": 1764, "stop_id": 20290, "route_count": 2, "route_stop": "MT053, MT018", "lat": 34.043033939588, "lon": -118.24200956897, "heat_layer": 7.2614, "index_right": 1422, "socioeconomic_layer": 4.5922241777298698, "heat_socio_layer": 11.85362417772987, "heat_socio_public_layer": 1.4899963277644854 }, "geometry": { "type": "Point", "coordinates": [ -13162640.295591123402119, 4034581.897552561946213 ] } },
{ "type": "Feature", "properties": { "OBJECTID": 1810, "stop_id": 18965, "route_count": 2, "route_stop": "MT051, DA  E", "lat": 34.054928241178999, "lon": -118.27346997431, "heat_layer": 4.5814, "index_right": 1498, "socioeconomic_layer": 4.205270453721929, "heat_socio_layer": 8.7866704537219285, "heat_socio_public_layer": 1.4933007410845001 }, "geometry": { "type": "Point", "coordinates": [ -13166142.451893720775843, 4036179.933708895463496 ] } },
{ "type": "Feature", "properties": { "OBJECTID": 1811, "stop_id": 19011, "route_count": 2, "route_stop": "MT051, DA  E", "lat": 34.053892026280998, "lon": -118.27115233569, "heat_layer": 4.5814, "index_right": 1498, "socioeconomic_layer": 4.205270453721929, "heat_socio_layer": 8.7866704537219285, "heat_socio_public_layer": 1.14564939423296 }, "geometry": { "type": "Point", "coordinates": [ -13165884.45354270003736, 4036040.706121823750436 ] } }
]
}
