{
"type": "FeatureCollection",
"name": "optimized_shades_Random_Inglewood_10",
"crs": { "type": "name", "properties": { "name": "urn:ogc:def:crs:EPSG::3857" } },
"features": [
{ "type": "Feature", "properties": { "id": "902", "STOPNUM": 1559, "STOPNAME": "Manchester / Hillcrest", "LAT": 33.961673, "LONG": -118.349083, "LINE_DIR1": "115-E", "LINE_DIR2": "212-S", "LINE_DIR3": 0, "LINE_DIR4": 0, "LINE_DIR5": 0, "LINE_DIR6": 0, "LINE_DIR7": 0, "LINE_DIR8": 0, "LINE_DIR9": 0, "LINE_DIR10": 0, "LINE_DIR11": 0, "LINE_DIR12": 0, "LINE_DIR13": 0, "LINE_DIR14": 0, "layer_id": "bus_stops", "feature_name": "Bus Stop", "heat_layer": 2.594, "index_right": 5516, "socioeconomic_layer": 4.1973871381090593, "heat_socio_layer": 6.7913871381090587, "heat_socio_public_layer": 0.77013732532678902 }, "geometry": { "type": "Point", "coordinates": [ -13174559.655410869047046, 4023656.806738825514913 ] } },
{ "type": "Feature", "properties": { "id": "905", "STOPNUM": 1562, "STOPNAME": "Manchester / Market", "LAT": 33.961924, "LONG": -118.351755, "LINE_DIR1": "115-W", "LINE_DIR2": "212-N", "LINE_DIR3": 0, "LINE_DIR4": 0, "LINE_DIR5": 0, "LINE_DIR6": 0, "LINE_DIR7": 0, "LINE_DIR8": 0, "LINE_DIR9": 0, "LINE_DIR10": 0, "LINE_DIR11": 0, "LINE_DIR12": 0, "LINE_DIR13": 0, "LINE_DIR14": 0, "layer_id": "bus_stops", "feature_name": "Bus Stop", "heat_layer": 2.594, "index_right": 5516, "socioeconomic_layer": 4.1973871381090593, "heat_socio_layer": 6.7913871381090587, "heat_socio_public_layer": 1.0268888785273271 }, "geometry": { "type": "Point", "coordinates": [ -13174857.101090271025896, 4023690.494763553142548 ] } },
{ "type": "Feature", "properties": { "id": "907", "STOPNUM": 1564, "STOPNAME": "Manchester / Tamarack", "LAT": 33.959996, "LONG": -118.346576, "LINE_DIR1": "115-E", "LINE_DIR2": "212-S", "LINE_DIR3": 0, "LINE_DIR4": 0, "LINE_DIR5": 0, "LINE_DIR6": 0, "LINE_DIR7": 0, "LINE_DIR8": 0, "LINE_DIR9": 0, "LINE_DIR10": 0, "LINE_DIR11": 0, "LINE_DIR12": 0, "LINE_DIR13": 0, "LINE_DIR14": 0, "layer_id": "bus_stops", "feature_name": "Bus Stop", "heat_layer": 3.546, "index_right": 5519, "socioeconomic_layer": 3.1716335208028519, "heat_socio_layer": 6.7176335208028517, "heat_socio_public_layer": 0.83032801343521401 }, "geometry": { "type": "Point", "coordinates": [ -13174280.577447449788451, 4023431.730335357133299 ] } },
{ "type": "Feature", "properties": { "id": "2961", "STOPNUM": 4917, "STOPNAME": "Crenshaw / Hardy", "LAT": 33.949396, "LONG": -118.326327, "LINE_DIR1": "210-N", "LINE_DIR2": null, "LINE_DIR3": 0, "LINE_DIR4": 0, "LINE_DIR5": 0, "LINE_DIR6": 0, "LINE_DIR7": 0, "LINE_DIR8": 0, "LINE_DIR9": 0, "LINE_DIR10": 0, "LINE_DIR11": 0, "LINE_DIR12": 0, "LINE_DIR13": 0, "LINE_DIR14": 0, "layer_id": "bus_stops", "feature_name": "Bus Stop", "heat_layer": -0.2922, "index_right": 5494, "socioeconomic_layer": 2.9555540014807269, "heat_socio_layer": 2.6633540014807267, "heat_socio_public_layer": 0.58765585051740232 }, "geometry": { "type": "Point", "coordinates": [ -13172026.469078376889229, 4022009.167572614736855 ] } },
{ "type": "Feature", "properties": { "id": "4858", "STOPNUM": 7833, "STOPNAME": "Manchester / Fir", "LAT": 33.961596, "LONG": -118.357528, "LINE_DIR1": "115-E", "LINE_DIR2": "211-S", "LINE_DIR3": 0, "LINE_DIR4": 0, "LINE_DIR5": 0, "LINE_DIR6": 0, "LINE_DIR7": 0, "LINE_DIR8": 0, "LINE_DIR9": 0, "LINE_DIR10": 0, "LINE_DIR11": 0, "LINE_DIR12": 0, "LINE_DIR13": 0, "LINE_DIR14": 0, "layer_id": "bus_stops", "feature_name": "Bus Stop", "heat_layer": 3.3404, "index_right": 5527, "socioeconomic_layer": 3.7653596543338672, "heat_socio_layer": 7.105759654333867, "heat_socio_public_layer": 1.0604855542756282 }, "geometry": { "type": "Point", "coordinates": [ -13175499.748510619625449, 4023646.472185427322984 ] } },
{ "type": "Feature", "properties": { "id": "4859", "STOPNUM": 7834, "STOPNAME": "Manchester / Glasgow", "LAT": 33.960918, "LONG": -118.371976, "LINE_DIR1": "115-E", "LINE_DIR2": null, "LINE_DIR3": 0, "LINE_DIR4": 0, "LINE_DIR5": 0, "LINE_DIR6": 0, "LINE_DIR7": 0, "LINE_DIR8": 0, "LINE_DIR9": 0, "LINE_DIR10": 0, "LINE_DIR11": 0, "LINE_DIR12": 0, "LINE_DIR13": 0, "LINE_DIR14": 0, "layer_id": "bus_stops", "feature_name": "Bus Stop", "heat_layer": 2.958, "index_right": 5543, "socioeconomic_layer": 3.4809276791392252, "heat_socio_layer": 6.4389276791392254, "heat_socio_public_layer": 0.79315141195648098 }, "geometry": { "type": "Point", "coordinates": [ -13177108.092513602226973, 4023555.474833340849727 ] } },
{ "type": "Feature", "properties": { "id": "7526", "STOPNUM": 12862, "STOPNAME": "Prairie / Arbor Vitae", "LAT": 33.952455, "LONG": -118.344078, "LINE_DIR1": "212-S", "LINE_DIR2": "211-S", "LINE_DIR3": 0, "LINE_DIR4": 0, "LINE_DIR5": 0, "LINE_DIR6": 0, "LINE_DIR7": 0, "LINE_DIR8": 0, "LINE_DIR9": 0, "LINE_DIR10": 0, "LINE_DIR11": 0, "LINE_DIR12": 0, "LINE_DIR13": 0, "LINE_DIR14": 0, "layer_id": "bus_stops", "feature_name": "Bus Stop", "heat_layer": 5.408, "index_right": 5520, "socioeconomic_layer": 3.524872244738678, "heat_socio_layer": 8.9328722447386788, "heat_socio_public_layer": 0.94805391811786888 }, "geometry": { "type": "Point", "coordinates": [ -13174002.501359449699521, 4022419.679522497113794 ] } },
{ "type": "Feature", "properties": { "id": "7973", "STOPNUM": 13619, "STOPNAME": "Inglewood / Century", "LAT": 33.945175, "LONG": -118.36117, "LINE_DIR1": "211-S", "LINE_DIR2": null, "LINE_DIR3": 0, "LINE_DIR4": 0, "LINE_DIR5": 0, "LINE_DIR6": 0, "LINE_DIR7": 0, "LINE_DIR8": 0, "LINE_DIR9": 0, "LINE_DIR10": 0, "LINE_DIR11": 0, "LINE_DIR12": 0, "LINE_DIR13": 0, "LINE_DIR14": 0, "layer_id": "bus_stops", "feature_name": "Bus Stop", "heat_layer": 3.341, "index_right": 5548, "socioeconomic_layer": 3.8891534117598185, "heat_socio_layer": 7.2301534117598187, "heat_socio_public_layer": 0.81736678332783264 }, "geometry": { "type": "Point", "coordinates": [ -13175905.174096088856459, 4021442.741671103984118 ] } },
{ "type": "Feature", "properties": { "id": "8196", "STOPNUM": 14003, "STOPNAME": "Van Ness / Arbor Vitae", "LAT": 33.952895, "LONG": -118.31785, "LINE_DIR1": "209-S", "LINE_DIR2": null, "LINE_DIR3": 0, "LINE_DIR4": 0, "LINE_DIR5": 0, "LINE_DIR6": 0, "LINE_DIR7": 0, "LINE_DIR8": 0, "LINE_DIR9": 0, "LINE_DIR10": 0, "LINE_DIR11": 0, "LINE_DIR12": 0, "LINE_DIR13": 0, "LINE_DIR14": 0, "layer_id": "bus_stops", "feature_name": "Bus Stop", "heat_layer": -2.1068, "index_right": 5498, "socioeconomic_layer": 2.9083449995427566, "heat_socio_layer": 0.80154499954275682, "heat_socio_public_layer": 0.47292683513762496 }, "geometry": { "type": "Point", "coordinates": [ -13171082.813754925504327, 4022478.72789494600147 ] } },
{ "type": "Feature", "properties": { "id": "9521", "STOPNUM": 16120, "STOPNAME": "Manchester / Glasgow", "LAT": 33.96114, "LONG": -118.372151, "LINE_DIR1": "115-W", "LINE_DIR2": null, "LINE_DIR3": 0, "LINE_DIR4": 0, "LINE_DIR5": 0, "LINE_DIR6": 0, "LINE_DIR7": 0, "LINE_DIR8": 0, "LINE_DIR9": 0, "LINE_DIR10": 0, "LINE_DIR11": 0, "LINE_DIR12": 0, "LINE_DIR13": 0, "LINE_DIR14": 0, "layer_id": "bus_stops", "feature_name": "Bus Stop", "heat_layer": 2.958, "index_right": 5543, "socioeconomic_layer": 3.4809276791392252, "heat_socio_layer": 6.4389276791392254, "heat_socio_public_layer": 0.79315141195648098 }, "geometry": { "type": "Point", "coordinates": [ -13177127.573424488306046, 4023585.270346645265818 ] } }
]
}
