{
"type": "FeatureCollection",
"name": "optimized_shades_MILPSocio_DTLA_10",
"crs": { "type": "name", "properties": { "name": "urn:ogc:def:crs:EPSG::3857" } },
"features": [
{ "type": "Feature", "properties": { "OBJECTID": 1121, "stop_id": 20024, "route_count": 5, "route_stop": "MT081, MT004, MT010, MT094, MT028", "lat": 34.051669780076999, "lon": -118.24910586359, "heat_layer": -4.0374, "index_right": 1440, "socioeconomic_layer": 4.6396840073877597, "heat_socio_layer": 0.60228400738775978 }, "geometry": { "type": "Point", "coordinates": [ -13163430.251494739204645, 4035742.127099914010614 ] } },
{ "type": "Feature", "properties": { "OBJECTID": 1140, "stop_id": 18861, "route_count": 2, "route_stop": "DAPIC, MT035", "lat": 34.036105450876001, "lon": -118.27585094758, "heat_layer": 1.58, "index_right": 1820, "socioeconomic_layer": 4.6002973851431905, "heat_socio_layer": 6.1802973851431906 }, "geometry": { "type": "Point", "coordinates": [ -13166407.500625729560852, 4033651.136997409164906 ] } },
{ "type": "Feature", "properties": { "OBJECTID": 1150, "stop_id": 19129, "route_count": 2, "route_stop": "DAPIC, MT018", "lat": 34.056222574027998, "lon": -118.26729389211999, "heat_layer": 2.823, "index_right": 1487, "socioeconomic_layer": 4.7619211667069266, "heat_socio_layer": 7.584921166706927 }, "geometry": { "type": "Point", "coordinates": [ -13165454.933569232001901, 4036353.844851277302951 ] } },
{ "type": "Feature", "properties": { "OBJECTID": 1178, "stop_id": 18867, "route_count": 2, "route_stop": "MT603, DA  E", "lat": 34.055926228243997, "lon": -118.27566208983001, "heat_layer": 6.6648, "index_right": 1497, "socioeconomic_layer": 4.6636642360117104, "heat_socio_layer": 11.32846423601171 }, "geometry": { "type": "Point", "coordinates": [ -13166386.477077167481184, 4036314.026548541150987 ] } },
{ "type": "Feature", "properties": { "OBJECTID": 1259, "stop_id": 19921, "route_count": 2, "route_stop": "MT802, MT805", "lat": 34.049612659192, "lon": -118.25126201626, "heat_layer": -4.0374, "index_right": 1440, "socioeconomic_layer": 4.6396840073877597, "heat_socio_layer": 0.60228400738775978 }, "geometry": { "type": "Point", "coordinates": [ -13163670.273312037810683, 4035465.741144480649382 ] } },
{ "type": "Feature", "properties": { "OBJECTID": 1483, "stop_id": 20355, "route_count": 3, "route_stop": "MT720, MT053, MT018", "lat": 34.039026084268002, "lon": -118.23999441142, "heat_layer": 7.2614, "index_right": 1422, "socioeconomic_layer": 4.5922241777298698, "heat_socio_layer": 11.85362417772987 }, "geometry": { "type": "Point", "coordinates": [ -13162415.969278786331415, 4034043.480298414360732 ] } },
{ "type": "Feature", "properties": { "OBJECTID": 1629, "stop_id": 19946, "route_count": 2, "route_stop": "MT004, MT010", "lat": 34.050251750621001, "lon": -118.25049805431, "heat_layer": -4.0374, "index_right": 1440, "socioeconomic_layer": 4.6396840073877597, "heat_socio_layer": 0.60228400738775978 }, "geometry": { "type": "Point", "coordinates": [ -13163585.229456778615713, 4035551.6060148216784 ] } },
{ "type": "Feature", "properties": { "OBJECTID": 1740, "stop_id": 20227, "route_count": 2, "route_stop": "MT018, MT053", "lat": 34.041252817627999, "lon": -118.24362843895, "heat_layer": 7.2614, "index_right": 1422, "socioeconomic_layer": 4.5922241777298698, "heat_socio_layer": 11.85362417772987 }, "geometry": { "type": "Point", "coordinates": [ -13162820.50737295486033, 4034342.617611710913479 ] } },
{ "type": "Feature", "properties": { "OBJECTID": 1764, "stop_id": 20290, "route_count": 2, "route_stop": "MT053, MT018", "lat": 34.043033939588, "lon": -118.24200956897, "heat_layer": 7.2614, "index_right": 1422, "socioeconomic_layer": 4.5922241777298698, "heat_socio_layer": 11.85362417772987 }, "geometry": { "type": "Point", "coordinates": [ -13162640.295591123402119, 4034581.897552561946213 ] } },
{ "type": "Feature", "properties": { "OBJECTID": 1773, "stop_id": 20476, "route_count": 2, "route_stop": "MT018, MT720", "lat": 34.038163599628, "lon": -118.23843399127, "heat_layer": 7.2614, "index_right": 1422, "socioeconomic_layer": 4.5922241777298698, "heat_socio_layer": 11.85362417772987 }, "geometry": { "type": "Point", "coordinates": [ -13162242.264102265238762, 4033927.617014450952411 ] } }
]
}
