{
"type": "FeatureCollection",
"name": "optimized_shades_Major Transit_DTLA_50",
"crs": { "type": "name", "properties": { "name": "urn:ogc:def:crs:EPSG::3857" } },
"features": [
{ "type": "Feature", "properties": { "OBJECTID": 992, "stop_id": 20550, "route_count": 7, "route_stop": "MT078, MT040, MT076, MT033, MT106, MT070, MT028", "lat": 34.058085535017, "lon": -118.23707111573, "heat_layer": 0.563, "index_right": 1408, "socioeconomic_layer": 2.7759465506022822, "heat_socio_layer": 3.338946550602282 }, "geometry": { "type": "Point", "coordinates": [ -13162090.549491137266159, 4036604.163544872310013 ] } },
{ "type": "Feature", "properties": { "OBJECTID": 1011, "stop_id": 19689, "route_count": 10, "route_stop": "MT078, MT014, MT076, MT016, MT020, MT018, MT070, MT053, MT055, MT060", "lat": 34.048733145010999, "lon": -118.25528678084, "heat_layer": -8.3606, "index_right": 1444, "socioeconomic_layer": 2.5669514830171973, "heat_socio_layer": -5.7936485169828025 }, "geometry": { "type": "Point", "coordinates": [ -13164118.308055642992258, 4035347.575430816505104 ] } },
{ "type": "Feature", "properties": { "OBJECTID": 1017, "stop_id": 19233, "route_count": 3, "route_stop": "MT078, MT076, MT070", "lat": 34.037206078775, "lon": -118.26538145769, "heat_layer": 5.397, "index_right": 1808, "socioeconomic_layer": 3.5578625043066285, "heat_socio_layer": 8.9548625043066288 }, "geometry": { "type": "Point", "coordinates": [ -13165242.042342307046056, 4033798.988265440333635 ] } },
{ "type": "Feature", "properties": { "OBJECTID": 1042, "stop_id": 19187, "route_count": 3, "route_stop": "MT040, MT035, MT045", "lat": 34.031456756674999, "lon": -118.26574278011, "heat_layer": 6.5238, "index_right": 1811, "socioeconomic_layer": 4.1759712630451817, "heat_socio_layer": 10.699771263045182 }, "geometry": { "type": "Point", "coordinates": [ -13165282.26457011513412, 4033026.682499269489199 ] } },
{ "type": "Feature", "properties": { "OBJECTID": 1053, "stop_id": 20693, "route_count": 3, "route_stop": "MT040, MT033, DA  D", "lat": 34.055191666009001, "lon": -118.23302529641001, "heat_layer": 0.563, "index_right": 1408, "socioeconomic_layer": 2.7759465506022822, "heat_socio_layer": 3.338946550602282 }, "geometry": { "type": "Point", "coordinates": [ -13161640.170944595709443, 4036215.328186116646975 ] } },
{ "type": "Feature", "properties": { "OBJECTID": 1056, "stop_id": 19604, "route_count": 3, "route_stop": "MT040, MT045, MT055", "lat": 34.040467309901999, "lon": -118.25670732515, "heat_layer": 2.222, "index_right": 1447, "socioeconomic_layer": 2.8582636218966657, "heat_socio_layer": 5.0802636218966661 }, "geometry": { "type": "Point", "coordinates": [ -13164276.442324884235859, 4034237.092329094652086 ] } },
{ "type": "Feature", "properties": { "OBJECTID": 1110, "stop_id": 18793, "route_count": 2, "route_stop": "MT081, DA  F", "lat": 34.025048598205998, "lon": -118.27800915077999, "heat_layer": 0.8752, "index_right": 1825, "socioeconomic_layer": 3.700850923195929, "heat_socio_layer": 4.576050923195929 }, "geometry": { "type": "Point", "coordinates": [ -13166647.750706981867552, 4032165.936991329304874 ] } },
{ "type": "Feature", "properties": { "OBJECTID": 1112, "stop_id": 18907, "route_count": 4, "route_stop": "MT081, MT603, MT910, DA  F", "lat": 34.030750490658001, "lon": -118.27437119947, "heat_layer": -1.5528, "index_right": 1821, "socioeconomic_layer": 4.3877959607664865, "heat_socio_layer": 2.8349959607664865 }, "geometry": { "type": "Point", "coordinates": [ -13166242.775819620117545, 4032931.813477199990302 ] } },
{ "type": "Feature", "properties": { "OBJECTID": 1114, "stop_id": 19037, "route_count": 3, "route_stop": "MT081, MT033, DA  F", "lat": 34.037497933960999, "lon": -118.27007599331, "heat_layer": 1.8752, "index_right": 1809, "socioeconomic_layer": 3.2906005355624188, "heat_socio_layer": 5.1658005355624184 }, "geometry": { "type": "Point", "coordinates": [ -13165764.635657038539648, 4033838.194534469861537 ] } },
{ "type": "Feature", "properties": { "OBJECTID": 1116, "stop_id": 19138, "route_count": 2, "route_stop": "MT081, DA  F", "lat": 34.041912616048997, "lon": -118.26687848164001, "heat_layer": -4.5012, "index_right": 1442, "socioeconomic_layer": 2.2883277220234759, "heat_socio_layer": -2.212872277976524 }, "geometry": { "type": "Point", "coordinates": [ -13165408.690286129713058, 4034431.255833578296006 ] } },
{ "type": "Feature", "properties": { "OBJECTID": 1119, "stop_id": 19677, "route_count": 5, "route_stop": "MT081, MT004, MT010, MT066, MT028", "lat": 34.044464616535002, "lon": -118.2558052161, "heat_layer": -5.6296, "index_right": 1443, "socioeconomic_layer": 3.2489288387736637, "heat_socio_layer": -2.3806711612263363 }, "geometry": { "type": "Point", "coordinates": [ -13164176.02000479772687, 4034774.101559561677277 ] } },
{ "type": "Feature", "properties": { "OBJECTID": 1123, "stop_id": 20348, "route_count": 3, "route_stop": "MT081, MT090, MT094", "lat": 34.060733226433001, "lon": -118.24048259384, "heat_layer": 1.9144, "index_right": 1425, "socioeconomic_layer": 4.2907955447235571, "heat_socio_layer": 6.2051955447235567 }, "geometry": { "type": "Point", "coordinates": [ -13162470.313497196882963, 4036959.932826130650938 ] } },
{ "type": "Feature", "properties": { "OBJECTID": 1125, "stop_id": 20468, "route_count": 4, "route_stop": "MT081, MT090, MT094, DA  B", "lat": 34.064440876143998, "lon": -118.23870369244, "heat_layer": 3.9106, "index_right": 1427, "socioeconomic_layer": 4.2601086467671427, "heat_socio_layer": 8.1707086467671424 }, "geometry": { "type": "Point", "coordinates": [ -13162272.287099175155163, 4037458.146977577358484 ] } },
{ "type": "Feature", "properties": { "OBJECTID": 1135, "stop_id": 19376, "route_count": 6, "route_stop": "MT081, FZ707, MT910, MT950, MT028, DA  F", "lat": 34.044386402523998, "lon": -118.26279645539, "heat_layer": -5.3748, "index_right": 1445, "socioeconomic_layer": 3.3387612110681228, "heat_socio_layer": -2.0360387889318767 }, "geometry": { "type": "Point", "coordinates": [ -13164954.28120257332921, 4034763.593830178491771 ] } },
{ "type": "Feature", "properties": { "OBJECTID": 1141, "stop_id": 18803, "route_count": 2, "route_stop": "DAPIC, MT035", "lat": 34.036903750706003, "lon": -118.27762934909001, "heat_layer": 1.2426, "index_right": 1818, "socioeconomic_layer": 3.3345767925953593, "heat_socio_layer": 4.5771767925953597 }, "geometry": { "type": "Point", "coordinates": [ -13166605.471376249566674, 4033758.375267410185188 ] } },
{ "type": "Feature", "properties": { "OBJECTID": 1145, "stop_id": 18925, "route_count": 2, "route_stop": "DAPIC, MT028", "lat": 34.049213795207002, "lon": -118.27419075956, "heat_layer": 2.8174, "index_right": 1502, "socioeconomic_layer": 4.3621861962603683, "heat_socio_layer": 7.1795861962603684 }, "geometry": { "type": "Point", "coordinates": [ -13166222.689340719953179, 4035412.152263194322586 ] } },
{ "type": "Feature", "properties": { "OBJECTID": 1147, "stop_id": 18905, "route_count": 2, "route_stop": "DAPIC, MT066", "lat": 34.053378890112, "lon": -118.2744850233, "heat_layer": 4.5814, "index_right": 1498, "socioeconomic_layer": 4.205270453721929, "heat_socio_layer": 8.7866704537219285 }, "geometry": { "type": "Point", "coordinates": [ -13166255.446630416437984, 4035971.76090792985633 ] } },
{ "type": "Feature", "properties": { "OBJECTID": 1148, "stop_id": 18987, "route_count": 2, "route_stop": "DAPIC, MT018", "lat": 34.058477933428001, "lon": -118.27249771919, "heat_layer": 3.797, "index_right": 1478, "socioeconomic_layer": 4.5109568252363301, "heat_socio_layer": 8.3079568252363298 }, "geometry": { "type": "Point", "coordinates": [ -13166034.220948839560151, 4036656.889267528429627 ] } },
{ "type": "Feature", "properties": { "OBJECTID": 1150, "stop_id": 19129, "route_count": 2, "route_stop": "DAPIC, MT018", "lat": 34.056222574027998, "lon": -118.26729389211999, "heat_layer": 2.823, "index_right": 1487, "socioeconomic_layer": 4.7619211667069266, "heat_socio_layer": 7.584921166706927 }, "geometry": { "type": "Point", "coordinates": [ -13165454.933569232001901, 4036353.844851277302951 ] } },
{ "type": "Feature", "properties": { "OBJECTID": 1153, "stop_id": 19406, "route_count": 2, "route_stop": "DAPIC, MT016", "lat": 34.058301360493999, "lon": -118.26163510700999, "heat_layer": 0.6536, "index_right": 1485, "socioeconomic_layer": 4.181205680169124, "heat_socio_layer": 4.8348056801691239 }, "geometry": { "type": "Point", "coordinates": [ -13164825.000492276623845, 4036633.163515490014106 ] } },
{ "type": "Feature", "properties": { "OBJECTID": 1158, "stop_id": 19004, "route_count": 2, "route_stop": "DAPIC, MT002", "lat": 34.064811283255999, "lon": -118.27149149362999, "heat_layer": 2.4106, "index_right": 1457, "socioeconomic_layer": 4.1232843841669702, "heat_socio_layer": 6.5338843841669707 }, "geometry": { "type": "Point", "coordinates": [ -13165922.208431877195835, 4037507.92150316061452 ] } },
{ "type": "Feature", "properties": { "OBJECTID": 1160, "stop_id": 19200, "route_count": 2, "route_stop": "DAPIC, MT014", "lat": 34.064612534508001, "lon": -118.26571933676, "heat_layer": 3.5222, "index_right": 1453, "socioeconomic_layer": 3.3851919913826283, "heat_socio_layer": 6.907391991382628 }, "geometry": { "type": "Point", "coordinates": [ -13165279.654868330806494, 4037481.214039018377662 ] } },
{ "type": "Feature", "properties": { "OBJECTID": 1163, "stop_id": 19583, "route_count": 2, "route_stop": "DAPIC, MT004", "lat": 34.076756997429001, "lon": -118.25734706454, "heat_layer": -0.5886, "index_right": 1288, "socioeconomic_layer": 2.7996481684560739, "heat_socio_layer": 2.2110481684560739 }, "geometry": { "type": "Point", "coordinates": [ -13164347.657788019627333, 4039113.278028688393533 ] } },
{ "type": "Feature", "properties": { "OBJECTID": 1180, "stop_id": 18814, "route_count": 2, "route_stop": "MT603, MT018", "lat": 34.060459974948998, "lon": -118.27696465968, "heat_layer": -0.9882, "index_right": 1474, "socioeconomic_layer": 3.8429294959525881, "heat_socio_layer": 2.8547294959525882 }, "geometry": { "type": "Point", "coordinates": [ -13166531.478489592671394, 4036923.215614579152316 ] } },
{ "type": "Feature", "properties": { "OBJECTID": 1183, "stop_id": 18742, "route_count": 2, "route_stop": "MT603, MT016", "lat": 34.066250828428998, "lon": -118.27887579030001, "heat_layer": 4.6246, "index_right": 1469, "socioeconomic_layer": 3.3595049139848268, "heat_socio_layer": 7.9841049139848268 }, "geometry": { "type": "Point", "coordinates": [ -13166744.224577048793435, 4037701.366609828080982 ] } },
{ "type": "Feature", "properties": { "OBJECTID": 1184, "stop_id": 18889, "route_count": 2, "route_stop": "MT603, MT010", "lat": 34.072533381386997, "lon": -118.27487478635, "heat_layer": 2.0218, "index_right": 1267, "socioeconomic_layer": 3.1803655974982648, "heat_socio_layer": 5.202165597498265 }, "geometry": { "type": "Point", "coordinates": [ -13166298.834854671731591, 4038545.650300251320004 ] } },
{ "type": "Feature", "properties": { "OBJECTID": 1185, "stop_id": 19093, "route_count": 3, "route_stop": "MT603, MT004, MT002", "lat": 34.079509704826002, "lon": -118.26899968334, "heat_layer": 1.6512, "index_right": 1261, "socioeconomic_layer": 2.9690946177193887, "heat_socio_layer": 4.6202946177193889 }, "geometry": { "type": "Point", "coordinates": [ -13165644.821379240602255, 4039483.240018593613058 ] } },
{ "type": "Feature", "properties": { "OBJECTID": 1187, "stop_id": 19361, "route_count": 3, "route_stop": "MT603, MT004, MT002", "lat": 34.077614903078, "lon": -118.26345564354, "heat_layer": 1.5778, "index_right": 1264, "socioeconomic_layer": 3.2960642885673854, "heat_socio_layer": 4.8738642885673853 }, "geometry": { "type": "Point", "coordinates": [ -13165027.661691768094897, 4039228.578670911490917 ] } },
{ "type": "Feature", "properties": { "OBJECTID": 1486, "stop_id": 19937, "route_count": 4, "route_stop": "MT720, MT004, MT045, MT055", "lat": 34.048086016391998, "lon": -118.25069954135, "heat_layer": -2.3792, "index_right": 1432, "socioeconomic_layer": 2.0400542158268973, "heat_socio_layer": -0.3391457841731027 }, "geometry": { "type": "Point", "coordinates": [ -13163607.658891471102834, 4035260.632288416381925 ] } },
{ "type": "Feature", "properties": { "OBJECTID": 1501, "stop_id": 18988, "route_count": 2, "route_stop": "MT014, MT055", "lat": 34.026474061038002, "lon": -118.27227800591, "heat_layer": 6.995, "index_right": 1823, "socioeconomic_layer": 4.0012046941292949, "heat_socio_layer": 10.996204694129295 }, "geometry": { "type": "Point", "coordinates": [ -13166009.762578390538692, 4032357.399907297454774 ] } },
{ "type": "Feature", "properties": { "OBJECTID": 1547, "stop_id": 19967, "route_count": 3, "route_stop": "FZ707, MT055, MT060", "lat": 34.054509546233, "lon": -118.24984392384999, "heat_layer": -3.6198, "index_right": 1437, "socioeconomic_layer": 3.0344124037054612, "heat_socio_layer": -0.58538759629453896 }, "geometry": { "type": "Point", "coordinates": [ -13163512.411987056955695, 4036123.67694257479161 ] } },
{ "type": "Feature", "properties": { "OBJECTID": 1627, "stop_id": 20156, "route_count": 3, "route_stop": "MT004, MT055, MT060", "lat": 34.062677990605003, "lon": -118.24629587781, "heat_layer": 2.6026, "index_right": 1423, "socioeconomic_layer": 3.6099212279158577, "heat_socio_layer": 6.2125212279158575 }, "geometry": { "type": "Point", "coordinates": [ -13163117.44530857168138, 4037221.257123042363673 ] } },
{ "type": "Feature", "properties": { "OBJECTID": 1632, "stop_id": 19421, "route_count": 2, "route_stop": "MT004, MT094", "lat": 34.038737646366997, "lon": -118.26113823832, "heat_layer": 2.222, "index_right": 1447, "socioeconomic_layer": 2.8582636218966657, "heat_socio_layer": 5.0802636218966661 }, "geometry": { "type": "Point", "coordinates": [ -13164769.689322715625167, 4034004.732390374410897 ] } },
{ "type": "Feature", "properties": { "OBJECTID": 1666, "stop_id": 19014, "route_count": 2, "route_stop": "MT910, MT950", "lat": 34.033802903375999, "lon": -118.27092551569, "heat_layer": 2.8998, "index_right": 1810, "socioeconomic_layer": 3.7749837642375321, "heat_socio_layer": 6.6747837642375316 }, "geometry": { "type": "Point", "coordinates": [ -13165859.204055795446038, 4033341.833790314383805 ] } },
{ "type": "Feature", "properties": { "OBJECTID": 1694, "stop_id": 19111, "route_count": 2, "route_stop": "MT002, MT010", "lat": 34.070262577445, "lon": -118.26801236502, "heat_layer": 0.6584, "index_right": 1458, "socioeconomic_layer": 3.39339720313273, "heat_socio_layer": 4.0517972031327298 }, "geometry": { "type": "Point", "coordinates": [ -13165534.9136066082865, 4038240.480071374680847 ] } },
{ "type": "Feature", "properties": { "OBJECTID": 1718, "stop_id": 20167, "route_count": 3, "route_stop": "MT016, MT053, MT018", "lat": 34.044897494036, "lon": -118.24584081819, "heat_layer": 3.047, "index_right": 1419, "socioeconomic_layer": 4.2611475813781556, "heat_socio_layer": 7.3081475813781562 }, "geometry": { "type": "Point", "coordinates": [ -13163066.788303393870592, 4034832.257039438933134 ] } },
{ "type": "Feature", "properties": { "OBJECTID": 1731, "stop_id": 19389, "route_count": 2, "route_stop": "MT020, MT018", "lat": 34.054052059218002, "lon": -118.26214343392, "heat_layer": -3.8102, "index_right": 1489, "socioeconomic_layer": 2.78190352021248, "heat_socio_layer": -1.02829647978752 }, "geometry": { "type": "Point", "coordinates": [ -13164881.587185055017471, 4036062.208306907210499 ] } },
{ "type": "Feature", "properties": { "OBJECTID": 1741, "stop_id": 20346, "route_count": 2, "route_stop": "MT018, MT720", "lat": 34.039341029018999, "lon": -118.24052674039, "heat_layer": 7.2614, "index_right": 1422, "socioeconomic_layer": 4.5922241777298698, "heat_socio_layer": 11.85362417772987 }, "geometry": { "type": "Point", "coordinates": [ -13162475.227868661284447, 4034085.789210012648255 ] } },
{ "type": "Feature", "properties": { "OBJECTID": 1803, "stop_id": 20154, "route_count": 2, "route_stop": "MT040, DA  D", "lat": 34.050969305628001, "lon": -118.24631423018999, "heat_layer": -2.3792, "index_right": 1432, "socioeconomic_layer": 2.0400542158268973, "heat_socio_layer": -0.3391457841731027 }, "geometry": { "type": "Point", "coordinates": [ -13163119.488286169245839, 4035648.01359875081107 ] } },
{ "type": "Feature", "properties": { "OBJECTID": 1817, "stop_id": 19993, "route_count": 2, "route_stop": "MT051, MT060", "lat": 34.042442091550001, "lon": -118.24928304847001, "heat_layer": 7.4758, "index_right": 1827, "socioeconomic_layer": 2.8409808997107788, "heat_socio_layer": 10.316780899710778 }, "geometry": { "type": "Point", "coordinates": [ -13163449.975625358521938, 4034502.386794934049249 ] } },
{ "type": "Feature", "properties": { "OBJECTID": 1819, "stop_id": 19798, "route_count": 2, "route_stop": "MT051, DA  E", "lat": 34.032767989219998, "lon": -118.25402018547, "heat_layer": 7.4758, "index_right": 1827, "socioeconomic_layer": 2.8409808997107788, "heat_socio_layer": 10.316780899710778 }, "geometry": { "type": "Point", "coordinates": [ -13163977.31130401417613, 4033202.815606727730483 ] } },
{ "type": "Feature", "properties": { "OBJECTID": 1821, "stop_id": 19515, "route_count": 2, "route_stop": "MT051, DA  E", "lat": 34.025836405854001, "lon": -118.25859969463001, "heat_layer": 6.601, "index_right": 1830, "socioeconomic_layer": 4.0418143881437949, "heat_socio_layer": 10.642814388143794 }, "geometry": { "type": "Point", "coordinates": [ -13164487.099931791424751, 4032271.752014653291553 ] } },
{ "type": "Feature", "properties": { "OBJECTID": 1822, "stop_id": 19412, "route_count": 2, "route_stop": "MT051, MT055", "lat": 34.021571381373001, "lon": -118.26131238422001, "heat_layer": 6.601, "index_right": 1830, "socioeconomic_layer": 4.0418143881437949, "heat_socio_layer": 10.642814388143794 }, "geometry": { "type": "Point", "coordinates": [ -13164789.075155628845096, 4031698.90352718019858 ] } },
{ "type": "Feature", "properties": { "OBJECTID": 1832, "stop_id": 19185, "route_count": 3, "route_stop": "MT051, DA  E, DA  A", "lat": 34.051493975858001, "lon": -118.26583283255, "heat_layer": -3.8072, "index_right": 1493, "socioeconomic_layer": 3.4183460869043132, "heat_socio_layer": -0.38885391309568673 }, "geometry": { "type": "Point", "coordinates": [ -13165292.289161881431937, 4035718.506535610649735 ] } },
{ "type": "Feature", "properties": { "OBJECTID": 1836, "stop_id": 19415, "route_count": 2, "route_stop": "MT066, DA  F", "lat": 34.047956500261002, "lon": -118.26124293655, "heat_layer": -4.5012, "index_right": 1442, "socioeconomic_layer": 2.2883277220234759, "heat_socio_layer": -2.212872277976524 }, "geometry": { "type": "Point", "coordinates": [ -13164781.344276366755366, 4035243.231593223288655 ] } },
{ "type": "Feature", "properties": { "OBJECTID": 1958, "stop_id": 20465, "route_count": 2, "route_stop": "MT801, MT804", "lat": 34.048832820290002, "lon": -118.23880111331999, "heat_layer": 3.886, "index_right": 1418, "socioeconomic_layer": 4.0514704839207818, "heat_socio_layer": 7.9374704839207819 }, "geometry": { "type": "Point", "coordinates": [ -13162283.131941929459572, 4035360.967081078328192 ] } },
{ "type": "Feature", "properties": { "OBJECTID": 1963, "stop_id": 20298, "route_count": 3, "route_stop": "MT033, DA  D, DA  B", "lat": 34.054075527221997, "lon": -118.24167175562999, "heat_layer": -3.6198, "index_right": 1437, "socioeconomic_layer": 3.0344124037054612, "heat_socio_layer": -0.58538759629453896 }, "geometry": { "type": "Point", "coordinates": [ -13162602.690382128581405, 4036065.361494751647115 ] } },
{ "type": "Feature", "properties": { "OBJECTID": 1973, "stop_id": 19914, "route_count": 2, "route_stop": "MT055, DA  A", "lat": 34.058367160971997, "lon": -118.25135433993999, "heat_layer": -3.6198, "index_right": 1437, "socioeconomic_layer": 3.0344124037054612, "heat_socio_layer": -0.58538759629453896 }, "geometry": { "type": "Point", "coordinates": [ -13163680.550737082958221, 4036642.004988355562091 ] } },
{ "type": "Feature", "properties": { "OBJECTID": 1974, "stop_id": 20151, "route_count": 3, "route_stop": "MT055, MT060, DA  B", "lat": 34.058143718567997, "lon": -118.246441002, "heat_layer": -3.6198, "index_right": 1437, "socioeconomic_layer": 3.0344124037054612, "heat_socio_layer": -0.58538759629453896 }, "geometry": { "type": "Point", "coordinates": [ -13163133.600459506735206, 4036611.981526899617165 ] } },
{ "type": "Feature", "properties": { "OBJECTID": 1995, "stop_id": 19588, "route_count": 2, "route_stop": "DA  A, DA  F", "lat": 34.052260204451002, "lon": -118.25714626617, "heat_layer": -8.6848, "index_right": 1441, "socioeconomic_layer": 3.8868018623141598, "heat_socio_layer": -4.7979981376858394 }, "geometry": { "type": "Point", "coordinates": [ -13164325.305015716701746, 4035821.45522977784276 ] } }
]
}
