{
"type": "FeatureCollection",
"name": "optimized_shades_GreedyHeat_DTLA_20",
"crs": { "type": "name", "properties": { "name": "urn:ogc:def:crs:EPSG::3857" } },
"features": [
{ "type": "Feature", "properties": { "OBJECTID": 1725, "stop_id": 20212, "route_count": 2, "route_stop": "MT066, MT053", "lat": 34.032029917416999, "lon": -118.24416267286, "heat_layer": 7.5664, "index_right": 1828, "socioeconomic_layer": 3.8850682986319809, "heat_socio_layer": 11.45146829863198, "heat_socio_public_layer": 0.99999999938466078 }, "geometry": { "type": "Point", "coordinates": [ -13162879.978019781410694, 4033103.672766049392521 ] } },
{ "type": "Feature", "properties": { "OBJECTID": 1762, "stop_id": 20327, "route_count": 2, "route_stop": "MT053, MT060", "lat": 34.036770450637, "lon": -118.24119269033, "heat_layer": 7.5664, "index_right": 1828, "socioeconomic_layer": 3.8850682986319809, "heat_socio_layer": 11.45146829863198, "heat_socio_public_layer": 0.99999999938466078 }, "geometry": { "type": "Point", "coordinates": [ -13162549.361076878383756, 4033740.468555814120919 ] } },
{ "type": "Feature", "properties": { "OBJECTID": 1724, "stop_id": 19950, "route_count": 2, "route_stop": "MT066, MT051", "lat": 34.037276685477998, "lon": -118.250333787, "heat_layer": 7.4758, "index_right": 1827, "socioeconomic_layer": 2.8409808997107788, "heat_socio_layer": 10.316780899710778, "heat_socio_public_layer": 0.99442502646301512 }, "geometry": { "type": "Point", "coordinates": [ -13163566.943303473293781, 4033808.473180959001184 ] } },
{ "type": "Feature", "properties": { "OBJECTID": 1817, "stop_id": 19993, "route_count": 2, "route_stop": "MT051, MT060", "lat": 34.042442091550001, "lon": -118.24928304847001, "heat_layer": 7.4758, "index_right": 1827, "socioeconomic_layer": 2.8409808997107788, "heat_socio_layer": 10.316780899710778, "heat_socio_public_layer": 0.99442502646301512 }, "geometry": { "type": "Point", "coordinates": [ -13163449.975625358521938, 4034502.386794934049249 ] } },
{ "type": "Feature", "properties": { "OBJECTID": 1819, "stop_id": 19798, "route_count": 2, "route_stop": "MT051, DA  E", "lat": 34.032767989219998, "lon": -118.25402018547, "heat_layer": 7.4758, "index_right": 1827, "socioeconomic_layer": 2.8409808997107788, "heat_socio_layer": 10.316780899710778, "heat_socio_public_layer": 1.3279081631703851 }, "geometry": { "type": "Point", "coordinates": [ -13163977.31130401417613, 4033202.815606727730483 ] } },
{ "type": "Feature", "properties": { "OBJECTID": 1820, "stop_id": 19572, "route_count": 2, "route_stop": "MT051, DA  E", "lat": 34.027627705863999, "lon": -118.25745671823999, "heat_layer": 7.4568, "index_right": 1826, "socioeconomic_layer": 4.4925893809188828, "heat_socio_layer": 11.949389380918884, "heat_socio_public_layer": 1.1571037384396821 }, "geometry": { "type": "Point", "coordinates": [ -13164359.86438206396997, 4032512.355584840290248 ] } },
{ "type": "Feature", "properties": { "OBJECTID": 1740, "stop_id": 20227, "route_count": 2, "route_stop": "MT018, MT053", "lat": 34.041252817627999, "lon": -118.24362843895, "heat_layer": 7.2614, "index_right": 1422, "socioeconomic_layer": 4.5922241777298698, "heat_socio_layer": 11.85362417772987, "heat_socio_public_layer": 1.4540101895923998 }, "geometry": { "type": "Point", "coordinates": [ -13162820.50737295486033, 4034342.617611710913479 ] } },
{ "type": "Feature", "properties": { "OBJECTID": 1039, "stop_id": 18997, "route_count": 2, "route_stop": "MT040, MT045", "lat": 34.022265491713, "lon": -118.27176599806, "heat_layer": 6.995, "index_right": 1823, "socioeconomic_layer": 4.0012046941292949, "heat_socio_layer": 10.996204694129295, "heat_socio_public_layer": 1.1450094103895756 }, "geometry": { "type": "Point", "coordinates": [ -13165952.766125245019794, 4031792.129649397451431 ] } },
{ "type": "Feature", "properties": { "OBJECTID": 1501, "stop_id": 18988, "route_count": 2, "route_stop": "MT014, MT055", "lat": 34.026474061038002, "lon": -118.27227800591, "heat_layer": 6.995, "index_right": 1823, "socioeconomic_layer": 4.0012046941292949, "heat_socio_layer": 10.996204694129295, "heat_socio_public_layer": 0.96483951894946873 }, "geometry": { "type": "Point", "coordinates": [ -13166009.762578390538692, 4032357.399907297454774 ] } },
{ "type": "Feature", "properties": { "OBJECTID": 1156, "stop_id": 19034, "route_count": 2, "route_stop": "DAPIC, MT016", "lat": 34.061868472157002, "lon": -118.27019759282, "heat_layer": 6.719, "index_right": 1483, "socioeconomic_layer": 4.4870798736572794, "heat_socio_layer": 11.206079873657281, "heat_socio_public_layer": 0.94785615773121001 }, "geometry": { "type": "Point", "coordinates": [ -13165778.172052573412657, 4037112.478763583116233 ] } },
{ "type": "Feature", "properties": { "OBJECTID": 1178, "stop_id": 18867, "route_count": 2, "route_stop": "MT603, DA  E", "lat": 34.055926228243997, "lon": -118.27566208983001, "heat_layer": 6.6648, "index_right": 1497, "socioeconomic_layer": 4.6636642360117104, "heat_socio_layer": 11.32846423601171, "heat_socio_public_layer": 1.1034624870863305 }, "geometry": { "type": "Point", "coordinates": [ -13166386.477077167481184, 4036314.026548541150987 ] } },
{ "type": "Feature", "properties": { "OBJECTID": 1822, "stop_id": 19412, "route_count": 2, "route_stop": "MT051, MT055", "lat": 34.021571381373001, "lon": -118.26131238422001, "heat_layer": 6.601, "index_right": 1830, "socioeconomic_layer": 4.0418143881437949, "heat_socio_layer": 10.642814388143794, "heat_socio_public_layer": 0.94059515547122974 }, "geometry": { "type": "Point", "coordinates": [ -13164789.075155628845096, 4031698.90352718019858 ] } },
{ "type": "Feature", "properties": { "OBJECTID": 1041, "stop_id": 19133, "route_count": 2, "route_stop": "MT040, MT045", "lat": 34.029412087349002, "lon": -118.26710594991, "heat_layer": 6.5238, "index_right": 1811, "socioeconomic_layer": 4.1759712630451817, "heat_socio_layer": 10.699771263045182, "heat_socio_public_layer": 0.9358447370435139 }, "geometry": { "type": "Point", "coordinates": [ -13165434.011938117444515, 4032752.034923374187201 ] } },
{ "type": "Feature", "properties": { "OBJECTID": 1166, "stop_id": 19012, "route_count": 2, "route_stop": "DAPIC, MT018", "lat": 34.057879187034999, "lon": -118.27114875093, "heat_layer": 6.1928, "index_right": 1479, "socioeconomic_layer": 4.0806350335640422, "heat_socio_layer": 10.273435033564041, "heat_socio_public_layer": 1.2185738439613765 }, "geometry": { "type": "Point", "coordinates": [ -13165884.05448904260993, 4036576.437112408224493 ] } },
{ "type": "Feature", "properties": { "OBJECTID": 980, "stop_id": 19230, "route_count": 5, "route_stop": "MT078, MT014, MT076, MT033, MT070", "lat": 34.035211072109, "lon": -118.26540813718, "heat_layer": 5.397, "index_right": 1808, "socioeconomic_layer": 3.5578625043066285, "heat_socio_layer": 8.9548625043066288, "heat_socio_public_layer": 1.0441535669944586 }, "geometry": { "type": "Point", "coordinates": [ -13165245.012289550155401, 4033530.993323077447712 ] } },
{ "type": "Feature", "properties": { "OBJECTID": 1016, "stop_id": 19304, "route_count": 5, "route_stop": "MT078, MT014, MT076, MT030, MT070", "lat": 34.038881904618997, "lon": -118.26429752009, "heat_layer": 5.397, "index_right": 1808, "socioeconomic_layer": 3.5578625043066285, "heat_socio_layer": 8.9548625043066288, "heat_socio_public_layer": 0.86650831885244894 }, "geometry": { "type": "Point", "coordinates": [ -13165121.378960624337196, 4034024.111607572529465 ] } },
{ "type": "Feature", "properties": { "OBJECTID": 1709, "stop_id": 19446, "route_count": 3, "route_stop": "MT010, MT033, MT055", "lat": 34.036351445328997, "lon": -118.26035513578, "heat_layer": 5.397, "index_right": 1808, "socioeconomic_layer": 3.5578625043066285, "heat_socio_layer": 8.9548625043066288, "heat_socio_public_layer": 1.0211832961705269 }, "geometry": { "type": "Point", "coordinates": [ -13164682.514746723696589, 4033684.182142477016896 ] } },
{ "type": "Feature", "properties": { "OBJECTID": 1144, "stop_id": 18815, "route_count": 2, "route_stop": "DAPIC, MT030", "lat": 34.044635145834, "lon": -118.27690897756, "heat_layer": 5.174, "index_right": 1816, "socioeconomic_layer": 4.3236445329102189, "heat_socio_layer": 9.4976445329102184, "heat_socio_public_layer": 1.3740141712416634 }, "geometry": { "type": "Point", "coordinates": [ -13166525.279984347522259, 4034797.011500256601721 ] } },
{ "type": "Feature", "properties": { "OBJECTID": 1695, "stop_id": 18723, "route_count": 2, "route_stop": "MT002, MT028", "lat": 34.051726106794, "lon": -118.27984747001, "heat_layer": 5.0372, "index_right": 1500, "socioeconomic_layer": 4.5491144189991699, "heat_socio_layer": 9.5863144189991694, "heat_socio_public_layer": 0.84436841535125506 }, "geometry": { "type": "Point", "coordinates": [ -13166852.391467580571771, 4035749.695010797586292 ] } },
{ "type": "Feature", "properties": { "OBJECTID": 1812, "stop_id": 19116, "route_count": 3, "route_stop": "MT051, DA  E, DA  A", "lat": 34.052330674182002, "lon": -118.26771062678, "heat_layer": 4.6404, "index_right": 1491, "socioeconomic_layer": 3.868397258440555, "heat_socio_layer": 8.5087972584405556, "heat_socio_public_layer": 0.81995175690413524 }, "geometry": { "type": "Point", "coordinates": [ -13165501.32425937987864, 4035830.923425888177007 ] } }
]
}
