{
"type": "FeatureCollection",
"name": "optimized_shades_Random_DTLA_10",
"crs": { "type": "name", "properties": { "name": "urn:ogc:def:crs:EPSG::3857" } },
"features": [
{ "type": "Feature", "properties": { "OBJECTID": 1009, "stop_id": 19915, "route_count": 10, "route_stop": "MT078, MT014, MT076, MT910, MT950, MT070, MT053, MT055, MT060, DA  B", "lat": 34.053044588600997, "lon": -118.25133504809, "heat_layer": -8.6848, "index_right": 1441, "socioeconomic_layer": 3.8868018623141598, "heat_socio_layer": -4.7979981376858394, "heat_socio_public_layer": 0.16649297003034561 }, "geometry": { "type": "Point", "coordinates": [ -13163678.403178162872791, 4035926.844226212706417 ] } },
{ "type": "Feature", "properties": { "OBJECTID": 1010, "stop_id": 19801, "route_count": 15, "route_stop": "MT078, MT720, MT014, FZ707, MT076, MT910, MT950, MT016, MT020, MT018, MT070, MT053, MT055, MT060, DA  B", "lat": 34.050195104864997, "lon": -118.25393774542, "heat_layer": -8.6848, "index_right": 1441, "socioeconomic_layer": 3.8868018623141598, "heat_socio_layer": -4.7979981376858394, "heat_socio_public_layer": 0.0 }, "geometry": { "type": "Point", "coordinates": [ -13163968.134119627997279, 4035543.995371053460985 ] } },
{ "type": "Feature", "properties": { "OBJECTID": 1011, "stop_id": 19689, "route_count": 10, "route_stop": "MT078, MT014, MT076, MT016, MT020, MT018, MT070, MT053, MT055, MT060", "lat": 34.048733145010999, "lon": -118.25528678084, "heat_layer": -8.3606, "index_right": 1444, "socioeconomic_layer": 2.5669514830171973, "heat_socio_layer": -5.7936485169828025, "heat_socio_public_layer": 0.33565910509269686 }, "geometry": { "type": "Point", "coordinates": [ -13164118.308055642992258, 4035347.575430816505104 ] } },
{ "type": "Feature", "properties": { "OBJECTID": 1054, "stop_id": 19862, "route_count": 5, "route_stop": "MT040, DA  D, MT045, MT055, DA  E", "lat": 34.044507693513999, "lon": -118.25230960399, "heat_layer": -1.035, "index_right": 1429, "socioeconomic_layer": 2.8497964846490405, "heat_socio_layer": 1.8147964846490405, "heat_socio_public_layer": 0.47072216176607135 }, "geometry": { "type": "Point", "coordinates": [ -13163786.890244700014591, 4034779.888777935877442 ] } },
{ "type": "Feature", "properties": { "OBJECTID": 1163, "stop_id": 19583, "route_count": 2, "route_stop": "DAPIC, MT004", "lat": 34.076756997429001, "lon": -118.25734706454, "heat_layer": -0.5886, "index_right": 1288, "socioeconomic_layer": 2.7996481684560739, "heat_socio_layer": 2.2110481684560739, "heat_socio_public_layer": 0.65193142825612194 }, "geometry": { "type": "Point", "coordinates": [ -13164347.657788019627333, 4039113.278028688393533 ] } },
{ "type": "Feature", "properties": { "OBJECTID": 1164, "stop_id": 19764, "route_count": 2, "route_stop": "DAPIC, MT010", "lat": 34.066675342202998, "lon": -118.25462833471001, "heat_layer": -0.7708, "index_right": 1451, "socioeconomic_layer": 3.8650799580144048, "heat_socio_layer": 3.0942799580144049, "heat_socio_public_layer": 0.65634564859588929 }, "geometry": { "type": "Point", "coordinates": [ -13164045.010167738422751, 4037758.413111120928079 ] } },
{ "type": "Feature", "properties": { "OBJECTID": 1628, "stop_id": 20217, "route_count": 3, "route_stop": "MT004, MT055, MT060", "lat": 34.060611030920001, "lon": -118.24386640317999, "heat_layer": 2.6026, "index_right": 1423, "socioeconomic_layer": 3.6099212279158577, "heat_socio_layer": 6.2125212279158575, "heat_socio_public_layer": 0.86869681370938734 }, "geometry": { "type": "Point", "coordinates": [ -13162846.997429866343737, 4036943.513217226136476 ] } },
{ "type": "Feature", "properties": { "OBJECTID": 1666, "stop_id": 19014, "route_count": 2, "route_stop": "MT910, MT950", "lat": 34.033802903375999, "lon": -118.27092551569, "heat_layer": 2.8998, "index_right": 1810, "socioeconomic_layer": 3.7749837642375321, "heat_socio_layer": 6.6747837642375316, "heat_socio_public_layer": 1.033261395758317 }, "geometry": { "type": "Point", "coordinates": [ -13165859.204055795446038, 4033341.833790314383805 ] } },
{ "type": "Feature", "properties": { "OBJECTID": 1719, "stop_id": 20102, "route_count": 3, "route_stop": "MT016, MT053, MT018", "lat": 34.046042559546002, "lon": -118.24757393045, "heat_layer": 3.047, "index_right": 1419, "socioeconomic_layer": 4.2611475813781556, "heat_socio_layer": 7.3081475813781562, "heat_socio_public_layer": 0.87448719452121415 }, "geometry": { "type": "Point", "coordinates": [ -13163259.717477664351463, 4034986.093756841029972 ] } },
{ "type": "Feature", "properties": { "OBJECTID": 1783, "stop_id": 19451, "route_count": 2, "route_stop": "MT030, MT033", "lat": 34.036593682441001, "lon": -118.260157849, "heat_layer": 2.222, "index_right": 1447, "socioeconomic_layer": 2.8582636218966657, "heat_socio_layer": 5.0802636218966661, "heat_socio_public_layer": 0.67113813092501595 }, "geometry": { "type": "Point", "coordinates": [ -13164660.552882833406329, 4033716.722646727226675 ] } }
]
}
