{
"type": "FeatureCollection",
"name": "optimized_shades_Random_DTLA_100",
"crs": { "type": "name", "properties": { "name": "urn:ogc:def:crs:EPSG::3857" } },
"features": [
{ "type": "Feature", "properties": { "STOPNUM": 1177, "STOPNAME": "1st / Vignes", "LAT": 34.048333, "LONG": -118.234053, "LINE_DIR1": "106-S", "LINE_DIR2": null, "LINE_DIR3": 0, "LINE_DIR4": 0, "LINE_DIR5": 0, "LINE_DIR6": 0, "LINE_DIR7": 0, "LINE_DIR8": 0, "LINE_DIR9": 0, "LINE_DIR10": 0, "LINE_DIR11": 0, "LINE_DIR12": 0, "LINE_DIR13": 0, "LINE_DIR14": 0, "layer_id": "bus_stops", "feature_name": "Bus Stop", "heat_layer": 3.2978, "index_right": 1412, "socioeconomic_layer": 2.6415830528515021, "heat_socio_layer": 5.9393830528515021 }, "geometry": { "type": "Point", "coordinates": [ -13161754.574384918436408, 4035293.814996923319995 ] } },
{ "type": "Feature", "properties": { "STOPNUM": 1220, "STOPNAME": "7th / Maple", "LAT": 34.042447, "LONG": -118.249036, "LINE_DIR1": "20-W", "LINE_DIR2": "60-N", "LINE_DIR3": 0, "LINE_DIR4": 0, "LINE_DIR5": 0, "LINE_DIR6": 0, "LINE_DIR7": 0, "LINE_DIR8": 0, "LINE_DIR9": 0, "LINE_DIR10": 0, "LINE_DIR11": 0, "LINE_DIR12": 0, "LINE_DIR13": 0, "LINE_DIR14": 0, "layer_id": "bus_stops", "feature_name": "Bus Stop", "heat_layer": 3.047, "index_right": 1419, "socioeconomic_layer": 4.2611475813781556, "heat_socio_layer": 7.3081475813781562 }, "geometry": { "type": "Point", "coordinates": [ -13163422.474315475672483, 4034503.046209517866373 ] } },
{ "type": "Feature", "properties": { "STOPNUM": 1246, "STOPNAME": "9th / Maple", "LAT": 34.039507, "LONG": -118.252902, "LINE_DIR1": "66-E", "LINE_DIR2": null, "LINE_DIR3": 0, "LINE_DIR4": 0, "LINE_DIR5": 0, "LINE_DIR6": 0, "LINE_DIR7": 0, "LINE_DIR8": 0, "LINE_DIR9": 0, "LINE_DIR10": 0, "LINE_DIR11": 0, "LINE_DIR12": 0, "LINE_DIR13": 0, "LINE_DIR14": 0, "layer_id": "bus_stops", "feature_name": "Bus Stop", "heat_layer": 2.222, "index_right": 1447, "socioeconomic_layer": 2.8582636218966657, "heat_socio_layer": 5.0802636218966661 }, "geometry": { "type": "Point", "coordinates": [ -13163852.835466880351305, 4034108.085411005653441 ] } },
{ "type": "Feature", "properties": { "STOPNUM": 1257, "STOPNAME": "Adams / Main", "LAT": 34.024844, "LONG": -118.268385, "LINE_DIR1": "55-N", "LINE_DIR2": null, "LINE_DIR3": 0, "LINE_DIR4": 0, "LINE_DIR5": 0, "LINE_DIR6": 0, "LINE_DIR7": 0, "LINE_DIR8": 0, "LINE_DIR9": 0, "LINE_DIR10": 0, "LINE_DIR11": 0, "LINE_DIR12": 0, "LINE_DIR13": 0, "LINE_DIR14": 0, "layer_id": "bus_stops", "feature_name": "Bus Stop", "heat_layer": 6.5238, "index_right": 1811, "socioeconomic_layer": 4.1759712630451817, "heat_socio_layer": 10.699771263045182 }, "geometry": { "type": "Point", "coordinates": [ -13165576.395142832770944, 4032138.456377998925745 ] } },
{ "type": "Feature", "properties": { "STOPNUM": 1258, "STOPNAME": "Adams / San Pedro", "LAT": 34.021831, "LONG": -118.261597, "LINE_DIR1": "55-N", "LINE_DIR2": null, "LINE_DIR3": 0, "LINE_DIR4": 0, "LINE_DIR5": 0, "LINE_DIR6": 0, "LINE_DIR7": 0, "LINE_DIR8": 0, "LINE_DIR9": 0, "LINE_DIR10": 0, "LINE_DIR11": 0, "LINE_DIR12": 0, "LINE_DIR13": 0, "LINE_DIR14": 0, "layer_id": "bus_stops", "feature_name": "Bus Stop", "heat_layer": 6.601, "index_right": 1830, "socioeconomic_layer": 4.0418143881437949, "heat_socio_layer": 10.642814388143794 }, "geometry": { "type": "Point", "coordinates": [ -13164820.75843932852149, 4031733.772876481059939 ] } },
{ "type": "Feature", "properties": { "STOPNUM": 1266, "STOPNAME": "8th / Olive", "LAT": 34.045426, "LONG": -118.257059, "LINE_DIR1": "66-W", "LINE_DIR2": "81-S", "LINE_DIR3": 0, "LINE_DIR4": 0, "LINE_DIR5": 0, "LINE_DIR6": 0, "LINE_DIR7": 0, "LINE_DIR8": 0, "LINE_DIR9": 0, "LINE_DIR10": 0, "LINE_DIR11": 0, "LINE_DIR12": 0, "LINE_DIR13": 0, "LINE_DIR14": 0, "layer_id": "bus_stops", "feature_name": "Bus Stop", "heat_layer": -5.6296, "index_right": 1443, "socioeconomic_layer": 3.2489288387736637, "heat_socio_layer": -2.3806711612263363 }, "geometry": { "type": "Point", "coordinates": [ -13164315.590590108186007, 4034903.260249602608383 ] } },
{ "type": "Feature", "properties": { "STOPNUM": 1583, "STOPNAME": "Olympic / Mateo", "LAT": 34.025807, "LONG": -118.231841, "LINE_DIR1": "66-E", "LINE_DIR2": null, "LINE_DIR3": 0, "LINE_DIR4": 0, "LINE_DIR5": 0, "LINE_DIR6": 0, "LINE_DIR7": 0, "LINE_DIR8": 0, "LINE_DIR9": 0, "LINE_DIR10": 0, "LINE_DIR11": 0, "LINE_DIR12": 0, "LINE_DIR13": 0, "LINE_DIR14": 0, "layer_id": "bus_stops", "feature_name": "Bus Stop", "heat_layer": 6.4136, "index_right": 1410, "socioeconomic_layer": 1.9233717772954733, "heat_socio_layer": 8.3369717772954726 }, "geometry": { "type": "Point", "coordinates": [ -13161508.335671285167336, 4032267.802325869910419 ] } },
{ "type": "Feature", "properties": { "STOPNUM": 1586, "STOPNAME": "Olympic / Alameda", "LAT": 34.027617, "LONG": -118.239288, "LINE_DIR1": "66-E", "LINE_DIR2": null, "LINE_DIR3": 0, "LINE_DIR4": 0, "LINE_DIR5": 0, "LINE_DIR6": 0, "LINE_DIR7": 0, "LINE_DIR8": 0, "LINE_DIR9": 0, "LINE_DIR10": 0, "LINE_DIR11": 0, "LINE_DIR12": 0, "LINE_DIR13": 0, "LINE_DIR14": 0, "layer_id": "bus_stops", "feature_name": "Bus Stop", "heat_layer": 7.5664, "index_right": 1828, "socioeconomic_layer": 3.8850682986319809, "heat_socio_layer": 11.45146829863198 }, "geometry": { "type": "Point", "coordinates": [ -13162337.331919223070145, 4032510.917581093963236 ] } },
{ "type": "Feature", "properties": { "STOPNUM": 2201, "STOPNAME": "Grand / 7th", "LAT": 34.047102, "LONG": -118.257012, "LINE_DIR1": "70-W", "LINE_DIR2": null, "LINE_DIR3": 0, "LINE_DIR4": 0, "LINE_DIR5": 0, "LINE_DIR6": 0, "LINE_DIR7": 0, "LINE_DIR8": 0, "LINE_DIR9": 0, "LINE_DIR10": 0, "LINE_DIR11": 0, "LINE_DIR12": 0, "LINE_DIR13": 0, "LINE_DIR14": 0, "layer_id": "bus_stops", "feature_name": "Bus Stop", "heat_layer": -5.6296, "index_right": 1443, "socioeconomic_layer": 3.2489288387736637, "heat_socio_layer": -2.3806711612263363 }, "geometry": { "type": "Point", "coordinates": [ -13164310.358574043959379, 4035128.428810031153262 ] } },
{ "type": "Feature", "properties": { "STOPNUM": 2422, "STOPNAME": "Sunset / Vin Scully - Dodger Stadium", "LAT": 34.072623, "LONG": -118.250922, "LINE_DIR1": "4-W", "LINE_DIR2": null, "LINE_DIR3": 0, "LINE_DIR4": 0, "LINE_DIR5": 0, "LINE_DIR6": 0, "LINE_DIR7": 0, "LINE_DIR8": 0, "LINE_DIR9": 0, "LINE_DIR10": 0, "LINE_DIR11": 0, "LINE_DIR12": 0, "LINE_DIR13": 0, "LINE_DIR14": 0, "layer_id": "bus_stops", "feature_name": "Bus Stop", "heat_layer": 0.7626, "index_right": 1293, "socioeconomic_layer": 3.4018008819116576, "heat_socio_layer": 4.1644008819116571 }, "geometry": { "type": "Point", "coordinates": [ -13163632.422875111922622, 4038557.694190588314086 ] } },
{ "type": "Feature", "properties": { "STOPNUM": 3103, "STOPNAME": "Cesar Chavez Transit Pavilion", "LAT": 34.056416, "LONG": -118.231639, "LINE_DIR1": "106-N", "LINE_DIR2": "78-E", "LINE_DIR3": 0, "LINE_DIR4": 0, "LINE_DIR5": 0, "LINE_DIR6": 0, "LINE_DIR7": 0, "LINE_DIR8": 0, "LINE_DIR9": 0, "LINE_DIR10": 0, "LINE_DIR11": 0, "LINE_DIR12": 0, "LINE_DIR13": 0, "LINE_DIR14": 0, "layer_id": "bus_stops", "feature_name": "Bus Stop", "heat_layer": 0.563, "index_right": 1408, "socioeconomic_layer": 2.7759465506022822, "heat_socio_layer": 3.338946550602282 }, "geometry": { "type": "Point", "coordinates": [ -13161485.849134143441916, 4036379.83447750704363 ] } },
{ "type": "Feature", "properties": { "STOPNUM": 3332, "STOPNAME": "Alameda / Los Angeles", "LAT": 34.056557, "LONG": -118.237206, "LINE_DIR1": "40-N", "LINE_DIR2": "106-N", "LINE_DIR3": 0, "LINE_DIR4": 0, "LINE_DIR5": 0, "LINE_DIR6": 0, "LINE_DIR7": 0, "LINE_DIR8": 0, "LINE_DIR9": 0, "LINE_DIR10": 0, "LINE_DIR11": 0, "LINE_DIR12": 0, "LINE_DIR13": 0, "LINE_DIR14": 0, "layer_id": "bus_stops", "feature_name": "Bus Stop", "heat_layer": 0.563, "index_right": 1408, "socioeconomic_layer": 2.7759465506022822, "heat_socio_layer": 3.338946550602282 }, "geometry": { "type": "Point", "coordinates": [ -13162105.56473938934505, 4036398.779940153006464 ] } },
{ "type": "Feature", "properties": { "STOPNUM": 3359, "STOPNAME": "Alvarado / Kent", "LAT": 34.074489, "LONG": -118.265213, "LINE_DIR1": "2-W", "LINE_DIR2": null, "LINE_DIR3": 0, "LINE_DIR4": 0, "LINE_DIR5": 0, "LINE_DIR6": 0, "LINE_DIR7": 0, "LINE_DIR8": 0, "LINE_DIR9": 0, "LINE_DIR10": 0, "LINE_DIR11": 0, "LINE_DIR12": 0, "LINE_DIR13": 0, "LINE_DIR14": 0, "layer_id": "bus_stops", "feature_name": "Bus Stop", "heat_layer": -0.7032, "index_right": 1265, "socioeconomic_layer": 2.7722170336629546, "heat_socio_layer": 2.0690170336629548 }, "geometry": { "type": "Point", "coordinates": [ -13165223.289718037471175, 4038808.469760895706713 ] } },
{ "type": "Feature", "properties": { "STOPNUM": 3413, "STOPNAME": "Broadway / Bernard", "LAT": 34.066674, "LONG": -118.235752, "LINE_DIR1": "45-N", "LINE_DIR2": null, "LINE_DIR3": 0, "LINE_DIR4": 0, "LINE_DIR5": 0, "LINE_DIR6": 0, "LINE_DIR7": 0, "LINE_DIR8": 0, "LINE_DIR9": 0, "LINE_DIR10": 0, "LINE_DIR11": 0, "LINE_DIR12": 0, "LINE_DIR13": 0, "LINE_DIR14": 0, "layer_id": "bus_stops", "feature_name": "Bus Stop", "heat_layer": 1.3642, "index_right": 1406, "socioeconomic_layer": 3.2420790417442666, "heat_socio_layer": 4.6062790417442665 }, "geometry": { "type": "Point", "coordinates": [ -13161943.706199776381254, 4037758.232744355686009 ] } },
{ "type": "Feature", "properties": { "STOPNUM": 3426, "STOPNAME": "Broadway / Solano", "LAT": 34.070826, "LONG": -118.230143, "LINE_DIR1": "45-N", "LINE_DIR2": null, "LINE_DIR3": 0, "LINE_DIR4": 0, "LINE_DIR5": 0, "LINE_DIR6": 0, "LINE_DIR7": 0, "LINE_DIR8": 0, "LINE_DIR9": 0, "LINE_DIR10": 0, "LINE_DIR11": 0, "LINE_DIR12": 0, "LINE_DIR13": 0, "LINE_DIR14": 0, "layer_id": "bus_stops", "feature_name": "Bus Stop", "heat_layer": 1.3642, "index_right": 1406, "socioeconomic_layer": 3.2420790417442666, "heat_socio_layer": 4.6062790417442665 }, "geometry": { "type": "Point", "coordinates": [ -13161319.315175918862224, 4038316.196893183048815 ] } },
{ "type": "Feature", "properties": { "STOPNUM": 3538, "STOPNAME": "Figueroa / Temple", "LAT": 34.059586, "LONG": -118.248657, "LINE_DIR1": "55-N", "LINE_DIR2": null, "LINE_DIR3": 0, "LINE_DIR4": 0, "LINE_DIR5": 0, "LINE_DIR6": 0, "LINE_DIR7": 0, "LINE_DIR8": 0, "LINE_DIR9": 0, "LINE_DIR10": 0, "LINE_DIR11": 0, "LINE_DIR12": 0, "LINE_DIR13": 0, "LINE_DIR14": 0, "layer_id": "bus_stops", "feature_name": "Bus Stop", "heat_layer": -3.6198, "index_right": 1437, "socioeconomic_layer": 3.0344124037054612, "heat_socio_layer": -0.58538759629453896 }, "geometry": { "type": "Point", "coordinates": [ -13163380.284228464588523, 4036805.779085291549563 ] } },
{ "type": "Feature", "properties": { "STOPNUM": 3691, "STOPNAME": "Central / Washington", "LAT": 34.0246, "LONG": -118.250167, "LINE_DIR1": "53-N", "LINE_DIR2": null, "LINE_DIR3": 0, "LINE_DIR4": 0, "LINE_DIR5": 0, "LINE_DIR6": 0, "LINE_DIR7": 0, "LINE_DIR8": 0, "LINE_DIR9": 0, "LINE_DIR10": 0, "LINE_DIR11": 0, "LINE_DIR12": 0, "LINE_DIR13": 0, "LINE_DIR14": 0, "layer_id": "bus_stops", "feature_name": "Bus Stop", "heat_layer": 7.4568, "index_right": 1826, "socioeconomic_layer": 4.4925893809188828, "heat_socio_layer": 11.949389380918884 }, "geometry": { "type": "Point", "coordinates": [ -13163548.37665956094861, 4032105.683598305098712 ] } },
{ "type": "Feature", "properties": { "STOPNUM": 3745, "STOPNAME": "Los Angeles / Temple", "LAT": 34.053599, "LONG": -118.240594, "LINE_DIR1": "40-N", "LINE_DIR2": "106-N", "LINE_DIR3": 0, "LINE_DIR4": 0, "LINE_DIR5": 0, "LINE_DIR6": 0, "LINE_DIR7": 0, "LINE_DIR8": 0, "LINE_DIR9": 0, "LINE_DIR10": 0, "LINE_DIR11": 0, "LINE_DIR12": 0, "LINE_DIR13": 0, "LINE_DIR14": 0, "layer_id": "bus_stops", "feature_name": "Bus Stop", "heat_layer": -3.6198, "index_right": 1437, "socioeconomic_layer": 3.0344124037054612, "heat_socio_layer": -0.58538759629453896 }, "geometry": { "type": "Point", "coordinates": [ -13162482.715174198150635, 4036001.3349235560745 ] } },
{ "type": "Feature", "properties": { "STOPNUM": 4169, "STOPNAME": "Olympic / Union", "LAT": 34.048996, "LONG": -118.274045, "LINE_DIR1": "28-E", "LINE_DIR2": null, "LINE_DIR3": 0, "LINE_DIR4": 0, "LINE_DIR5": 0, "LINE_DIR6": 0, "LINE_DIR7": 0, "LINE_DIR8": 0, "LINE_DIR9": 0, "LINE_DIR10": 0, "LINE_DIR11": 0, "LINE_DIR12": 0, "LINE_DIR13": 0, "LINE_DIR14": 0, "layer_id": "bus_stops", "feature_name": "Bus Stop", "heat_layer": 1.1696, "index_right": 1508, "socioeconomic_layer": 4.310541398201849, "heat_socio_layer": 5.480141398201849 }, "geometry": { "type": "Point", "coordinates": [ -13166206.463460724800825, 4035382.890761808957905 ] } },
{ "type": "Feature", "properties": { "STOPNUM": 4675, "STOPNAME": "Flower / Olympic", "LAT": 34.044218, "LONG": -118.26308, "LINE_DIR1": "910-S", "LINE_DIR2": "460-E", "LINE_DIR3": 0, "LINE_DIR4": 0, "LINE_DIR5": 0, "LINE_DIR6": 0, "LINE_DIR7": 0, "LINE_DIR8": 0, "LINE_DIR9": 0, "LINE_DIR10": 0, "LINE_DIR11": 0, "LINE_DIR12": 0, "LINE_DIR13": 0, "LINE_DIR14": 0, "layer_id": "bus_stops", "feature_name": "Bus Stop", "heat_layer": -5.3748, "index_right": 1445, "socioeconomic_layer": 3.3387612110681228, "heat_socio_layer": -2.0360387889318767 }, "geometry": { "type": "Point", "coordinates": [ -13164985.84524417668581, 4034740.969679418485612 ] } },
{ "type": "Feature", "properties": { "STOPNUM": 4772, "STOPNAME": "Broadway / 30th", "LAT": 34.022375, "LONG": -118.271509, "LINE_DIR1": "40-N", "LINE_DIR2": "45-N", "LINE_DIR3": 0, "LINE_DIR4": 0, "LINE_DIR5": 0, "LINE_DIR6": 0, "LINE_DIR7": 0, "LINE_DIR8": 0, "LINE_DIR9": 0, "LINE_DIR10": 0, "LINE_DIR11": 0, "LINE_DIR12": 0, "LINE_DIR13": 0, "LINE_DIR14": 0, "layer_id": "bus_stops", "feature_name": "Bus Stop", "heat_layer": 6.995, "index_right": 1823, "socioeconomic_layer": 4.0012046941292949, "heat_socio_layer": 10.996204694129295 }, "geometry": { "type": "Point", "coordinates": [ -13165924.157232072204351, 4031806.837802685331553 ] } },
{ "type": "Feature", "properties": { "STOPNUM": 4850, "STOPNAME": "Central / 16th", "LAT": 34.026197, "LONG": -118.248783, "LINE_DIR1": "53-N", "LINE_DIR2": null, "LINE_DIR3": 0, "LINE_DIR4": 0, "LINE_DIR5": 0, "LINE_DIR6": 0, "LINE_DIR7": 0, "LINE_DIR8": 0, "LINE_DIR9": 0, "LINE_DIR10": 0, "LINE_DIR11": 0, "LINE_DIR12": 0, "LINE_DIR13": 0, "LINE_DIR14": 0, "layer_id": "bus_stops", "feature_name": "Bus Stop", "heat_layer": 7.5664, "index_right": 1828, "socioeconomic_layer": 3.8850682986319809, "heat_socio_layer": 11.45146829863198 }, "geometry": { "type": "Point", "coordinates": [ -13163394.310484303161502, 4032320.185837608296424 ] } },
{ "type": "Feature", "properties": { "STOPNUM": 5128, "STOPNAME": "Hill / Venice", "LAT": 34.034897, "LONG": -118.264236, "LINE_DIR1": "94-N", "LINE_DIR2": null, "LINE_DIR3": 0, "LINE_DIR4": 0, "LINE_DIR5": 0, "LINE_DIR6": 0, "LINE_DIR7": 0, "LINE_DIR8": 0, "LINE_DIR9": 0, "LINE_DIR10": 0, "LINE_DIR11": 0, "LINE_DIR12": 0, "LINE_DIR13": 0, "LINE_DIR14": 0, "layer_id": "bus_stops", "feature_name": "Bus Stop", "heat_layer": 5.397, "index_right": 1808, "socioeconomic_layer": 3.5578625043066285, "heat_socio_layer": 8.9548625043066288 }, "geometry": { "type": "Point", "coordinates": [ -13165114.530575532466173, 4033488.803694020956755 ] } },
{ "type": "Feature", "properties": { "STOPNUM": 5159, "STOPNAME": "Alvarado / Beverly", "LAT": 34.0665, "LONG": -118.270595, "LINE_DIR1": "2-E", "LINE_DIR2": null, "LINE_DIR3": 0, "LINE_DIR4": 0, "LINE_DIR5": 0, "LINE_DIR6": 0, "LINE_DIR7": 0, "LINE_DIR8": 0, "LINE_DIR9": 0, "LINE_DIR10": 0, "LINE_DIR11": 0, "LINE_DIR12": 0, "LINE_DIR13": 0, "LINE_DIR14": 0, "layer_id": "bus_stops", "feature_name": "Bus Stop", "heat_layer": 2.0244, "index_right": 1464, "socioeconomic_layer": 3.7952664553950282, "heat_socio_layer": 5.8196664553950281 }, "geometry": { "type": "Point", "coordinates": [ -13165822.411217488348484, 4037734.850450659636408 ] } },
{ "type": "Feature", "properties": { "STOPNUM": 5174, "STOPNAME": "Bixel / 6th", "LAT": 34.054201, "LONG": -118.261757, "LINE_DIR1": "51-N", "LINE_DIR2": "51-S", "LINE_DIR3": 0, "LINE_DIR4": 0, "LINE_DIR5": 0, "LINE_DIR6": 0, "LINE_DIR7": 0, "LINE_DIR8": 0, "LINE_DIR9": 0, "LINE_DIR10": 0, "LINE_DIR11": 0, "LINE_DIR12": 0, "LINE_DIR13": 0, "LINE_DIR14": 0, "layer_id": "bus_stops", "feature_name": "Bus Stop", "heat_layer": -0.9524, "index_right": 1490, "socioeconomic_layer": 3.5458646948496546, "heat_socio_layer": 2.5934646948496547 }, "geometry": { "type": "Point", "coordinates": [ -13164838.56955785676837, 4036082.220175448805094 ] } },
{ "type": "Feature", "properties": { "STOPNUM": 5368, "STOPNAME": "Olympic / Grand", "LAT": 34.042997, "LONG": -118.260822, "LINE_DIR1": "28-E", "LINE_DIR2": null, "LINE_DIR3": 0, "LINE_DIR4": 0, "LINE_DIR5": 0, "LINE_DIR6": 0, "LINE_DIR7": 0, "LINE_DIR8": 0, "LINE_DIR9": 0, "LINE_DIR10": 0, "LINE_DIR11": 0, "LINE_DIR12": 0, "LINE_DIR13": 0, "LINE_DIR14": 0, "layer_id": "bus_stops", "feature_name": "Bus Stop", "heat_layer": -1.6806, "index_right": 1448, "socioeconomic_layer": 2.5038461711343887, "heat_socio_layer": 0.82324617113438858 }, "geometry": { "type": "Point", "coordinates": [ -13164734.485833965241909, 4034576.934953975025564 ] } },
{ "type": "Feature", "properties": { "STOPNUM": 5377, "STOPNAME": "1st / Hill", "LAT": 34.054416, "LONG": -118.246958, "LINE_DIR1": "70-E", "LINE_DIR2": "910-N", "LINE_DIR3": 0, "LINE_DIR4": 0, "LINE_DIR5": 0, "LINE_DIR6": 0, "LINE_DIR7": 0, "LINE_DIR8": 0, "LINE_DIR9": 0, "LINE_DIR10": 0, "LINE_DIR11": 0, "LINE_DIR12": 0, "LINE_DIR13": 0, "LINE_DIR14": 0, "layer_id": "bus_stops", "feature_name": "Bus Stop", "heat_layer": -3.6198, "index_right": 1437, "socioeconomic_layer": 3.0344124037054612, "heat_socio_layer": -0.58538759629453896 }, "geometry": { "type": "Point", "coordinates": [ -13163191.152413606643677, 4036111.107904615812004 ] } },
{ "type": "Feature", "properties": { "STOPNUM": 5382, "STOPNAME": "Olive / 7th", "LAT": 34.04677, "LONG": -118.255261, "LINE_DIR1": "70-E", "LINE_DIR2": "76-E", "LINE_DIR3": 0, "LINE_DIR4": 0, "LINE_DIR5": 0, "LINE_DIR6": 0, "LINE_DIR7": 0, "LINE_DIR8": 0, "LINE_DIR9": 0, "LINE_DIR10": 0, "LINE_DIR11": 0, "LINE_DIR12": 0, "LINE_DIR13": 0, "LINE_DIR14": 0, "layer_id": "bus_stops", "feature_name": "Bus Stop", "heat_layer": -8.3606, "index_right": 1444, "socioeconomic_layer": 2.5669514830171973, "heat_socio_layer": -5.7936485169828025 }, "geometry": { "type": "Point", "coordinates": [ -13164115.438145663589239, 4035083.824660571292043 ] } },
{ "type": "Feature", "properties": { "STOPNUM": 5484, "STOPNAME": "San Pedro / 23rd", "LAT": 34.024239, "LONG": -118.259783, "LINE_DIR1": "51-S", "LINE_DIR2": null, "LINE_DIR3": 0, "LINE_DIR4": 0, "LINE_DIR5": 0, "LINE_DIR6": 0, "LINE_DIR7": 0, "LINE_DIR8": 0, "LINE_DIR9": 0, "LINE_DIR10": 0, "LINE_DIR11": 0, "LINE_DIR12": 0, "LINE_DIR13": 0, "LINE_DIR14": 0, "layer_id": "bus_stops", "feature_name": "Bus Stop", "heat_layer": 6.601, "index_right": 1830, "socioeconomic_layer": 4.0418143881437949, "heat_socio_layer": 10.642814388143794 }, "geometry": { "type": "Point", "coordinates": [ -13164618.824883030727506, 4032057.196174951270223 ] } },
{ "type": "Feature", "properties": { "STOPNUM": 5528, "STOPNAME": "Santa Fe / 15th", "LAT": 34.020964, "LONG": -118.230003, "LINE_DIR1": "60-N", "LINE_DIR2": null, "LINE_DIR3": 0, "LINE_DIR4": 0, "LINE_DIR5": 0, "LINE_DIR6": 0, "LINE_DIR7": 0, "LINE_DIR8": 0, "LINE_DIR9": 0, "LINE_DIR10": 0, "LINE_DIR11": 0, "LINE_DIR12": 0, "LINE_DIR13": 0, "LINE_DIR14": 0, "layer_id": "bus_stops", "feature_name": "Bus Stop", "heat_layer": 6.4136, "index_right": 1410, "socioeconomic_layer": 1.9233717772954733, "heat_socio_layer": 8.3369717772954726 }, "geometry": { "type": "Point", "coordinates": [ -13161303.730447208508849, 4031617.326618276070803 ] } },
{ "type": "Feature", "properties": { "STOPNUM": 5879, "STOPNAME": "Historic Broadway Layover", "LAT": 34.051883, "LONG": -118.246961, "LINE_DIR1": "90-N", "LINE_DIR2": "90-S", "LINE_DIR3": 0, "LINE_DIR4": 0, "LINE_DIR5": 0, "LINE_DIR6": 0, "LINE_DIR7": 0, "LINE_DIR8": 0, "LINE_DIR9": 0, "LINE_DIR10": 0, "LINE_DIR11": 0, "LINE_DIR12": 0, "LINE_DIR13": 0, "LINE_DIR14": 0, "layer_id": "bus_stops", "feature_name": "Bus Stop", "heat_layer": -2.3792, "index_right": 1432, "socioeconomic_layer": 2.0400542158268973, "heat_socio_layer": -0.3391457841731027 }, "geometry": { "type": "Point", "coordinates": [ -13163191.486372077837586, 4035770.774799530860037 ] } },
{ "type": "Feature", "properties": { "STOPNUM": 6196, "STOPNAME": "Central / 1st", "LAT": 34.048483, "LONG": -118.239016, "LINE_DIR1": "30-E", "LINE_DIR2": "30-W", "LINE_DIR3": 0, "LINE_DIR4": 0, "LINE_DIR5": 0, "LINE_DIR6": 0, "LINE_DIR7": 0, "LINE_DIR8": 0, "LINE_DIR9": 0, "LINE_DIR10": 0, "LINE_DIR11": 0, "LINE_DIR12": 0, "LINE_DIR13": 0, "LINE_DIR14": 0, "layer_id": "bus_stops", "feature_name": "Bus Stop", "heat_layer": 3.886, "index_right": 1418, "socioeconomic_layer": 4.0514704839207818, "heat_socio_layer": 7.9374704839207819 }, "geometry": { "type": "Point", "coordinates": [ -13162307.053017726168036, 4035313.967823942191899 ] } },
{ "type": "Feature", "properties": { "STOPNUM": 7258, "STOPNAME": "1st / Broadway", "LAT": 34.053378, "LONG": -118.245344, "LINE_DIR1": "76-E", "LINE_DIR2": null, "LINE_DIR3": 0, "LINE_DIR4": 0, "LINE_DIR5": 0, "LINE_DIR6": 0, "LINE_DIR7": 0, "LINE_DIR8": 0, "LINE_DIR9": 0, "LINE_DIR10": 0, "LINE_DIR11": 0, "LINE_DIR12": 0, "LINE_DIR13": 0, "LINE_DIR14": 0, "layer_id": "bus_stops", "feature_name": "Bus Stop", "heat_layer": -3.6198, "index_right": 1437, "socioeconomic_layer": 3.0344124037054612, "heat_socio_layer": -0.58538759629453896 }, "geometry": { "type": "Point", "coordinates": [ -13163011.482755467295647, 4035971.641312430612743 ] } },
{ "type": "Feature", "properties": { "STOPNUM": 7271, "STOPNAME": "3rd / Bixel", "LAT": 34.057499, "LONG": -118.260002, "LINE_DIR1": "16-E", "LINE_DIR2": null, "LINE_DIR3": 0, "LINE_DIR4": 0, "LINE_DIR5": 0, "LINE_DIR6": 0, "LINE_DIR7": 0, "LINE_DIR8": 0, "LINE_DIR9": 0, "LINE_DIR10": 0, "LINE_DIR11": 0, "LINE_DIR12": 0, "LINE_DIR13": 0, "LINE_DIR14": 0, "layer_id": "bus_stops", "feature_name": "Bus Stop", "heat_layer": -0.9524, "index_right": 1490, "socioeconomic_layer": 3.5458646948496546, "heat_socio_layer": 2.5934646948496547 }, "geometry": { "type": "Point", "coordinates": [ -13164643.203851513564587, 4036525.352563022635877 ] } },
{ "type": "Feature", "properties": { "STOPNUM": 7300, "STOPNAME": "3rd / Union", "LAT": 34.060648, "LONG": -118.267691, "LINE_DIR1": "16-E", "LINE_DIR2": null, "LINE_DIR3": 0, "LINE_DIR4": 0, "LINE_DIR5": 0, "LINE_DIR6": 0, "LINE_DIR7": 0, "LINE_DIR8": 0, "LINE_DIR9": 0, "LINE_DIR10": 0, "LINE_DIR11": 0, "LINE_DIR12": 0, "LINE_DIR13": 0, "LINE_DIR14": 0, "layer_id": "bus_stops", "feature_name": "Bus Stop", "heat_layer": 1.4588, "index_right": 1486, "socioeconomic_layer": 4.3691009599001678, "heat_socio_layer": 5.8279009599001679 }, "geometry": { "type": "Point", "coordinates": [ -13165499.139416223391891, 4036948.480809857137501 ] } },
{ "type": "Feature", "properties": { "STOPNUM": 7341, "STOPNAME": "6th / Lucas", "LAT": 34.054701, "LONG": -118.263994, "LINE_DIR1": "18-E", "LINE_DIR2": null, "LINE_DIR3": 0, "LINE_DIR4": 0, "LINE_DIR5": 0, "LINE_DIR6": 0, "LINE_DIR7": 0, "LINE_DIR8": 0, "LINE_DIR9": 0, "LINE_DIR10": 0, "LINE_DIR11": 0, "LINE_DIR12": 0, "LINE_DIR13": 0, "LINE_DIR14": 0, "layer_id": "bus_stops", "feature_name": "Bus Stop", "heat_layer": 2.2414, "index_right": 1488, "socioeconomic_layer": 3.7082149720659903, "heat_socio_layer": 5.9496149720659908 }, "geometry": { "type": "Point", "coordinates": [ -13165087.591258758679032, 4036149.401053883135319 ] } },
{ "type": "Feature", "properties": { "STOPNUM": 7352, "STOPNAME": "6th / Grand View", "LAT": 34.060314, "LONG": -118.276845, "LINE_DIR1": "18-E", "LINE_DIR2": "93-S", "LINE_DIR3": 0, "LINE_DIR4": 0, "LINE_DIR5": 0, "LINE_DIR6": 0, "LINE_DIR7": 0, "LINE_DIR8": 0, "LINE_DIR9": 0, "LINE_DIR10": 0, "LINE_DIR11": 0, "LINE_DIR12": 0, "LINE_DIR13": 0, "LINE_DIR14": 0, "layer_id": "bus_stops", "feature_name": "Bus Stop", "heat_layer": -0.9882, "index_right": 1474, "socioeconomic_layer": 3.8429294959525881, "heat_socio_layer": 2.8547294959525882 }, "geometry": { "type": "Point", "coordinates": [ -13166518.158034943044186, 4036903.600790357682854 ] } },
{ "type": "Feature", "properties": { "STOPNUM": 7359, "STOPNAME": "6th / Park View", "LAT": 34.060975, "LONG": -118.27832, "LINE_DIR1": "18-E", "LINE_DIR2": "93-S", "LINE_DIR3": 0, "LINE_DIR4": 0, "LINE_DIR5": 0, "LINE_DIR6": 0, "LINE_DIR7": 0, "LINE_DIR8": 0, "LINE_DIR9": 0, "LINE_DIR10": 0, "LINE_DIR11": 0, "LINE_DIR12": 0, "LINE_DIR13": 0, "LINE_DIR14": 0, "layer_id": "bus_stops", "feature_name": "Bus Stop", "heat_layer": -0.9882, "index_right": 1474, "socioeconomic_layer": 3.8429294959525881, "heat_socio_layer": 2.8547294959525882 }, "geometry": { "type": "Point", "coordinates": [ -13166682.354283863678575, 4036992.420401495415717 ] } },
{ "type": "Feature", "properties": { "STOPNUM": 7371, "STOPNAME": "6th / Saint Paul", "LAT": 34.053487, "LONG": -118.261082, "LINE_DIR1": "16-E", "LINE_DIR2": "20-E", "LINE_DIR3": 0, "LINE_DIR4": 0, "LINE_DIR5": 0, "LINE_DIR6": 0, "LINE_DIR7": 0, "LINE_DIR8": 0, "LINE_DIR9": 0, "LINE_DIR10": 0, "LINE_DIR11": 0, "LINE_DIR12": 0, "LINE_DIR13": 0, "LINE_DIR14": 0, "layer_id": "bus_stops", "feature_name": "Bus Stop", "heat_layer": -3.8102, "index_right": 1489, "socioeconomic_layer": 2.78190352021248, "heat_socio_layer": -1.02829647978752 }, "geometry": { "type": "Point", "coordinates": [ -13164763.428901569917798, 4035986.286567970644683 ] } },
{ "type": "Feature", "properties": { "STOPNUM": 7383, "STOPNAME": "7th / Burlington", "LAT": 34.054949, "LONG": -118.273645, "LINE_DIR1": "51-S", "LINE_DIR2": null, "LINE_DIR3": 0, "LINE_DIR4": 0, "LINE_DIR5": 0, "LINE_DIR6": 0, "LINE_DIR7": 0, "LINE_DIR8": 0, "LINE_DIR9": 0, "LINE_DIR10": 0, "LINE_DIR11": 0, "LINE_DIR12": 0, "LINE_DIR13": 0, "LINE_DIR14": 0, "layer_id": "bus_stops", "feature_name": "Bus Stop", "heat_layer": 4.5814, "index_right": 1498, "socioeconomic_layer": 4.205270453721929, "heat_socio_layer": 8.7866704537219285 }, "geometry": { "type": "Point", "coordinates": [ -13166161.935664407908916, 4036182.72291659982875 ] } },
{ "type": "Feature", "properties": { "STOPNUM": 7439, "STOPNAME": "9th / Broadway", "LAT": 34.042361, "LONG": -118.25633, "LINE_DIR1": "10-E", "LINE_DIR2": "66-E", "LINE_DIR3": 0, "LINE_DIR4": 0, "LINE_DIR5": 0, "LINE_DIR6": 0, "LINE_DIR7": 0, "LINE_DIR8": 0, "LINE_DIR9": 0, "LINE_DIR10": 0, "LINE_DIR11": 0, "LINE_DIR12": 0, "LINE_DIR13": 0, "LINE_DIR14": 0, "layer_id": "bus_stops", "feature_name": "Bus Stop", "heat_layer": 2.222, "index_right": 1447, "socioeconomic_layer": 2.8582636218966657, "heat_socio_layer": 5.0802636218966661 }, "geometry": { "type": "Point", "coordinates": [ -13164234.438681323081255, 4034491.492740069050342 ] } },
{ "type": "Feature", "properties": { "STOPNUM": 7442, "STOPNAME": "9th / Grand", "LAT": 34.044464, "LONG": -118.259526, "LINE_DIR1": "66-E", "LINE_DIR2": "81-N", "LINE_DIR3": 0, "LINE_DIR4": 0, "LINE_DIR5": 0, "LINE_DIR6": 0, "LINE_DIR7": 0, "LINE_DIR8": 0, "LINE_DIR9": 0, "LINE_DIR10": 0, "LINE_DIR11": 0, "LINE_DIR12": 0, "LINE_DIR13": 0, "LINE_DIR14": 0, "layer_id": "bus_stops", "feature_name": "Bus Stop", "heat_layer": 2.222, "index_right": 1447, "socioeconomic_layer": 2.8582636218966657, "heat_socio_layer": 5.0802636218966661 }, "geometry": { "type": "Point", "coordinates": [ -13164590.215773897245526, 4034774.018730591516942 ] } },
{ "type": "Feature", "properties": { "STOPNUM": 7459, "STOPNAME": "Adams / Grand", "LAT": 34.026456, "LONG": -118.272473, "LINE_DIR1": "14-N", "LINE_DIR2": null, "LINE_DIR3": 0, "LINE_DIR4": 0, "LINE_DIR5": 0, "LINE_DIR6": 0, "LINE_DIR7": 0, "LINE_DIR8": 0, "LINE_DIR9": 0, "LINE_DIR10": 0, "LINE_DIR11": 0, "LINE_DIR12": 0, "LINE_DIR13": 0, "LINE_DIR14": 0, "layer_id": "bus_stops", "feature_name": "Bus Stop", "heat_layer": 6.995, "index_right": 1823, "socioeconomic_layer": 4.0012046941292949, "heat_socio_layer": 10.996204694129295 }, "geometry": { "type": "Point", "coordinates": [ -13166031.469221197068691, 4032354.973995096515864 ] } },
{ "type": "Feature", "properties": { "STOPNUM": 7853, "STOPNAME": "Olympic / Georgia", "LAT": 34.045885, "LONG": -118.267152, "LINE_DIR1": "28-E", "LINE_DIR2": null, "LINE_DIR3": 0, "LINE_DIR4": 0, "LINE_DIR5": 0, "LINE_DIR6": 0, "LINE_DIR7": 0, "LINE_DIR8": 0, "LINE_DIR9": 0, "LINE_DIR10": 0, "LINE_DIR11": 0, "LINE_DIR12": 0, "LINE_DIR13": 0, "LINE_DIR14": 0, "layer_id": "bus_stops", "feature_name": "Bus Stop", "heat_layer": -4.5012, "index_right": 1442, "socioeconomic_layer": 2.2883277220234759, "heat_socio_layer": -2.212872277976524 }, "geometry": { "type": "Point", "coordinates": [ -13165439.138210685923696, 4034964.925898520741612 ] } },
{ "type": "Feature", "properties": { "STOPNUM": 7858, "STOPNAME": "Olympic / Burlington", "LAT": 34.050199, "LONG": -118.276739, "LINE_DIR1": "28-E", "LINE_DIR2": null, "LINE_DIR3": 0, "LINE_DIR4": 0, "LINE_DIR5": 0, "LINE_DIR6": 0, "LINE_DIR7": 0, "LINE_DIR8": 0, "LINE_DIR9": 0, "LINE_DIR10": 0, "LINE_DIR11": 0, "LINE_DIR12": 0, "LINE_DIR13": 0, "LINE_DIR14": 0, "layer_id": "bus_stops", "feature_name": "Bus Stop", "heat_layer": 2.8174, "index_right": 1502, "socioeconomic_layer": 4.3621861962603683, "heat_socio_layer": 7.1795861962603684 }, "geometry": { "type": "Point", "coordinates": [ -13166506.358168920502067, 4035544.518701974768192 ] } },
{ "type": "Feature", "properties": { "STOPNUM": 7899, "STOPNAME": "Pico / Albany", "LAT": 34.043297, "LONG": -118.274224, "LINE_DIR1": "30-E", "LINE_DIR2": null, "LINE_DIR3": 0, "LINE_DIR4": 0, "LINE_DIR5": 0, "LINE_DIR6": 0, "LINE_DIR7": 0, "LINE_DIR8": 0, "LINE_DIR9": 0, "LINE_DIR10": 0, "LINE_DIR11": 0, "LINE_DIR12": 0, "LINE_DIR13": 0, "LINE_DIR14": 0, "layer_id": "bus_stops", "feature_name": "Bus Stop", "heat_layer": 2.9798, "index_right": 1812, "socioeconomic_layer": 4.0394536030550583, "heat_socio_layer": 7.0192536030550583 }, "geometry": { "type": "Point", "coordinates": [ -13166226.389649577438831, 4034617.238107470329851 ] } },
{ "type": "Feature", "properties": { "STOPNUM": 7901, "STOPNAME": "Pico / L.A. Live", "LAT": 34.042129, "LONG": -118.271573, "LINE_DIR1": "30-E", "LINE_DIR2": null, "LINE_DIR3": 0, "LINE_DIR4": 0, "LINE_DIR5": 0, "LINE_DIR6": 0, "LINE_DIR7": 0, "LINE_DIR8": 0, "LINE_DIR9": 0, "LINE_DIR10": 0, "LINE_DIR11": 0, "LINE_DIR12": 0, "LINE_DIR13": 0, "LINE_DIR14": 0, "layer_id": "bus_stops", "feature_name": "Bus Stop", "heat_layer": 1.8752, "index_right": 1809, "socioeconomic_layer": 3.2906005355624188, "heat_socio_layer": 5.1658005355624184 }, "geometry": { "type": "Point", "coordinates": [ -13165931.281679483130574, 4034460.325299524702132 ] } },
{ "type": "Feature", "properties": { "STOPNUM": 8009, "STOPNAME": "Sunset / Douglas", "LAT": 34.07422, "LONG": -118.252168, "LINE_DIR1": "4-E", "LINE_DIR2": null, "LINE_DIR3": 0, "LINE_DIR4": 0, "LINE_DIR5": 0, "LINE_DIR6": 0, "LINE_DIR7": 0, "LINE_DIR8": 0, "LINE_DIR9": 0, "LINE_DIR10": 0, "LINE_DIR11": 0, "LINE_DIR12": 0, "LINE_DIR13": 0, "LINE_DIR14": 0, "layer_id": "bus_stops", "feature_name": "Bus Stop", "heat_layer": -0.5886, "index_right": 1288, "socioeconomic_layer": 2.7996481684560739, "heat_socio_layer": 2.2110481684560739 }, "geometry": { "type": "Point", "coordinates": [ -13163771.126960638910532, 4038772.317957944702357 ] } },
{ "type": "Feature", "properties": { "STOPNUM": 8011, "STOPNAME": "Sunset / Echo Park", "LAT": 34.076712, "LONG": -118.257555, "LINE_DIR1": "4-E", "LINE_DIR2": null, "LINE_DIR3": 0, "LINE_DIR4": 0, "LINE_DIR5": 0, "LINE_DIR6": 0, "LINE_DIR7": 0, "LINE_DIR8": 0, "LINE_DIR9": 0, "LINE_DIR10": 0, "LINE_DIR11": 0, "LINE_DIR12": 0, "LINE_DIR13": 0, "LINE_DIR14": 0, "layer_id": "bus_stops", "feature_name": "Bus Stop", "heat_layer": -0.5886, "index_right": 1288, "socioeconomic_layer": 2.7996481684560739, "heat_socio_layer": 2.2110481684560739 }, "geometry": { "type": "Point", "coordinates": [ -13164370.805057542398572, 4039107.23050491232425 ] } },
{ "type": "Feature", "properties": { "STOPNUM": 8033, "STOPNAME": "Sunset / Coronado", "LAT": 34.079278, "LONG": -118.26885, "LINE_DIR1": "2-E", "LINE_DIR2": "93-N", "LINE_DIR3": 0, "LINE_DIR4": 0, "LINE_DIR5": 0, "LINE_DIR6": 0, "LINE_DIR7": 0, "LINE_DIR8": 0, "LINE_DIR9": 0, "LINE_DIR10": 0, "LINE_DIR11": 0, "LINE_DIR12": 0, "LINE_DIR13": 0, "LINE_DIR14": 0, "layer_id": "bus_stops", "feature_name": "Bus Stop", "heat_layer": 1.6512, "index_right": 1261, "socioeconomic_layer": 2.9690946177193887, "heat_socio_layer": 4.6202946177193889 }, "geometry": { "type": "Point", "coordinates": [ -13165628.158706054091454, 4039452.098585108295083 ] } },
{ "type": "Feature", "properties": { "STOPNUM": 8101, "STOPNAME": "Temple / Spring", "LAT": 34.054895, "LONG": -118.242397, "LINE_DIR1": "92-N", "LINE_DIR2": null, "LINE_DIR3": 0, "LINE_DIR4": 0, "LINE_DIR5": 0, "LINE_DIR6": 0, "LINE_DIR7": 0, "LINE_DIR8": 0, "LINE_DIR9": 0, "LINE_DIR10": 0, "LINE_DIR11": 0, "LINE_DIR12": 0, "LINE_DIR13": 0, "LINE_DIR14": 0, "layer_id": "bus_stops", "feature_name": "Bus Stop", "heat_layer": -3.6198, "index_right": 1437, "socioeconomic_layer": 3.0344124037054612, "heat_socio_layer": -0.58538759629453896 }, "geometry": { "type": "Point", "coordinates": [ -13162683.424216099083424, 4036175.46734141651541 ] } },
{ "type": "Feature", "properties": { "STOPNUM": 8387, "STOPNAME": "Wilshire / Alvarado", "LAT": 34.057709, "LONG": -118.275668, "LINE_DIR1": "720-E", "LINE_DIR2": null, "LINE_DIR3": 0, "LINE_DIR4": 0, "LINE_DIR5": 0, "LINE_DIR6": 0, "LINE_DIR7": 0, "LINE_DIR8": 0, "LINE_DIR9": 0, "LINE_DIR10": 0, "LINE_DIR11": 0, "LINE_DIR12": 0, "LINE_DIR13": 0, "LINE_DIR14": 0, "layer_id": "bus_stops", "feature_name": "Bus Stop", "heat_layer": 3.0338, "index_right": 1481, "socioeconomic_layer": 4.3185886164257381, "heat_socio_layer": 7.3523886164257384 }, "geometry": { "type": "Point", "coordinates": [ -13166387.134994279593229, 4036553.569581525865942 ] } },
{ "type": "Feature", "properties": { "STOPNUM": 8636, "STOPNAME": "6th / Alameda", "LAT": 34.038273, "LONG": -118.238191, "LINE_DIR1": "18-W", "LINE_DIR2": null, "LINE_DIR3": 0, "LINE_DIR4": 0, "LINE_DIR5": 0, "LINE_DIR6": 0, "LINE_DIR7": 0, "LINE_DIR8": 0, "LINE_DIR9": 0, "LINE_DIR10": 0, "LINE_DIR11": 0, "LINE_DIR12": 0, "LINE_DIR13": 0, "LINE_DIR14": 0, "layer_id": "bus_stops", "feature_name": "Bus Stop", "heat_layer": 5.1216, "index_right": 1411, "socioeconomic_layer": 2.1698481983074149, "heat_socio_layer": 7.2914481983074149 }, "geometry": { "type": "Point", "coordinates": [ -13162215.214437821879983, 4033942.313427011948079 ] } },
{ "type": "Feature", "properties": { "STOPNUM": 9738, "STOPNAME": "5th / Towne", "LAT": 34.043025, "LONG": -118.241759, "LINE_DIR1": "18-W", "LINE_DIR2": "62-N", "LINE_DIR3": 0, "LINE_DIR4": 0, "LINE_DIR5": 0, "LINE_DIR6": 0, "LINE_DIR7": 0, "LINE_DIR8": 0, "LINE_DIR9": 0, "LINE_DIR10": 0, "LINE_DIR11": 0, "LINE_DIR12": 0, "LINE_DIR13": 0, "LINE_DIR14": 0, "layer_id": "bus_stops", "feature_name": "Bus Stop", "heat_layer": 3.886, "index_right": 1418, "socioeconomic_layer": 4.0514704839207818, "heat_socio_layer": 7.9374704839207819 }, "geometry": { "type": "Point", "coordinates": [ -13162612.402380973100662, 4034580.696575602516532 ] } },
{ "type": "Feature", "properties": { "STOPNUM": 9761, "STOPNAME": "7th / Main", "LAT": 34.043939, "LONG": -118.251638, "LINE_DIR1": "35-S", "LINE_DIR2": "51-S", "LINE_DIR3": 0, "LINE_DIR4": 0, "LINE_DIR5": 0, "LINE_DIR6": 0, "LINE_DIR7": 0, "LINE_DIR8": 0, "LINE_DIR9": 0, "LINE_DIR10": 0, "LINE_DIR11": 0, "LINE_DIR12": 0, "LINE_DIR13": 0, "LINE_DIR14": 0, "layer_id": "bus_stops", "feature_name": "Bus Stop", "heat_layer": -1.035, "index_right": 1429, "socioeconomic_layer": 2.8497964846490405, "heat_socio_layer": 1.8147964846490405 }, "geometry": { "type": "Point", "coordinates": [ -13163712.127630520612001, 4034703.487334965262562 ] } },
{ "type": "Feature", "properties": { "STOPNUM": 9788, "STOPNAME": "Adams / San Pedro", "LAT": 34.021575, "LONG": -118.261537, "LINE_DIR1": "55-S", "LINE_DIR2": null, "LINE_DIR3": 0, "LINE_DIR4": 0, "LINE_DIR5": 0, "LINE_DIR6": 0, "LINE_DIR7": 0, "LINE_DIR8": 0, "LINE_DIR9": 0, "LINE_DIR10": 0, "LINE_DIR11": 0, "LINE_DIR12": 0, "LINE_DIR13": 0, "LINE_DIR14": 0, "layer_id": "bus_stops", "feature_name": "Bus Stop", "heat_layer": 6.601, "index_right": 1830, "socioeconomic_layer": 4.0418143881437949, "heat_socio_layer": 10.642814388143794 }, "geometry": { "type": "Point", "coordinates": [ -13164814.07926988042891, 4031699.389543842058629 ] } },
{ "type": "Feature", "properties": { "STOPNUM": 10134, "STOPNAME": "Olympic / Naomi", "LAT": 34.030056, "LONG": -118.241576, "LINE_DIR1": "66-W", "LINE_DIR2": null, "LINE_DIR3": 0, "LINE_DIR4": 0, "LINE_DIR5": 0, "LINE_DIR6": 0, "LINE_DIR7": 0, "LINE_DIR8": 0, "LINE_DIR9": 0, "LINE_DIR10": 0, "LINE_DIR11": 0, "LINE_DIR12": 0, "LINE_DIR13": 0, "LINE_DIR14": 0, "layer_id": "bus_stops", "feature_name": "Bus Stop", "heat_layer": 7.5664, "index_right": 1828, "socioeconomic_layer": 3.8850682986319809, "heat_socio_layer": 11.45146829863198 }, "geometry": { "type": "Point", "coordinates": [ -13162592.030914155766368, 4032838.526947601232678 ] } },
{ "type": "Feature", "properties": { "STOPNUM": 11900, "STOPNAME": "Broadway / Arcadia", "LAT": 34.056942, "LONG": -118.242212, "LINE_DIR1": "45-N", "LINE_DIR2": "28-E", "LINE_DIR3": 0, "LINE_DIR4": 0, "LINE_DIR5": 0, "LINE_DIR6": 0, "LINE_DIR7": 0, "LINE_DIR8": 0, "LINE_DIR9": 0, "LINE_DIR10": 0, "LINE_DIR11": 0, "LINE_DIR12": 0, "LINE_DIR13": 0, "LINE_DIR14": 0, "layer_id": "bus_stops", "feature_name": "Bus Stop", "heat_layer": 1.9144, "index_right": 1425, "socioeconomic_layer": 4.2907955447235571, "heat_socio_layer": 6.2051955447235567 }, "geometry": { "type": "Point", "coordinates": [ -13162662.830110300332308, 4036450.510619232896715 ] } },
{ "type": "Feature", "properties": { "STOPNUM": 12102, "STOPNAME": "Hill / 1st", "LAT": 34.054753, "LONG": -118.246042, "LINE_DIR1": "94-N", "LINE_DIR2": "90-N", "LINE_DIR3": 0, "LINE_DIR4": 0, "LINE_DIR5": 0, "LINE_DIR6": 0, "LINE_DIR7": 0, "LINE_DIR8": 0, "LINE_DIR9": 0, "LINE_DIR10": 0, "LINE_DIR11": 0, "LINE_DIR12": 0, "LINE_DIR13": 0, "LINE_DIR14": 0, "layer_id": "bus_stops", "feature_name": "Bus Stop", "heat_layer": -3.6198, "index_right": 1437, "socioeconomic_layer": 3.0344124037054612, "heat_socio_layer": -0.58538759629453896 }, "geometry": { "type": "Point", "coordinates": [ -13163089.183760039508343, 4036156.387887987773865 ] } },
{ "type": "Feature", "properties": { "STOPNUM": 12426, "STOPNAME": "Temple / Rosemont", "LAT": 34.07118, "LONG": -118.270406, "LINE_DIR1": "10-W", "LINE_DIR2": null, "LINE_DIR3": 0, "LINE_DIR4": 0, "LINE_DIR5": 0, "LINE_DIR6": 0, "LINE_DIR7": 0, "LINE_DIR8": 0, "LINE_DIR9": 0, "LINE_DIR10": 0, "LINE_DIR11": 0, "LINE_DIR12": 0, "LINE_DIR13": 0, "LINE_DIR14": 0, "layer_id": "bus_stops", "feature_name": "Bus Stop", "heat_layer": 0.7408, "index_right": 1263, "socioeconomic_layer": 3.618117405503658, "heat_socio_layer": 4.3589174055036581 }, "geometry": { "type": "Point", "coordinates": [ -13165801.371833726763725, 4038363.770246099680662 ] } },
{ "type": "Feature", "properties": { "STOPNUM": 13117, "STOPNAME": "Alvarado / 8th", "LAT": 34.05509, "LONG": -118.277865, "LINE_DIR1": "2-E", "LINE_DIR2": null, "LINE_DIR3": 0, "LINE_DIR4": 0, "LINE_DIR5": 0, "LINE_DIR6": 0, "LINE_DIR7": 0, "LINE_DIR8": 0, "LINE_DIR9": 0, "LINE_DIR10": 0, "LINE_DIR11": 0, "LINE_DIR12": 0, "LINE_DIR13": 0, "LINE_DIR14": 0, "layer_id": "bus_stops", "feature_name": "Bus Stop", "heat_layer": 6.6648, "index_right": 1497, "socioeconomic_layer": 4.6636642360117104, "heat_socio_layer": 11.32846423601171 }, "geometry": { "type": "Point", "coordinates": [ -13166631.703915555030107, 4036201.668051371350884 ] } },
{ "type": "Feature", "properties": { "STOPNUM": 13120, "STOPNAME": "Alvarado / Olympic", "LAT": 34.051959, "LONG": -118.279862, "LINE_DIR1": "2-E", "LINE_DIR2": null, "LINE_DIR3": 0, "LINE_DIR4": 0, "LINE_DIR5": 0, "LINE_DIR6": 0, "LINE_DIR7": 0, "LINE_DIR8": 0, "LINE_DIR9": 0, "LINE_DIR10": 0, "LINE_DIR11": 0, "LINE_DIR12": 0, "LINE_DIR13": 0, "LINE_DIR14": 0, "layer_id": "bus_stops", "feature_name": "Bus Stop", "heat_layer": 5.0372, "index_right": 1500, "socioeconomic_layer": 4.5491144189991699, "heat_socio_layer": 9.5863144189991694 }, "geometry": { "type": "Point", "coordinates": [ -13166854.008938666433096, 4035780.985988307278603 ] } },
{ "type": "Feature", "properties": { "STOPNUM": 13122, "STOPNAME": "Alvarado / Wilshire", "LAT": 34.057713, "LONG": -118.276203, "LINE_DIR1": "93-S", "LINE_DIR2": "2-E", "LINE_DIR3": 0, "LINE_DIR4": 0, "LINE_DIR5": 0, "LINE_DIR6": 0, "LINE_DIR7": 0, "LINE_DIR8": 0, "LINE_DIR9": 0, "LINE_DIR10": 0, "LINE_DIR11": 0, "LINE_DIR12": 0, "LINE_DIR13": 0, "LINE_DIR14": 0, "layer_id": "bus_stops", "feature_name": "Bus Stop", "heat_layer": -0.9882, "index_right": 1474, "socioeconomic_layer": 3.8429294959525881, "heat_socio_layer": 2.8547294959525882 }, "geometry": { "type": "Point", "coordinates": [ -13166446.690921854227781, 4036554.107049223035574 ] } },
{ "type": "Feature", "properties": { "STOPNUM": 13226, "STOPNAME": "Broadway / 12th", "LAT": 34.038032, "LONG": -118.260568, "LINE_DIR1": "45-S", "LINE_DIR2": "40-S", "LINE_DIR3": 0, "LINE_DIR4": 0, "LINE_DIR5": 0, "LINE_DIR6": 0, "LINE_DIR7": 0, "LINE_DIR8": 0, "LINE_DIR9": 0, "LINE_DIR10": 0, "LINE_DIR11": 0, "LINE_DIR12": 0, "LINE_DIR13": 0, "LINE_DIR14": 0, "layer_id": "bus_stops", "feature_name": "Bus Stop", "heat_layer": 2.222, "index_right": 1447, "socioeconomic_layer": 2.8582636218966657, "heat_socio_layer": 5.0802636218966661 }, "geometry": { "type": "Point", "coordinates": [ -13164706.210683302953839, 4033909.938466899562627 ] } },
{ "type": "Feature", "properties": { "STOPNUM": 13309, "STOPNAME": "Central / 16th", "LAT": 34.02659, "LONG": -118.248734, "LINE_DIR1": "53-S", "LINE_DIR2": null, "LINE_DIR3": 0, "LINE_DIR4": 0, "LINE_DIR5": 0, "LINE_DIR6": 0, "LINE_DIR7": 0, "LINE_DIR8": 0, "LINE_DIR9": 0, "LINE_DIR10": 0, "LINE_DIR11": 0, "LINE_DIR12": 0, "LINE_DIR13": 0, "LINE_DIR14": 0, "layer_id": "bus_stops", "feature_name": "Bus Stop", "heat_layer": 7.5664, "index_right": 1828, "socioeconomic_layer": 3.8850682986319809, "heat_socio_layer": 11.45146829863198 }, "geometry": { "type": "Point", "coordinates": [ -13163388.855829255655408, 4032372.972542962990701 ] } },
{ "type": "Feature", "properties": { "STOPNUM": 13323, "STOPNAME": "6th / Central", "LAT": 34.038978, "LONG": -118.240153, "LINE_DIR1": "62-S", "LINE_DIR2": null, "LINE_DIR3": 0, "LINE_DIR4": 0, "LINE_DIR5": 0, "LINE_DIR6": 0, "LINE_DIR7": 0, "LINE_DIR8": 0, "LINE_DIR9": 0, "LINE_DIR10": 0, "LINE_DIR11": 0, "LINE_DIR12": 0, "LINE_DIR13": 0, "LINE_DIR14": 0, "layer_id": "bus_stops", "feature_name": "Bus Stop", "heat_layer": 7.2614, "index_right": 1422, "socioeconomic_layer": 4.5922241777298698, "heat_socio_layer": 11.85362417772987 }, "geometry": { "type": "Point", "coordinates": [ -13162433.623278759419918, 4034037.02078866166994 ] } },
{ "type": "Feature", "properties": { "STOPNUM": 13549, "STOPNAME": "Grand / Venice", "LAT": 34.03598, "LONG": -118.266348, "LINE_DIR1": "14-S", "LINE_DIR2": "78-W", "LINE_DIR3": 0, "LINE_DIR4": 0, "LINE_DIR5": 0, "LINE_DIR6": 0, "LINE_DIR7": 0, "LINE_DIR8": 0, "LINE_DIR9": 0, "LINE_DIR10": 0, "LINE_DIR11": 0, "LINE_DIR12": 0, "LINE_DIR13": 0, "LINE_DIR14": 0, "layer_id": "bus_stops", "feature_name": "Bus Stop", "heat_layer": 5.397, "index_right": 1808, "socioeconomic_layer": 3.5578625043066285, "heat_socio_layer": 8.9548625043066288 }, "geometry": { "type": "Point", "coordinates": [ -13165349.637340085580945, 4033634.284855949692428 ] } },
{ "type": "Feature", "properties": { "STOPNUM": 13554, "STOPNAME": "Figueroa / Venice", "LAT": 34.037236, "LONG": -118.270046, "LINE_DIR1": "81-N", "LINE_DIR2": "460-W", "LINE_DIR3": 0, "LINE_DIR4": 0, "LINE_DIR5": 0, "LINE_DIR6": 0, "LINE_DIR7": 0, "LINE_DIR8": 0, "LINE_DIR9": 0, "LINE_DIR10": 0, "LINE_DIR11": 0, "LINE_DIR12": 0, "LINE_DIR13": 0, "LINE_DIR14": 0, "layer_id": "bus_stops", "feature_name": "Bus Stop", "heat_layer": 1.8752, "index_right": 1809, "socioeconomic_layer": 3.2906005355624188, "heat_socio_layer": 5.1658005355624184 }, "geometry": { "type": "Point", "coordinates": [ -13165761.296817041933537, 4033803.007717011030763 ] } },
{ "type": "Feature", "properties": { "STOPNUM": 13560, "STOPNAME": "Grand / 3rd", "LAT": 34.052881, "LONG": -118.251572, "LINE_DIR1": "14-S", "LINE_DIR2": "910-S", "LINE_DIR3": 0, "LINE_DIR4": 0, "LINE_DIR5": 0, "LINE_DIR6": 0, "LINE_DIR7": 0, "LINE_DIR8": 0, "LINE_DIR9": 0, "LINE_DIR10": 0, "LINE_DIR11": 0, "LINE_DIR12": 0, "LINE_DIR13": 0, "LINE_DIR14": 0, "layer_id": "bus_stops", "feature_name": "Bus Stop", "heat_layer": -8.6848, "index_right": 1441, "socioeconomic_layer": 3.8868018623141598, "heat_socio_layer": -4.7979981376858394 }, "geometry": { "type": "Point", "coordinates": [ -13163704.780544126406312, 4035904.864560239948332 ] } },
{ "type": "Feature", "properties": { "STOPNUM": 13567, "STOPNAME": "Grand / 7th", "LAT": 34.04654, "LONG": -118.257495, "LINE_DIR1": "14-S", "LINE_DIR2": "78-W", "LINE_DIR3": 0, "LINE_DIR4": 0, "LINE_DIR5": 0, "LINE_DIR6": 0, "LINE_DIR7": 0, "LINE_DIR8": 0, "LINE_DIR9": 0, "LINE_DIR10": 0, "LINE_DIR11": 0, "LINE_DIR12": 0, "LINE_DIR13": 0, "LINE_DIR14": 0, "layer_id": "bus_stops", "feature_name": "Bus Stop", "heat_layer": -5.6296, "index_right": 1443, "socioeconomic_layer": 3.2489288387736637, "heat_socio_layer": -2.3806711612263363 }, "geometry": { "type": "Point", "coordinates": [ -13164364.125888096168637, 4035052.924297982826829 ] } },
{ "type": "Feature", "properties": { "STOPNUM": 13568, "STOPNAME": "Grand / 8th", "LAT": 34.045723, "LONG": -118.258252, "LINE_DIR1": "14-S", "LINE_DIR2": "78-W", "LINE_DIR3": 0, "LINE_DIR4": 0, "LINE_DIR5": 0, "LINE_DIR6": 0, "LINE_DIR7": 0, "LINE_DIR8": 0, "LINE_DIR9": 0, "LINE_DIR10": 0, "LINE_DIR11": 0, "LINE_DIR12": 0, "LINE_DIR13": 0, "LINE_DIR14": 0, "layer_id": "bus_stops", "feature_name": "Bus Stop", "heat_layer": -5.6296, "index_right": 1443, "socioeconomic_layer": 3.2489288387736637, "heat_socio_layer": -2.3806711612263363 }, "geometry": { "type": "Point", "coordinates": [ -13164448.394742626696825, 4034943.161513730417937 ] } },
{ "type": "Feature", "properties": { "STOPNUM": 13573, "STOPNAME": "Grand / 23rd", "LAT": 34.02931, "LONG": -118.270634, "LINE_DIR1": "14-S", "LINE_DIR2": "55-S", "LINE_DIR3": 0, "LINE_DIR4": 0, "LINE_DIR5": 0, "LINE_DIR6": 0, "LINE_DIR7": 0, "LINE_DIR8": 0, "LINE_DIR9": 0, "LINE_DIR10": 0, "LINE_DIR11": 0, "LINE_DIR12": 0, "LINE_DIR13": 0, "LINE_DIR14": 0, "layer_id": "bus_stops", "feature_name": "Bus Stop", "heat_layer": 2.8998, "index_right": 1810, "socioeconomic_layer": 3.7749837642375321, "heat_socio_layer": 6.6747837642375316 }, "geometry": { "type": "Point", "coordinates": [ -13165826.752677628770471, 4032738.322345070540905 ] } },
{ "type": "Feature", "properties": { "STOPNUM": 13576, "STOPNAME": "Grand / Washington", "LAT": 34.032524, "LONG": -118.268585, "LINE_DIR1": "35-S", "LINE_DIR2": null, "LINE_DIR3": 0, "LINE_DIR4": 0, "LINE_DIR5": 0, "LINE_DIR6": 0, "LINE_DIR7": 0, "LINE_DIR8": 0, "LINE_DIR9": 0, "LINE_DIR10": 0, "LINE_DIR11": 0, "LINE_DIR12": 0, "LINE_DIR13": 0, "LINE_DIR14": 0, "layer_id": "bus_stops", "feature_name": "Bus Stop", "heat_layer": 2.8998, "index_right": 1810, "socioeconomic_layer": 3.7749837642375321, "heat_socio_layer": 6.6747837642375316 }, "geometry": { "type": "Point", "coordinates": [ -13165598.659040993079543, 4033170.041214448399842 ] } },
{ "type": "Feature", "properties": { "STOPNUM": 13596, "STOPNAME": "Hill / 4th", "LAT": 34.050438, "LONG": -118.250406, "LINE_DIR1": "81-S", "LINE_DIR2": "10-E", "LINE_DIR3": 0, "LINE_DIR4": 0, "LINE_DIR5": 0, "LINE_DIR6": 0, "LINE_DIR7": 0, "LINE_DIR8": 0, "LINE_DIR9": 0, "LINE_DIR10": 0, "LINE_DIR11": 0, "LINE_DIR12": 0, "LINE_DIR13": 0, "LINE_DIR14": 0, "layer_id": "bus_stops", "feature_name": "Bus Stop", "heat_layer": -4.0374, "index_right": 1440, "socioeconomic_layer": 4.6396840073877597, "heat_socio_layer": 0.60228400738775978 }, "geometry": { "type": "Point", "coordinates": [ -13163574.982017861679196, 4035576.629596570041031 ] } },
{ "type": "Feature", "properties": { "STOPNUM": 13868, "STOPNAME": "San Pedro / 11th", "LAT": 34.035066, "LONG": -118.252119, "LINE_DIR1": "51-N", "LINE_DIR2": null, "LINE_DIR3": 0, "LINE_DIR4": 0, "LINE_DIR5": 0, "LINE_DIR6": 0, "LINE_DIR7": 0, "LINE_DIR8": 0, "LINE_DIR9": 0, "LINE_DIR10": 0, "LINE_DIR11": 0, "LINE_DIR12": 0, "LINE_DIR13": 0, "LINE_DIR14": 0, "layer_id": "bus_stops", "feature_name": "Bus Stop", "heat_layer": 7.4758, "index_right": 1827, "socioeconomic_layer": 2.8409808997107788, "heat_socio_layer": 10.316780899710778 }, "geometry": { "type": "Point", "coordinates": [ -13163765.672305591404438, 4033511.505618227180094 ] } },
{ "type": "Feature", "properties": { "STOPNUM": 13926, "STOPNAME": "Santa Fe / Olympic", "LAT": 34.0258, "LONG": -118.230062, "LINE_DIR1": "60-S", "LINE_DIR2": null, "LINE_DIR3": 0, "LINE_DIR4": 0, "LINE_DIR5": 0, "LINE_DIR6": 0, "LINE_DIR7": 0, "LINE_DIR8": 0, "LINE_DIR9": 0, "LINE_DIR10": 0, "LINE_DIR11": 0, "LINE_DIR12": 0, "LINE_DIR13": 0, "LINE_DIR14": 0, "layer_id": "bus_stops", "feature_name": "Bus Stop", "heat_layer": 6.4136, "index_right": 1410, "socioeconomic_layer": 1.9233717772954733, "heat_socio_layer": 8.3369717772954726 }, "geometry": { "type": "Point", "coordinates": [ -13161310.298297164961696, 4032266.862111191730946 ] } },
{ "type": "Feature", "properties": { "STOPNUM": 13968, "STOPNAME": "Spring / 3rd", "LAT": 34.049661, "LONG": -118.247621, "LINE_DIR1": "28-W", "LINE_DIR2": "33-W", "LINE_DIR3": 0, "LINE_DIR4": 0, "LINE_DIR5": 0, "LINE_DIR6": 0, "LINE_DIR7": 0, "LINE_DIR8": 0, "LINE_DIR9": 0, "LINE_DIR10": 0, "LINE_DIR11": 0, "LINE_DIR12": 0, "LINE_DIR13": 0, "LINE_DIR14": 0, "layer_id": "bus_stops", "feature_name": "Bus Stop", "heat_layer": -2.3792, "index_right": 1432, "socioeconomic_layer": 2.0400542158268973, "heat_socio_layer": -0.3391457841731027 }, "geometry": { "type": "Point", "coordinates": [ -13163264.957236003130674, 4035472.235931552480906 ] } },
{ "type": "Feature", "properties": { "STOPNUM": 15291, "STOPNAME": "Venice / Oak", "LAT": 34.039942, "LONG": -118.275332, "LINE_DIR1": "33-W", "LINE_DIR2": null, "LINE_DIR3": 0, "LINE_DIR4": 0, "LINE_DIR5": 0, "LINE_DIR6": 0, "LINE_DIR7": 0, "LINE_DIR8": 0, "LINE_DIR9": 0, "LINE_DIR10": 0, "LINE_DIR11": 0, "LINE_DIR12": 0, "LINE_DIR13": 0, "LINE_DIR14": 0, "layer_id": "bus_stops", "feature_name": "Bus Stop", "heat_layer": 2.9798, "index_right": 1812, "socioeconomic_layer": 4.0394536030550583, "heat_socio_layer": 7.0192536030550583 }, "geometry": { "type": "Point", "coordinates": [ -13166349.731645375490189, 4034166.522625357843935 ] } },
{ "type": "Feature", "properties": { "STOPNUM": 15598, "STOPNAME": "Broadway / 12th", "LAT": 34.037961, "LONG": -118.260255, "LINE_DIR1": "4-W", "LINE_DIR2": null, "LINE_DIR3": 0, "LINE_DIR4": 0, "LINE_DIR5": 0, "LINE_DIR6": 0, "LINE_DIR7": 0, "LINE_DIR8": 0, "LINE_DIR9": 0, "LINE_DIR10": 0, "LINE_DIR11": 0, "LINE_DIR12": 0, "LINE_DIR13": 0, "LINE_DIR14": 0, "layer_id": "bus_stops", "feature_name": "Bus Stop", "heat_layer": 2.222, "index_right": 1447, "socioeconomic_layer": 2.8582636218966657, "heat_socio_layer": 5.0802636218966661 }, "geometry": { "type": "Point", "coordinates": [ -13164671.367682686075568, 4033900.400633122306317 ] } },
{ "type": "Feature", "properties": { "STOPNUM": 15613, "STOPNAME": "1st / Hope", "LAT": 34.05636, "LONG": -118.250058, "LINE_DIR1": "14-S", "LINE_DIR2": null, "LINE_DIR3": 0, "LINE_DIR4": 0, "LINE_DIR5": 0, "LINE_DIR6": 0, "LINE_DIR7": 0, "LINE_DIR8": 0, "LINE_DIR9": 0, "LINE_DIR10": 0, "LINE_DIR11": 0, "LINE_DIR12": 0, "LINE_DIR13": 0, "LINE_DIR14": 0, "layer_id": "bus_stops", "feature_name": "Bus Stop", "heat_layer": -5.215, "index_right": 1438, "socioeconomic_layer": 2.5341052890100366, "heat_socio_layer": -2.6808947109899632 }, "geometry": { "type": "Point", "coordinates": [ -13163536.242835065349936, 4036372.310047185048461 ] } },
{ "type": "Feature", "properties": { "STOPNUM": 15689, "STOPNAME": "5th / Broadway", "LAT": 34.048354, "LONG": -118.250875, "LINE_DIR1": "20-W", "LINE_DIR2": "720-W", "LINE_DIR3": 0, "LINE_DIR4": 0, "LINE_DIR5": 0, "LINE_DIR6": 0, "LINE_DIR7": 0, "LINE_DIR8": 0, "LINE_DIR9": 0, "LINE_DIR10": 0, "LINE_DIR11": 0, "LINE_DIR12": 0, "LINE_DIR13": 0, "LINE_DIR14": 0, "layer_id": "bus_stops", "feature_name": "Bus Stop", "heat_layer": -2.3792, "index_right": 1432, "socioeconomic_layer": 2.0400542158268973, "heat_socio_layer": -0.3391457841731027 }, "geometry": { "type": "Point", "coordinates": [ -13163627.190859043970704, 4035296.636390560306609 ] } },
{ "type": "Feature", "properties": { "STOPNUM": 15718, "STOPNAME": "6th / Grand", "LAT": 34.049026, "LONG": -118.255899, "LINE_DIR1": "487-E", "LINE_DIR2": null, "LINE_DIR3": 0, "LINE_DIR4": 0, "LINE_DIR5": 0, "LINE_DIR6": 0, "LINE_DIR7": 0, "LINE_DIR8": 0, "LINE_DIR9": 0, "LINE_DIR10": 0, "LINE_DIR11": 0, "LINE_DIR12": 0, "LINE_DIR13": 0, "LINE_DIR14": 0, "layer_id": "bus_stops", "feature_name": "Bus Stop", "heat_layer": -8.3606, "index_right": 1444, "socioeconomic_layer": 2.5669514830171973, "heat_socio_layer": -5.7936485169828025 }, "geometry": { "type": "Point", "coordinates": [ -13164186.459980787709355, 4035386.921355876140296 ] } },
{ "type": "Feature", "properties": { "STOPNUM": 15734, "STOPNAME": "7th / Francisco", "LAT": 34.050087, "LONG": -118.261874, "LINE_DIR1": "51-N", "LINE_DIR2": null, "LINE_DIR3": 0, "LINE_DIR4": 0, "LINE_DIR5": 0, "LINE_DIR6": 0, "LINE_DIR7": 0, "LINE_DIR8": 0, "LINE_DIR9": 0, "LINE_DIR10": 0, "LINE_DIR11": 0, "LINE_DIR12": 0, "LINE_DIR13": 0, "LINE_DIR14": 0, "layer_id": "bus_stops", "feature_name": "Bus Stop", "heat_layer": -4.5012, "index_right": 1442, "socioeconomic_layer": 2.2883277220234759, "heat_socio_layer": -2.212872277976524 }, "geometry": { "type": "Point", "coordinates": [ -13164851.593938279896975, 4035529.470949882641435 ] } },
{ "type": "Feature", "properties": { "STOPNUM": 15750, "STOPNAME": "7th / Hope", "LAT": 34.048013, "LONG": -118.25744, "LINE_DIR1": "51-N", "LINE_DIR2": null, "LINE_DIR3": 0, "LINE_DIR4": 0, "LINE_DIR5": 0, "LINE_DIR6": 0, "LINE_DIR7": 0, "LINE_DIR8": 0, "LINE_DIR9": 0, "LINE_DIR10": 0, "LINE_DIR11": 0, "LINE_DIR12": 0, "LINE_DIR13": 0, "LINE_DIR14": 0, "layer_id": "bus_stops", "feature_name": "Bus Stop", "heat_layer": -8.3606, "index_right": 1444, "socioeconomic_layer": 2.5669514830171973, "heat_socio_layer": -5.7936485169828025 }, "geometry": { "type": "Point", "coordinates": [ -13164358.003316102549434, 4035250.822418441530317 ] } },
{ "type": "Feature", "properties": { "STOPNUM": 15767, "STOPNAME": "7th / Witmer", "LAT": 34.052328, "LONG": -118.26745, "LINE_DIR1": "51-N", "LINE_DIR2": null, "LINE_DIR3": 0, "LINE_DIR4": 0, "LINE_DIR5": 0, "LINE_DIR6": 0, "LINE_DIR7": 0, "LINE_DIR8": 0, "LINE_DIR9": 0, "LINE_DIR10": 0, "LINE_DIR11": 0, "LINE_DIR12": 0, "LINE_DIR13": 0, "LINE_DIR14": 0, "layer_id": "bus_stops", "feature_name": "Bus Stop", "heat_layer": 2.2414, "index_right": 1488, "socioeconomic_layer": 3.7082149720659903, "heat_socio_layer": 5.9496149720659908 }, "geometry": { "type": "Point", "coordinates": [ -13165472.311418941244483, 4035830.564127089455724 ] } },
{ "type": "Feature", "properties": { "STOPNUM": 15774, "STOPNAME": "8th / Garland", "LAT": 34.049726, "LONG": -118.267379, "LINE_DIR1": "66-W", "LINE_DIR2": null, "LINE_DIR3": 0, "LINE_DIR4": 0, "LINE_DIR5": 0, "LINE_DIR6": 0, "LINE_DIR7": 0, "LINE_DIR8": 0, "LINE_DIR9": 0, "LINE_DIR10": 0, "LINE_DIR11": 0, "LINE_DIR12": 0, "LINE_DIR13": 0, "LINE_DIR14": 0, "layer_id": "bus_stops", "feature_name": "Bus Stop", "heat_layer": -3.8072, "index_right": 1493, "socioeconomic_layer": 3.4183460869043132, "heat_socio_layer": -0.38885391309568673 }, "geometry": { "type": "Point", "coordinates": [ -13165464.407735098153353, 4035480.968955662567168 ] } },
{ "type": "Feature", "properties": { "STOPNUM": 15776, "STOPNAME": "8th / Alvarado", "LAT": 34.055101, "LONG": -118.278056, "LINE_DIR1": "66-W", "LINE_DIR2": null, "LINE_DIR3": 0, "LINE_DIR4": 0, "LINE_DIR5": 0, "LINE_DIR6": 0, "LINE_DIR7": 0, "LINE_DIR8": 0, "LINE_DIR9": 0, "LINE_DIR10": 0, "LINE_DIR11": 0, "LINE_DIR12": 0, "LINE_DIR13": 0, "LINE_DIR14": 0, "layer_id": "bus_stops", "feature_name": "Bus Stop", "heat_layer": 6.6648, "index_right": 1497, "socioeconomic_layer": 4.6636642360117104, "heat_socio_layer": 11.32846423601171 }, "geometry": { "type": "Point", "coordinates": [ -13166652.965938298031688, 4036203.146041933912784 ] } },
{ "type": "Feature", "properties": { "STOPNUM": 15786, "STOPNAME": "8th / Grand", "LAT": 34.046066, "LONG": -118.258055, "LINE_DIR1": "66-W", "LINE_DIR2": null, "LINE_DIR3": 0, "LINE_DIR4": 0, "LINE_DIR5": 0, "LINE_DIR6": 0, "LINE_DIR7": 0, "LINE_DIR8": 0, "LINE_DIR9": 0, "LINE_DIR10": 0, "LINE_DIR11": 0, "LINE_DIR12": 0, "LINE_DIR13": 0, "LINE_DIR14": 0, "layer_id": "bus_stops", "feature_name": "Bus Stop", "heat_layer": -5.6296, "index_right": 1443, "socioeconomic_layer": 3.2489288387736637, "heat_socio_layer": -2.3806711612263363 }, "geometry": { "type": "Point", "coordinates": [ -13164426.464802937582135, 4034989.242945522535592 ] } },
{ "type": "Feature", "properties": { "STOPNUM": 16140, "STOPNAME": "Olympic / Alvarado", "LAT": 34.051778, "LONG": -118.27962, "LINE_DIR1": "28-W", "LINE_DIR2": null, "LINE_DIR3": 0, "LINE_DIR4": 0, "LINE_DIR5": 0, "LINE_DIR6": 0, "LINE_DIR7": 0, "LINE_DIR8": 0, "LINE_DIR9": 0, "LINE_DIR10": 0, "LINE_DIR11": 0, "LINE_DIR12": 0, "LINE_DIR13": 0, "LINE_DIR14": 0, "layer_id": "bus_stops", "feature_name": "Bus Stop", "heat_layer": 4.4434, "index_right": 1503, "socioeconomic_layer": 4.2266230061405974, "heat_socio_layer": 8.6700230061405961 }, "geometry": { "type": "Point", "coordinates": [ -13166827.069621896371245, 4035756.667251149192452 ] } },
{ "type": "Feature", "properties": { "STOPNUM": 16199, "STOPNAME": "Pico / Figueroa", "LAT": 34.04087, "LONG": -118.268163, "LINE_DIR1": "30-W", "LINE_DIR2": null, "LINE_DIR3": 0, "LINE_DIR4": 0, "LINE_DIR5": 0, "LINE_DIR6": 0, "LINE_DIR7": 0, "LINE_DIR8": 0, "LINE_DIR9": 0, "LINE_DIR10": 0, "LINE_DIR11": 0, "LINE_DIR12": 0, "LINE_DIR13": 0, "LINE_DIR14": 0, "layer_id": "bus_stops", "feature_name": "Bus Stop", "heat_layer": -4.5012, "index_right": 1442, "socioeconomic_layer": 2.2883277220234759, "heat_socio_layer": -2.212872277976524 }, "geometry": { "type": "Point", "coordinates": [ -13165551.682215878739953, 4034291.189684335608035 ] } },
{ "type": "Feature", "properties": { "STOPNUM": 16302, "STOPNAME": "Sunset / Douglas", "LAT": 34.07413, "LONG": -118.251735, "LINE_DIR1": "4-W", "LINE_DIR2": null, "LINE_DIR3": 0, "LINE_DIR4": 0, "LINE_DIR5": 0, "LINE_DIR6": 0, "LINE_DIR7": 0, "LINE_DIR8": 0, "LINE_DIR9": 0, "LINE_DIR10": 0, "LINE_DIR11": 0, "LINE_DIR12": 0, "LINE_DIR13": 0, "LINE_DIR14": 0, "layer_id": "bus_stops", "feature_name": "Bus Stop", "heat_layer": 0.7626, "index_right": 1293, "socioeconomic_layer": 3.4018008819116576, "heat_socio_layer": 4.1644008819116571 }, "geometry": { "type": "Point", "coordinates": [ -13163722.925621123984456, 4038760.222584819421172 ] } },
{ "type": "Feature", "properties": { "STOPNUM": 16353, "STOPNAME": "Sunset / Rosemont", "LAT": 34.078155, "LONG": -118.266116, "LINE_DIR1": "2-W", "LINE_DIR2": "93-S", "LINE_DIR3": 0, "LINE_DIR4": 0, "LINE_DIR5": 0, "LINE_DIR6": 0, "LINE_DIR7": 0, "LINE_DIR8": 0, "LINE_DIR9": 0, "LINE_DIR10": 0, "LINE_DIR11": 0, "LINE_DIR12": 0, "LINE_DIR13": 0, "LINE_DIR14": 0, "layer_id": "bus_stops", "feature_name": "Bus Stop", "heat_layer": 0.9326, "index_right": 1258, "socioeconomic_layer": 3.2289424187738396, "heat_socio_layer": 4.1615424187738395 }, "geometry": { "type": "Point", "coordinates": [ -13165323.811218224465847, 4039301.167114623822272 ] } },
{ "type": "Feature", "properties": { "STOPNUM": 16384, "STOPNAME": "Temple / Rampart", "LAT": 34.072594, "LONG": -118.274634, "LINE_DIR1": "10-W", "LINE_DIR2": null, "LINE_DIR3": 0, "LINE_DIR4": 0, "LINE_DIR5": 0, "LINE_DIR6": 0, "LINE_DIR7": 0, "LINE_DIR8": 0, "LINE_DIR9": 0, "LINE_DIR10": 0, "LINE_DIR11": 0, "LINE_DIR12": 0, "LINE_DIR13": 0, "LINE_DIR14": 0, "layer_id": "bus_stops", "feature_name": "Bus Stop", "heat_layer": 2.0218, "index_right": 1267, "socioeconomic_layer": 3.1803655974982648, "heat_socio_layer": 5.202165597498265 }, "geometry": { "type": "Point", "coordinates": [ -13166272.030640801414847, 4038553.796864653471857 ] } },
{ "type": "Feature", "properties": { "STOPNUM": 16449, "STOPNAME": "Washington / Oak", "LAT": 34.036945, "LONG": -118.277342, "LINE_DIR1": "35-N", "LINE_DIR2": null, "LINE_DIR3": 0, "LINE_DIR4": 0, "LINE_DIR5": 0, "LINE_DIR6": 0, "LINE_DIR7": 0, "LINE_DIR8": 0, "LINE_DIR9": 0, "LINE_DIR10": 0, "LINE_DIR11": 0, "LINE_DIR12": 0, "LINE_DIR13": 0, "LINE_DIR14": 0, "layer_id": "bus_stops", "feature_name": "Bus Stop", "heat_layer": 1.2426, "index_right": 1818, "socioeconomic_layer": 3.3345767925953593, "heat_socio_layer": 4.5771767925953597 }, "geometry": { "type": "Point", "coordinates": [ -13166573.483821868896484, 4033763.916449620388448 ] } },
{ "type": "Feature", "properties": { "STOPNUM": 16931, "STOPNAME": "Santa Fe / 8th", "LAT": 34.029724, "LONG": -118.230096, "LINE_DIR1": "60-S", "LINE_DIR2": null, "LINE_DIR3": 0, "LINE_DIR4": 0, "LINE_DIR5": 0, "LINE_DIR6": 0, "LINE_DIR7": 0, "LINE_DIR8": 0, "LINE_DIR9": 0, "LINE_DIR10": 0, "LINE_DIR11": 0, "LINE_DIR12": 0, "LINE_DIR13": 0, "LINE_DIR14": 0, "layer_id": "bus_stops", "feature_name": "Bus Stop", "heat_layer": 6.4136, "index_right": 1410, "socioeconomic_layer": 1.9233717772954733, "heat_socio_layer": 8.3369717772954726 }, "geometry": { "type": "Point", "coordinates": [ -13161314.083159849047661, 4032793.931761004496366 ] } },
{ "type": "Feature", "properties": { "STOPNUM": 16947, "STOPNAME": "Broadway / 7th", "LAT": 34.045509, "LONG": -118.252927, "LINE_DIR1": "4-W", "LINE_DIR2": "45-N", "LINE_DIR3": 0, "LINE_DIR4": 0, "LINE_DIR5": 0, "LINE_DIR6": 0, "LINE_DIR7": 0, "LINE_DIR8": 0, "LINE_DIR9": 0, "LINE_DIR10": 0, "LINE_DIR11": 0, "LINE_DIR12": 0, "LINE_DIR13": 0, "LINE_DIR14": 0, "layer_id": "bus_stops", "feature_name": "Bus Stop", "heat_layer": -3.8898, "index_right": 1430, "socioeconomic_layer": 3.4779708806552887, "heat_socio_layer": -0.41182911934471145 }, "geometry": { "type": "Point", "coordinates": [ -13163855.618454150855541, 4034914.41109385760501 ] } },
{ "type": "Feature", "properties": { "STOPNUM": 16950, "STOPNAME": "Hill / Adams", "LAT": 34.026021, "LONG": -118.270557, "LINE_DIR1": "14-N", "LINE_DIR2": null, "LINE_DIR3": 0, "LINE_DIR4": 0, "LINE_DIR5": 0, "LINE_DIR6": 0, "LINE_DIR7": 0, "LINE_DIR8": 0, "LINE_DIR9": 0, "LINE_DIR10": 0, "LINE_DIR11": 0, "LINE_DIR12": 0, "LINE_DIR13": 0, "LINE_DIR14": 0, "layer_id": "bus_stops", "feature_name": "Bus Stop", "heat_layer": 6.5238, "index_right": 1811, "socioeconomic_layer": 4.1759712630451817, "heat_socio_layer": 10.699771263045182 }, "geometry": { "type": "Point", "coordinates": [ -13165818.181076837703586, 4032296.546069170814008 ] } },
{ "type": "Feature", "properties": { "STOPNUM": 17106, "STOPNAME": "23rd / Estrella", "LAT": 34.032104, "LONG": -118.276746, "LINE_DIR1": "93-N", "LINE_DIR2": null, "LINE_DIR3": 0, "LINE_DIR4": 0, "LINE_DIR5": 0, "LINE_DIR6": 0, "LINE_DIR7": 0, "LINE_DIR8": 0, "LINE_DIR9": 0, "LINE_DIR10": 0, "LINE_DIR11": 0, "LINE_DIR12": 0, "LINE_DIR13": 0, "LINE_DIR14": 0, "layer_id": "bus_stops", "feature_name": "Bus Stop", "heat_layer": -1.5528, "index_right": 1821, "socioeconomic_layer": 4.3877959607664865, "heat_socio_layer": 2.8349959607664865 }, "geometry": { "type": "Point", "coordinates": [ -13166507.137405356392264, 4033113.624005146790296 ] } },
{ "type": "Feature", "properties": { "STOPNUM": 104703, "STOPNAME": "5th / Main", "LAT": 34.046606, "LONG": -118.248203, "LINE_DIR1": "20-W", "LINE_DIR2": "720-W", "LINE_DIR3": 0, "LINE_DIR4": 0, "LINE_DIR5": 0, "LINE_DIR6": 0, "LINE_DIR7": 0, "LINE_DIR8": 0, "LINE_DIR9": 0, "LINE_DIR10": 0, "LINE_DIR11": 0, "LINE_DIR12": 0, "LINE_DIR13": 0, "LINE_DIR14": 0, "layer_id": "bus_stops", "feature_name": "Bus Stop", "heat_layer": 0.3176, "index_right": 1433, "socioeconomic_layer": 2.6055945652495152, "heat_socio_layer": 2.9231945652495153 }, "geometry": { "type": "Point", "coordinates": [ -13163329.745179645717144, 4035061.791349975857884 ] } },
{ "type": "Feature", "properties": { "STOPNUM": 140719, "STOPNAME": "Venice / Grand", "LAT": 34.035746, "LONG": -118.266512, "LINE_DIR1": "33-E", "LINE_DIR2": null, "LINE_DIR3": 0, "LINE_DIR4": 0, "LINE_DIR5": 0, "LINE_DIR6": 0, "LINE_DIR7": 0, "LINE_DIR8": 0, "LINE_DIR9": 0, "LINE_DIR10": 0, "LINE_DIR11": 0, "LINE_DIR12": 0, "LINE_DIR13": 0, "LINE_DIR14": 0, "layer_id": "bus_stops", "feature_name": "Bus Stop", "heat_layer": 5.397, "index_right": 1808, "socioeconomic_layer": 3.5578625043066285, "heat_socio_layer": 8.9548625043066288 }, "geometry": { "type": "Point", "coordinates": [ -13165367.893736578524113, 4033602.85109579982236 ] } }
]
}
