{
"type": "FeatureCollection",
"name": "optimized_shades_TopHeatSocio_DTLA_100",
"crs": { "type": "name", "properties": { "name": "urn:ogc:def:crs:EPSG::3857" } },
"features": [
{ "type": "Feature", "properties": { "STOPNUM": 3149, "STOPNAME": "Maple / 30th", "LAT": 34.020477, "LONG": -118.267408, "LINE_DIR1": "10-E", "LINE_DIR2": null, "LINE_DIR3": 0, "LINE_DIR4": 0, "LINE_DIR5": 0, "LINE_DIR6": 0, "LINE_DIR7": 0, "LINE_DIR8": 0, "LINE_DIR9": 0, "LINE_DIR10": 0, "LINE_DIR11": 0, "LINE_DIR12": 0, "LINE_DIR13": 0, "LINE_DIR14": 0, "layer_id": "bus_stops", "feature_name": "Bus Stop", "heat_layer": 8.8206, "index_right": 1822, "socioeconomic_layer": 3.9531246568218585, "heat_socio_layer": 12.773724656821859 }, "geometry": { "type": "Point", "coordinates": [ -13165467.636000329628587, 4031551.918457468040287 ] } },
{ "type": "Feature", "properties": { "STOPNUM": 5483, "STOPNAME": "San Pedro / 21st", "LAT": 34.026064, "LONG": -118.25862, "LINE_DIR1": "51-S", "LINE_DIR2": null, "LINE_DIR3": 0, "LINE_DIR4": 0, "LINE_DIR5": 0, "LINE_DIR6": 0, "LINE_DIR7": 0, "LINE_DIR8": 0, "LINE_DIR9": 0, "LINE_DIR10": 0, "LINE_DIR11": 0, "LINE_DIR12": 0, "LINE_DIR13": 0, "LINE_DIR14": 0, "layer_id": "bus_stops", "feature_name": "Bus Stop", "heat_layer": 7.4568, "index_right": 1826, "socioeconomic_layer": 4.4925893809188828, "heat_socio_layer": 11.949389380918884 }, "geometry": { "type": "Point", "coordinates": [ -13164489.360315235331655, 4032302.321689887437969 ] } },
{ "type": "Feature", "properties": { "STOPNUM": 13351, "STOPNAME": "Central / Washington", "LAT": 34.024261, "LONG": -118.250919, "LINE_DIR1": "53-S", "LINE_DIR2": null, "LINE_DIR3": 0, "LINE_DIR4": 0, "LINE_DIR5": 0, "LINE_DIR6": 0, "LINE_DIR7": 0, "LINE_DIR8": 0, "LINE_DIR9": 0, "LINE_DIR10": 0, "LINE_DIR11": 0, "LINE_DIR12": 0, "LINE_DIR13": 0, "LINE_DIR14": 0, "layer_id": "bus_stops", "feature_name": "Bus Stop", "heat_layer": 7.4568, "index_right": 1826, "socioeconomic_layer": 4.4925893809188828, "heat_socio_layer": 11.949389380918884 }, "geometry": { "type": "Point", "coordinates": [ -13163632.088916637003422, 4032060.151081276591867 ] } },
{ "type": "Feature", "properties": { "STOPNUM": 5506, "STOPNAME": "San Pedro / Washington", "LAT": 34.027516, "LONG": -118.257681, "LINE_DIR1": "51-S", "LINE_DIR2": null, "LINE_DIR3": 0, "LINE_DIR4": 0, "LINE_DIR5": 0, "LINE_DIR6": 0, "LINE_DIR7": 0, "LINE_DIR8": 0, "LINE_DIR9": 0, "LINE_DIR10": 0, "LINE_DIR11": 0, "LINE_DIR12": 0, "LINE_DIR13": 0, "LINE_DIR14": 0, "layer_id": "bus_stops", "feature_name": "Bus Stop", "heat_layer": 7.4568, "index_right": 1826, "socioeconomic_layer": 4.4925893809188828, "heat_socio_layer": 11.949389380918884 }, "geometry": { "type": "Point", "coordinates": [ -13164384.831313384696841, 4032497.351344609633088 ] } },
{ "type": "Feature", "properties": { "STOPNUM": 3691, "STOPNAME": "Central / Washington", "LAT": 34.0246, "LONG": -118.250167, "LINE_DIR1": "53-N", "LINE_DIR2": null, "LINE_DIR3": 0, "LINE_DIR4": 0, "LINE_DIR5": 0, "LINE_DIR6": 0, "LINE_DIR7": 0, "LINE_DIR8": 0, "LINE_DIR9": 0, "LINE_DIR10": 0, "LINE_DIR11": 0, "LINE_DIR12": 0, "LINE_DIR13": 0, "LINE_DIR14": 0, "layer_id": "bus_stops", "feature_name": "Bus Stop", "heat_layer": 7.4568, "index_right": 1826, "socioeconomic_layer": 4.4925893809188828, "heat_socio_layer": 11.949389380918884 }, "geometry": { "type": "Point", "coordinates": [ -13163548.37665956094861, 4032105.683598305098712 ] } },
{ "type": "Feature", "properties": { "STOPNUM": 13896, "STOPNAME": "San Pedro / Washington", "LAT": 34.027396, "LONG": -118.257417, "LINE_DIR1": "51-N", "LINE_DIR2": null, "LINE_DIR3": 0, "LINE_DIR4": 0, "LINE_DIR5": 0, "LINE_DIR6": 0, "LINE_DIR7": 0, "LINE_DIR8": 0, "LINE_DIR9": 0, "LINE_DIR10": 0, "LINE_DIR11": 0, "LINE_DIR12": 0, "LINE_DIR13": 0, "LINE_DIR14": 0, "layer_id": "bus_stops", "feature_name": "Bus Stop", "heat_layer": 7.4568, "index_right": 1826, "socioeconomic_layer": 4.4925893809188828, "heat_socio_layer": 11.949389380918884 }, "geometry": { "type": "Point", "coordinates": [ -13164355.442967815324664, 4032481.233064825646579 ] } },
{ "type": "Feature", "properties": { "STOPNUM": 13326, "STOPNAME": "Central / Industrial", "LAT": 34.037005, "LONG": -118.241154, "LINE_DIR1": "53-S", "LINE_DIR2": null, "LINE_DIR3": 0, "LINE_DIR4": 0, "LINE_DIR5": 0, "LINE_DIR6": 0, "LINE_DIR7": 0, "LINE_DIR8": 0, "LINE_DIR9": 0, "LINE_DIR10": 0, "LINE_DIR11": 0, "LINE_DIR12": 0, "LINE_DIR13": 0, "LINE_DIR14": 0, "layer_id": "bus_stops", "feature_name": "Bus Stop", "heat_layer": 7.2614, "index_right": 1422, "socioeconomic_layer": 4.5922241777298698, "heat_socio_layer": 11.85362417772987 }, "geometry": { "type": "Point", "coordinates": [ -13162545.054089043289423, 4033771.97649377817288 ] } },
{ "type": "Feature", "properties": { "STOPNUM": 1213, "STOPNAME": "Central / 6th", "LAT": 34.039201, "LONG": -118.239787, "LINE_DIR1": "18-W", "LINE_DIR2": "720-W", "LINE_DIR3": 0, "LINE_DIR4": 0, "LINE_DIR5": 0, "LINE_DIR6": 0, "LINE_DIR7": 0, "LINE_DIR8": 0, "LINE_DIR9": 0, "LINE_DIR10": 0, "LINE_DIR11": 0, "LINE_DIR12": 0, "LINE_DIR13": 0, "LINE_DIR14": 0, "layer_id": "bus_stops", "feature_name": "Bus Stop", "heat_layer": 7.2614, "index_right": 1422, "socioeconomic_layer": 4.5922241777298698, "heat_socio_layer": 11.85362417772987 }, "geometry": { "type": "Point", "coordinates": [ -13162392.880345130339265, 4034066.978032889775932 ] } },
{ "type": "Feature", "properties": { "STOPNUM": 1210, "STOPNAME": "6th / Central", "LAT": 34.039356, "LONG": -118.240745, "LINE_DIR1": "18-E", "LINE_DIR2": "720-E", "LINE_DIR3": 0, "LINE_DIR4": 0, "LINE_DIR5": 0, "LINE_DIR6": 0, "LINE_DIR7": 0, "LINE_DIR8": 0, "LINE_DIR9": 0, "LINE_DIR10": 0, "LINE_DIR11": 0, "LINE_DIR12": 0, "LINE_DIR13": 0, "LINE_DIR14": 0, "layer_id": "bus_stops", "feature_name": "Bus Stop", "heat_layer": 7.2614, "index_right": 1422, "socioeconomic_layer": 4.5922241777298698, "heat_socio_layer": 11.85362417772987 }, "geometry": { "type": "Point", "coordinates": [ -13162499.524417309090495, 4034087.800379087217152 ] } },
{ "type": "Feature", "properties": { "STOPNUM": 9757, "STOPNAME": "7th / Central", "LAT": 34.036762, "LONG": -118.240879, "LINE_DIR1": "60-N", "LINE_DIR2": "62-N", "LINE_DIR3": 0, "LINE_DIR4": 0, "LINE_DIR5": 0, "LINE_DIR6": 0, "LINE_DIR7": 0, "LINE_DIR8": 0, "LINE_DIR9": 0, "LINE_DIR10": 0, "LINE_DIR11": 0, "LINE_DIR12": 0, "LINE_DIR13": 0, "LINE_DIR14": 0, "layer_id": "bus_stops", "feature_name": "Bus Stop", "heat_layer": 7.2614, "index_right": 1422, "socioeconomic_layer": 4.5922241777298698, "heat_socio_layer": 11.85362417772987 }, "geometry": { "type": "Point", "coordinates": [ -13162514.441229075193405, 4033739.333350151777267 ] } },
{ "type": "Feature", "properties": { "STOPNUM": 3716, "STOPNAME": "Central / 6th", "LAT": 34.038656, "LONG": -118.240145, "LINE_DIR1": "53-S", "LINE_DIR2": null, "LINE_DIR3": 0, "LINE_DIR4": 0, "LINE_DIR5": 0, "LINE_DIR6": 0, "LINE_DIR7": 0, "LINE_DIR8": 0, "LINE_DIR9": 0, "LINE_DIR10": 0, "LINE_DIR11": 0, "LINE_DIR12": 0, "LINE_DIR13": 0, "LINE_DIR14": 0, "layer_id": "bus_stops", "feature_name": "Bus Stop", "heat_layer": 7.2614, "index_right": 1422, "socioeconomic_layer": 4.5922241777298698, "heat_socio_layer": 11.85362417772987 }, "geometry": { "type": "Point", "coordinates": [ -13162432.732722833752632, 4033993.764279014896601 ] } },
{ "type": "Feature", "properties": { "STOPNUM": 9423, "STOPNAME": "6th / Alameda", "LAT": 34.038178, "LONG": -118.238725, "LINE_DIR1": "18-E", "LINE_DIR2": null, "LINE_DIR3": 0, "LINE_DIR4": 0, "LINE_DIR5": 0, "LINE_DIR6": 0, "LINE_DIR7": 0, "LINE_DIR8": 0, "LINE_DIR9": 0, "LINE_DIR10": 0, "LINE_DIR11": 0, "LINE_DIR12": 0, "LINE_DIR13": 0, "LINE_DIR14": 0, "layer_id": "bus_stops", "feature_name": "Bus Stop", "heat_layer": 7.2614, "index_right": 1422, "socioeconomic_layer": 4.5922241777298698, "heat_socio_layer": 11.85362417772987 }, "geometry": { "type": "Point", "coordinates": [ -13162274.659045904874802, 4033929.551502292975783 ] } },
{ "type": "Feature", "properties": { "STOPNUM": 5588, "STOPNAME": "Alameda / 6th Layover", "LAT": 34.036923, "LONG": -118.238629, "LINE_DIR1": "720-E", "LINE_DIR2": "720-W", "LINE_DIR3": 0, "LINE_DIR4": 0, "LINE_DIR5": 0, "LINE_DIR6": 0, "LINE_DIR7": 0, "LINE_DIR8": 0, "LINE_DIR9": 0, "LINE_DIR10": 0, "LINE_DIR11": 0, "LINE_DIR12": 0, "LINE_DIR13": 0, "LINE_DIR14": 0, "layer_id": "bus_stops", "feature_name": "Bus Stop", "heat_layer": 7.2614, "index_right": 1422, "socioeconomic_layer": 4.5922241777298698, "heat_socio_layer": 11.85362417772987 }, "geometry": { "type": "Point", "coordinates": [ -13162263.97237478941679, 4033760.961101525463164 ] } },
{ "type": "Feature", "properties": { "STOPNUM": 1216, "STOPNAME": "6th / Towne", "LAT": 34.041238, "LONG": -118.243777, "LINE_DIR1": "18-E", "LINE_DIR2": "62-S", "LINE_DIR3": 0, "LINE_DIR4": 0, "LINE_DIR5": 0, "LINE_DIR6": 0, "LINE_DIR7": 0, "LINE_DIR8": 0, "LINE_DIR9": 0, "LINE_DIR10": 0, "LINE_DIR11": 0, "LINE_DIR12": 0, "LINE_DIR13": 0, "LINE_DIR14": 0, "layer_id": "bus_stops", "feature_name": "Bus Stop", "heat_layer": 7.2614, "index_right": 1422, "socioeconomic_layer": 4.5922241777298698, "heat_socio_layer": 11.85362417772987 }, "geometry": { "type": "Point", "coordinates": [ -13162837.045113392174244, 4034340.626999225467443 ] } },
{ "type": "Feature", "properties": { "STOPNUM": 13323, "STOPNAME": "6th / Central", "LAT": 34.038978, "LONG": -118.240153, "LINE_DIR1": "62-S", "LINE_DIR2": null, "LINE_DIR3": 0, "LINE_DIR4": 0, "LINE_DIR5": 0, "LINE_DIR6": 0, "LINE_DIR7": 0, "LINE_DIR8": 0, "LINE_DIR9": 0, "LINE_DIR10": 0, "LINE_DIR11": 0, "LINE_DIR12": 0, "LINE_DIR13": 0, "LINE_DIR14": 0, "layer_id": "bus_stops", "feature_name": "Bus Stop", "heat_layer": 7.2614, "index_right": 1422, "socioeconomic_layer": 4.5922241777298698, "heat_socio_layer": 11.85362417772987 }, "geometry": { "type": "Point", "coordinates": [ -13162433.623278759419918, 4034037.02078866166994 ] } },
{ "type": "Feature", "properties": { "STOPNUM": 1219, "STOPNAME": "7th / Gladys", "LAT": 34.038784, "LONG": -118.243783, "LINE_DIR1": "60-N", "LINE_DIR2": null, "LINE_DIR3": 0, "LINE_DIR4": 0, "LINE_DIR5": 0, "LINE_DIR6": 0, "LINE_DIR7": 0, "LINE_DIR8": 0, "LINE_DIR9": 0, "LINE_DIR10": 0, "LINE_DIR11": 0, "LINE_DIR12": 0, "LINE_DIR13": 0, "LINE_DIR14": 0, "layer_id": "bus_stops", "feature_name": "Bus Stop", "heat_layer": 7.2614, "index_right": 1422, "socioeconomic_layer": 4.5922241777298698, "heat_socio_layer": 11.85362417772987 }, "geometry": { "type": "Point", "coordinates": [ -13162837.713030336424708, 4034010.959393620491028 ] } },
{ "type": "Feature", "properties": { "STOPNUM": 140753, "STOPNAME": "Central / 14th", "LAT": 34.0286, "LONG": -118.246869, "LINE_DIR1": "53-S", "LINE_DIR2": null, "LINE_DIR3": 0, "LINE_DIR4": 0, "LINE_DIR5": 0, "LINE_DIR6": 0, "LINE_DIR7": 0, "LINE_DIR8": 0, "LINE_DIR9": 0, "LINE_DIR10": 0, "LINE_DIR11": 0, "LINE_DIR12": 0, "LINE_DIR13": 0, "LINE_DIR14": 0, "layer_id": "bus_stops", "feature_name": "Bus Stop", "heat_layer": 7.5664, "index_right": 1828, "socioeconomic_layer": 3.8850682986319809, "heat_socio_layer": 11.45146829863198 }, "geometry": { "type": "Point", "coordinates": [ -13163181.244978927075863, 4032642.954171626828611 ] } },
{ "type": "Feature", "properties": { "STOPNUM": 4886, "STOPNAME": "Central / Olympic", "LAT": 34.032258, "LONG": -118.243823, "LINE_DIR1": "53-N", "LINE_DIR2": null, "LINE_DIR3": 0, "LINE_DIR4": 0, "LINE_DIR5": 0, "LINE_DIR6": 0, "LINE_DIR7": 0, "LINE_DIR8": 0, "LINE_DIR9": 0, "LINE_DIR10": 0, "LINE_DIR11": 0, "LINE_DIR12": 0, "LINE_DIR13": 0, "LINE_DIR14": 0, "layer_id": "bus_stops", "feature_name": "Bus Stop", "heat_layer": 7.5664, "index_right": 1828, "socioeconomic_layer": 3.8850682986319809, "heat_socio_layer": 11.45146829863198 }, "geometry": { "type": "Point", "coordinates": [ -13162842.165809970349073, 4033134.310282795224339 ] } },
{ "type": "Feature", "properties": { "STOPNUM": 4874, "STOPNAME": "Central / 8th", "LAT": 34.033336, "LONG": -118.243252, "LINE_DIR1": "53-N", "LINE_DIR2": null, "LINE_DIR3": 0, "LINE_DIR4": 0, "LINE_DIR5": 0, "LINE_DIR6": 0, "LINE_DIR7": 0, "LINE_DIR8": 0, "LINE_DIR9": 0, "LINE_DIR10": 0, "LINE_DIR11": 0, "LINE_DIR12": 0, "LINE_DIR13": 0, "LINE_DIR14": 0, "layer_id": "bus_stops", "feature_name": "Bus Stop", "heat_layer": 7.5664, "index_right": 1828, "socioeconomic_layer": 3.8850682986319809, "heat_socio_layer": 11.45146829863198 }, "geometry": { "type": "Point", "coordinates": [ -13162778.602380726486444, 4033279.1152777178213 ] } },
{ "type": "Feature", "properties": { "STOPNUM": 4867, "STOPNAME": "Central / 7th", "LAT": 34.036547, "LONG": -118.241166, "LINE_DIR1": "53-N", "LINE_DIR2": null, "LINE_DIR3": 0, "LINE_DIR4": 0, "LINE_DIR5": 0, "LINE_DIR6": 0, "LINE_DIR7": 0, "LINE_DIR8": 0, "LINE_DIR9": 0, "LINE_DIR10": 0, "LINE_DIR11": 0, "LINE_DIR12": 0, "LINE_DIR13": 0, "LINE_DIR14": 0, "layer_id": "bus_stops", "feature_name": "Bus Stop", "heat_layer": 7.5664, "index_right": 1828, "socioeconomic_layer": 3.8850682986319809, "heat_socio_layer": 11.45146829863198 }, "geometry": { "type": "Point", "coordinates": [ -13162546.389922931790352, 4033710.451634377706796 ] } },
{ "type": "Feature", "properties": { "STOPNUM": 4117, "STOPNAME": "Olympic / Central", "LAT": 34.031755, "LONG": -118.244017, "LINE_DIR1": "66-E", "LINE_DIR2": null, "LINE_DIR3": 0, "LINE_DIR4": 0, "LINE_DIR5": 0, "LINE_DIR6": 0, "LINE_DIR7": 0, "LINE_DIR8": 0, "LINE_DIR9": 0, "LINE_DIR10": 0, "LINE_DIR11": 0, "LINE_DIR12": 0, "LINE_DIR13": 0, "LINE_DIR14": 0, "layer_id": "bus_stops", "feature_name": "Bus Stop", "heat_layer": 7.5664, "index_right": 1828, "socioeconomic_layer": 3.8850682986319809, "heat_socio_layer": 11.45146829863198 }, "geometry": { "type": "Point", "coordinates": [ -13162863.761791184544563, 4033066.744203208014369 ] } },
{ "type": "Feature", "properties": { "STOPNUM": 4849, "STOPNAME": "Central / 14th", "LAT": 34.028226, "LONG": -118.246835, "LINE_DIR1": "53-N", "LINE_DIR2": null, "LINE_DIR3": 0, "LINE_DIR4": 0, "LINE_DIR5": 0, "LINE_DIR6": 0, "LINE_DIR7": 0, "LINE_DIR8": 0, "LINE_DIR9": 0, "LINE_DIR10": 0, "LINE_DIR11": 0, "LINE_DIR12": 0, "LINE_DIR13": 0, "LINE_DIR14": 0, "layer_id": "bus_stops", "feature_name": "Bus Stop", "heat_layer": 7.5664, "index_right": 1828, "socioeconomic_layer": 3.8850682986319809, "heat_socio_layer": 11.45146829863198 }, "geometry": { "type": "Point", "coordinates": [ -13163177.460116239264607, 4032592.718299739062786 ] } },
{ "type": "Feature", "properties": { "STOPNUM": 140752, "STOPNAME": "Central / 8th", "LAT": 34.033839, "LONG": -118.243293, "LINE_DIR1": "53-S", "LINE_DIR2": null, "LINE_DIR3": 0, "LINE_DIR4": 0, "LINE_DIR5": 0, "LINE_DIR6": 0, "LINE_DIR7": 0, "LINE_DIR8": 0, "LINE_DIR9": 0, "LINE_DIR10": 0, "LINE_DIR11": 0, "LINE_DIR12": 0, "LINE_DIR13": 0, "LINE_DIR14": 0, "layer_id": "bus_stops", "feature_name": "Bus Stop", "heat_layer": 7.5664, "index_right": 1828, "socioeconomic_layer": 3.8850682986319809, "heat_socio_layer": 11.45146829863198 }, "geometry": { "type": "Point", "coordinates": [ -13162783.166479848325253, 4033346.68261642055586 ] } },
{ "type": "Feature", "properties": { "STOPNUM": 13346, "STOPNAME": "Central / Olympic", "LAT": 34.03229, "LONG": -118.244167, "LINE_DIR1": "53-S", "LINE_DIR2": null, "LINE_DIR3": 0, "LINE_DIR4": 0, "LINE_DIR5": 0, "LINE_DIR6": 0, "LINE_DIR7": 0, "LINE_DIR8": 0, "LINE_DIR9": 0, "LINE_DIR10": 0, "LINE_DIR11": 0, "LINE_DIR12": 0, "LINE_DIR13": 0, "LINE_DIR14": 0, "layer_id": "bus_stops", "feature_name": "Bus Stop", "heat_layer": 7.5664, "index_right": 1828, "socioeconomic_layer": 3.8850682986319809, "heat_socio_layer": 11.45146829863198 }, "geometry": { "type": "Point", "coordinates": [ -13162880.45971480384469, 4033138.608734811190516 ] } },
{ "type": "Feature", "properties": { "STOPNUM": 1586, "STOPNAME": "Olympic / Alameda", "LAT": 34.027617, "LONG": -118.239288, "LINE_DIR1": "66-E", "LINE_DIR2": null, "LINE_DIR3": 0, "LINE_DIR4": 0, "LINE_DIR5": 0, "LINE_DIR6": 0, "LINE_DIR7": 0, "LINE_DIR8": 0, "LINE_DIR9": 0, "LINE_DIR10": 0, "LINE_DIR11": 0, "LINE_DIR12": 0, "LINE_DIR13": 0, "LINE_DIR14": 0, "layer_id": "bus_stops", "feature_name": "Bus Stop", "heat_layer": 7.5664, "index_right": 1828, "socioeconomic_layer": 3.8850682986319809, "heat_socio_layer": 11.45146829863198 }, "geometry": { "type": "Point", "coordinates": [ -13162337.331919223070145, 4032510.917581093963236 ] } },
{ "type": "Feature", "properties": { "STOPNUM": 9754, "STOPNAME": "7th / Alameda", "LAT": 34.034977, "LONG": -118.238801, "LINE_DIR1": "60-S", "LINE_DIR2": "62-S", "LINE_DIR3": 0, "LINE_DIR4": 0, "LINE_DIR5": 0, "LINE_DIR6": 0, "LINE_DIR7": 0, "LINE_DIR8": 0, "LINE_DIR9": 0, "LINE_DIR10": 0, "LINE_DIR11": 0, "LINE_DIR12": 0, "LINE_DIR13": 0, "LINE_DIR14": 0, "layer_id": "bus_stops", "feature_name": "Bus Stop", "heat_layer": 7.5664, "index_right": 1828, "socioeconomic_layer": 3.8850682986319809, "heat_socio_layer": 11.45146829863198 }, "geometry": { "type": "Point", "coordinates": [ -13162283.119327204301953, 4033499.550161380320787 ] } },
{ "type": "Feature", "properties": { "STOPNUM": 12597, "STOPNAME": "Olympic / Central", "LAT": 34.03198, "LONG": -118.243856, "LINE_DIR1": "66-W", "LINE_DIR2": null, "LINE_DIR3": 0, "LINE_DIR4": 0, "LINE_DIR5": 0, "LINE_DIR6": 0, "LINE_DIR7": 0, "LINE_DIR8": 0, "LINE_DIR9": 0, "LINE_DIR10": 0, "LINE_DIR11": 0, "LINE_DIR12": 0, "LINE_DIR13": 0, "LINE_DIR14": 0, "layer_id": "bus_stops", "feature_name": "Bus Stop", "heat_layer": 7.5664, "index_right": 1828, "socioeconomic_layer": 3.8850682986319809, "heat_socio_layer": 11.45146829863198 }, "geometry": { "type": "Point", "coordinates": [ -13162845.839353166520596, 4033096.967549134045839 ] } },
{ "type": "Feature", "properties": { "STOPNUM": 13307, "STOPNAME": "Central / 12th", "LAT": 34.030367, "LONG": -118.245283, "LINE_DIR1": "53-S", "LINE_DIR2": null, "LINE_DIR3": 0, "LINE_DIR4": 0, "LINE_DIR5": 0, "LINE_DIR6": 0, "LINE_DIR7": 0, "LINE_DIR8": 0, "LINE_DIR9": 0, "LINE_DIR10": 0, "LINE_DIR11": 0, "LINE_DIR12": 0, "LINE_DIR13": 0, "LINE_DIR14": 0, "layer_id": "bus_stops", "feature_name": "Bus Stop", "heat_layer": 7.5664, "index_right": 1828, "socioeconomic_layer": 3.8850682986319809, "heat_socio_layer": 11.45146829863198 }, "geometry": { "type": "Point", "coordinates": [ -13163004.692266527563334, 4032880.301512609701604 ] } },
{ "type": "Feature", "properties": { "STOPNUM": 13309, "STOPNAME": "Central / 16th", "LAT": 34.02659, "LONG": -118.248734, "LINE_DIR1": "53-S", "LINE_DIR2": null, "LINE_DIR3": 0, "LINE_DIR4": 0, "LINE_DIR5": 0, "LINE_DIR6": 0, "LINE_DIR7": 0, "LINE_DIR8": 0, "LINE_DIR9": 0, "LINE_DIR10": 0, "LINE_DIR11": 0, "LINE_DIR12": 0, "LINE_DIR13": 0, "LINE_DIR14": 0, "layer_id": "bus_stops", "feature_name": "Bus Stop", "heat_layer": 7.5664, "index_right": 1828, "socioeconomic_layer": 3.8850682986319809, "heat_socio_layer": 11.45146829863198 }, "geometry": { "type": "Point", "coordinates": [ -13163388.855829255655408, 4032372.972542962990701 ] } },
{ "type": "Feature", "properties": { "STOPNUM": 1580, "STOPNAME": "Olympic / Hooper", "LAT": 34.029444, "LONG": -118.2413, "LINE_DIR1": "66-E", "LINE_DIR2": null, "LINE_DIR3": 0, "LINE_DIR4": 0, "LINE_DIR5": 0, "LINE_DIR6": 0, "LINE_DIR7": 0, "LINE_DIR8": 0, "LINE_DIR9": 0, "LINE_DIR10": 0, "LINE_DIR11": 0, "LINE_DIR12": 0, "LINE_DIR13": 0, "LINE_DIR14": 0, "layer_id": "bus_stops", "feature_name": "Bus Stop", "heat_layer": 7.5664, "index_right": 1828, "socioeconomic_layer": 3.8850682986319809, "heat_socio_layer": 11.45146829863198 }, "geometry": { "type": "Point", "coordinates": [ -13162561.306734697893262, 4032756.321498307399452 ] } },
{ "type": "Feature", "properties": { "STOPNUM": 4848, "STOPNAME": "Central / 12th", "LAT": 34.030381, "LONG": -118.24494, "LINE_DIR1": "53-N", "LINE_DIR2": null, "LINE_DIR3": 0, "LINE_DIR4": 0, "LINE_DIR5": 0, "LINE_DIR6": 0, "LINE_DIR7": 0, "LINE_DIR8": 0, "LINE_DIR9": 0, "LINE_DIR10": 0, "LINE_DIR11": 0, "LINE_DIR12": 0, "LINE_DIR13": 0, "LINE_DIR14": 0, "layer_id": "bus_stops", "feature_name": "Bus Stop", "heat_layer": 7.5664, "index_right": 1828, "socioeconomic_layer": 3.8850682986319809, "heat_socio_layer": 11.45146829863198 }, "geometry": { "type": "Point", "coordinates": [ -13162966.509681183844805, 4032882.182043253909796 ] } },
{ "type": "Feature", "properties": { "STOPNUM": 9759, "STOPNAME": "7th / Central", "LAT": 34.036525, "LONG": -118.241014, "LINE_DIR1": "60-S", "LINE_DIR2": "62-S", "LINE_DIR3": 0, "LINE_DIR4": 0, "LINE_DIR5": 0, "LINE_DIR6": 0, "LINE_DIR7": 0, "LINE_DIR8": 0, "LINE_DIR9": 0, "LINE_DIR10": 0, "LINE_DIR11": 0, "LINE_DIR12": 0, "LINE_DIR13": 0, "LINE_DIR14": 0, "layer_id": "bus_stops", "feature_name": "Bus Stop", "heat_layer": 7.5664, "index_right": 1828, "socioeconomic_layer": 3.8850682986319809, "heat_socio_layer": 11.45146829863198 }, "geometry": { "type": "Point", "coordinates": [ -13162529.469360332936049, 4033707.496300147846341 ] } },
{ "type": "Feature", "properties": { "STOPNUM": 9749, "STOPNAME": "7th / Ceres", "LAT": 34.038178, "LONG": -118.243412, "LINE_DIR1": "60-S", "LINE_DIR2": null, "LINE_DIR3": 0, "LINE_DIR4": 0, "LINE_DIR5": 0, "LINE_DIR6": 0, "LINE_DIR7": 0, "LINE_DIR8": 0, "LINE_DIR9": 0, "LINE_DIR10": 0, "LINE_DIR11": 0, "LINE_DIR12": 0, "LINE_DIR13": 0, "LINE_DIR14": 0, "layer_id": "bus_stops", "feature_name": "Bus Stop", "heat_layer": 7.5664, "index_right": 1828, "socioeconomic_layer": 3.8850682986319809, "heat_socio_layer": 11.45146829863198 }, "geometry": { "type": "Point", "coordinates": [ -13162796.413499254733324, 4033929.551502292975783 ] } },
{ "type": "Feature", "properties": { "STOPNUM": 9781, "STOPNAME": "9th / Stanford", "LAT": 34.035009, "LONG": -118.247594, "LINE_DIR1": "66-W", "LINE_DIR2": null, "LINE_DIR3": 0, "LINE_DIR4": 0, "LINE_DIR5": 0, "LINE_DIR6": 0, "LINE_DIR7": 0, "LINE_DIR8": 0, "LINE_DIR9": 0, "LINE_DIR10": 0, "LINE_DIR11": 0, "LINE_DIR12": 0, "LINE_DIR13": 0, "LINE_DIR14": 0, "layer_id": "bus_stops", "feature_name": "Bus Stop", "heat_layer": 7.5664, "index_right": 1828, "socioeconomic_layer": 3.8850682986319809, "heat_socio_layer": 11.45146829863198 }, "geometry": { "type": "Point", "coordinates": [ -13163261.951609751209617, 4033503.848751163110137 ] } },
{ "type": "Feature", "properties": { "STOPNUM": 10134, "STOPNAME": "Olympic / Naomi", "LAT": 34.030056, "LONG": -118.241576, "LINE_DIR1": "66-W", "LINE_DIR2": null, "LINE_DIR3": 0, "LINE_DIR4": 0, "LINE_DIR5": 0, "LINE_DIR6": 0, "LINE_DIR7": 0, "LINE_DIR8": 0, "LINE_DIR9": 0, "LINE_DIR10": 0, "LINE_DIR11": 0, "LINE_DIR12": 0, "LINE_DIR13": 0, "LINE_DIR14": 0, "layer_id": "bus_stops", "feature_name": "Bus Stop", "heat_layer": 7.5664, "index_right": 1828, "socioeconomic_layer": 3.8850682986319809, "heat_socio_layer": 11.45146829863198 }, "geometry": { "type": "Point", "coordinates": [ -13162592.030914155766368, 4032838.526947601232678 ] } },
{ "type": "Feature", "properties": { "STOPNUM": 4850, "STOPNAME": "Central / 16th", "LAT": 34.026197, "LONG": -118.248783, "LINE_DIR1": "53-N", "LINE_DIR2": null, "LINE_DIR3": 0, "LINE_DIR4": 0, "LINE_DIR5": 0, "LINE_DIR6": 0, "LINE_DIR7": 0, "LINE_DIR8": 0, "LINE_DIR9": 0, "LINE_DIR10": 0, "LINE_DIR11": 0, "LINE_DIR12": 0, "LINE_DIR13": 0, "LINE_DIR14": 0, "layer_id": "bus_stops", "feature_name": "Bus Stop", "heat_layer": 7.5664, "index_right": 1828, "socioeconomic_layer": 3.8850682986319809, "heat_socio_layer": 11.45146829863198 }, "geometry": { "type": "Point", "coordinates": [ -13163394.310484303161502, 4032320.185837608296424 ] } },
{ "type": "Feature", "properties": { "STOPNUM": 42, "STOPNAME": "6th / Burlington", "LAT": 34.057874, "LONG": -118.270776, "LINE_DIR1": "18-W", "LINE_DIR2": null, "LINE_DIR3": 0, "LINE_DIR4": 0, "LINE_DIR5": 0, "LINE_DIR6": 0, "LINE_DIR7": 0, "LINE_DIR8": 0, "LINE_DIR9": 0, "LINE_DIR10": 0, "LINE_DIR11": 0, "LINE_DIR12": 0, "LINE_DIR13": 0, "LINE_DIR14": 0, "layer_id": "bus_stops", "feature_name": "Bus Stop", "heat_layer": 6.4586, "index_right": 1482, "socioeconomic_layer": 4.9914599503909303, "heat_socio_layer": 11.45005995039093 }, "geometry": { "type": "Point", "coordinates": [ -13165842.560045322403312, 4036575.740145106334239 ] } },
{ "type": "Feature", "properties": { "STOPNUM": 4659, "STOPNAME": "Alvarado / 7th", "LAT": 34.056275, "LONG": -118.276763, "LINE_DIR1": "2-W", "LINE_DIR2": null, "LINE_DIR3": 0, "LINE_DIR4": 0, "LINE_DIR5": 0, "LINE_DIR6": 0, "LINE_DIR7": 0, "LINE_DIR8": 0, "LINE_DIR9": 0, "LINE_DIR10": 0, "LINE_DIR11": 0, "LINE_DIR12": 0, "LINE_DIR13": 0, "LINE_DIR14": 0, "layer_id": "bus_stops", "feature_name": "Bus Stop", "heat_layer": 6.6648, "index_right": 1497, "socioeconomic_layer": 4.6636642360117104, "heat_socio_layer": 11.32846423601171 }, "geometry": { "type": "Point", "coordinates": [ -13166509.02983669936657, 4036360.889046375174075 ] } },
{ "type": "Feature", "properties": { "STOPNUM": 7377, "STOPNAME": "7th / Alvarado", "LAT": 34.056494, "LONG": -118.277021, "LINE_DIR1": "93-N", "LINE_DIR2": null, "LINE_DIR3": 0, "LINE_DIR4": 0, "LINE_DIR5": 0, "LINE_DIR6": 0, "LINE_DIR7": 0, "LINE_DIR8": 0, "LINE_DIR9": 0, "LINE_DIR10": 0, "LINE_DIR11": 0, "LINE_DIR12": 0, "LINE_DIR13": 0, "LINE_DIR14": 0, "layer_id": "bus_stops", "feature_name": "Bus Stop", "heat_layer": 6.6648, "index_right": 1497, "socioeconomic_layer": 4.6636642360117104, "heat_socio_layer": 11.32846423601171 }, "geometry": { "type": "Point", "coordinates": [ -13166537.750265324488282, 4036390.314942311029881 ] } },
{ "type": "Feature", "properties": { "STOPNUM": 13117, "STOPNAME": "Alvarado / 8th", "LAT": 34.05509, "LONG": -118.277865, "LINE_DIR1": "2-E", "LINE_DIR2": null, "LINE_DIR3": 0, "LINE_DIR4": 0, "LINE_DIR5": 0, "LINE_DIR6": 0, "LINE_DIR7": 0, "LINE_DIR8": 0, "LINE_DIR9": 0, "LINE_DIR10": 0, "LINE_DIR11": 0, "LINE_DIR12": 0, "LINE_DIR13": 0, "LINE_DIR14": 0, "layer_id": "bus_stops", "feature_name": "Bus Stop", "heat_layer": 6.6648, "index_right": 1497, "socioeconomic_layer": 4.6636642360117104, "heat_socio_layer": 11.32846423601171 }, "geometry": { "type": "Point", "coordinates": [ -13166631.703915555030107, 4036201.668051371350884 ] } },
{ "type": "Feature", "properties": { "STOPNUM": 15776, "STOPNAME": "8th / Alvarado", "LAT": 34.055101, "LONG": -118.278056, "LINE_DIR1": "66-W", "LINE_DIR2": null, "LINE_DIR3": 0, "LINE_DIR4": 0, "LINE_DIR5": 0, "LINE_DIR6": 0, "LINE_DIR7": 0, "LINE_DIR8": 0, "LINE_DIR9": 0, "LINE_DIR10": 0, "LINE_DIR11": 0, "LINE_DIR12": 0, "LINE_DIR13": 0, "LINE_DIR14": 0, "layer_id": "bus_stops", "feature_name": "Bus Stop", "heat_layer": 6.6648, "index_right": 1497, "socioeconomic_layer": 4.6636642360117104, "heat_socio_layer": 11.32846423601171 }, "geometry": { "type": "Point", "coordinates": [ -13166652.965938298031688, 4036203.146041933912784 ] } },
{ "type": "Feature", "properties": { "STOPNUM": 15708, "STOPNAME": "6th / Bonnie Brae", "LAT": 34.058508, "LONG": -118.272207, "LINE_DIR1": "18-W", "LINE_DIR2": null, "LINE_DIR3": 0, "LINE_DIR4": 0, "LINE_DIR5": 0, "LINE_DIR6": 0, "LINE_DIR7": 0, "LINE_DIR8": 0, "LINE_DIR9": 0, "LINE_DIR10": 0, "LINE_DIR11": 0, "LINE_DIR12": 0, "LINE_DIR13": 0, "LINE_DIR14": 0, "layer_id": "bus_stops", "feature_name": "Bus Stop", "heat_layer": 6.719, "index_right": 1483, "socioeconomic_layer": 4.4870798736572794, "heat_socio_layer": 11.206079873657281 }, "geometry": { "type": "Point", "coordinates": [ -13166001.858236644417048, 4036660.929257607553154 ] } },
{ "type": "Feature", "properties": { "STOPNUM": 17261, "STOPNAME": "Grand / 30th", "LAT": 34.023553, "LONG": -118.274305, "LINE_DIR1": "35-S", "LINE_DIR2": null, "LINE_DIR3": 0, "LINE_DIR4": 0, "LINE_DIR5": 0, "LINE_DIR6": 0, "LINE_DIR7": 0, "LINE_DIR8": 0, "LINE_DIR9": 0, "LINE_DIR10": 0, "LINE_DIR11": 0, "LINE_DIR12": 0, "LINE_DIR13": 0, "LINE_DIR14": 0, "layer_id": "bus_stops", "feature_name": "Bus Stop", "heat_layer": 6.995, "index_right": 1823, "socioeconomic_layer": 4.0012046941292949, "heat_socio_layer": 10.996204694129295 }, "geometry": { "type": "Point", "coordinates": [ -13166235.406528329476714, 4031965.057207516394556 ] } },
{ "type": "Feature", "properties": { "STOPNUM": 4810, "STOPNAME": "Broadway / Adams", "LAT": 34.025163, "LONG": -118.269696, "LINE_DIR1": "40-N", "LINE_DIR2": "45-N", "LINE_DIR3": 0, "LINE_DIR4": 0, "LINE_DIR5": 0, "LINE_DIR6": 0, "LINE_DIR7": 0, "LINE_DIR8": 0, "LINE_DIR9": 0, "LINE_DIR10": 0, "LINE_DIR11": 0, "LINE_DIR12": 0, "LINE_DIR13": 0, "LINE_DIR14": 0, "layer_id": "bus_stops", "feature_name": "Bus Stop", "heat_layer": 6.995, "index_right": 1823, "socioeconomic_layer": 4.0012046941292949, "heat_socio_layer": 10.996204694129295 }, "geometry": { "type": "Point", "coordinates": [ -13165722.33499526232481, 4032181.302900129463524 ] } },
{ "type": "Feature", "properties": { "STOPNUM": 4772, "STOPNAME": "Broadway / 30th", "LAT": 34.022375, "LONG": -118.271509, "LINE_DIR1": "40-N", "LINE_DIR2": "45-N", "LINE_DIR3": 0, "LINE_DIR4": 0, "LINE_DIR5": 0, "LINE_DIR6": 0, "LINE_DIR7": 0, "LINE_DIR8": 0, "LINE_DIR9": 0, "LINE_DIR10": 0, "LINE_DIR11": 0, "LINE_DIR12": 0, "LINE_DIR13": 0, "LINE_DIR14": 0, "layer_id": "bus_stops", "feature_name": "Bus Stop", "heat_layer": 6.995, "index_right": 1823, "socioeconomic_layer": 4.0012046941292949, "heat_socio_layer": 10.996204694129295 }, "geometry": { "type": "Point", "coordinates": [ -13165924.157232072204351, 4031806.837802685331553 ] } },
{ "type": "Feature", "properties": { "STOPNUM": 3154, "STOPNAME": "Maple / Adams", "LAT": 34.02327, "LONG": -118.265631, "LINE_DIR1": "10-E", "LINE_DIR2": null, "LINE_DIR3": 0, "LINE_DIR4": 0, "LINE_DIR5": 0, "LINE_DIR6": 0, "LINE_DIR7": 0, "LINE_DIR8": 0, "LINE_DIR9": 0, "LINE_DIR10": 0, "LINE_DIR11": 0, "LINE_DIR12": 0, "LINE_DIR13": 0, "LINE_DIR14": 0, "layer_id": "bus_stops", "feature_name": "Bus Stop", "heat_layer": 6.995, "index_right": 1823, "socioeconomic_layer": 4.0012046941292949, "heat_socio_layer": 10.996204694129295 }, "geometry": { "type": "Point", "coordinates": [ -13165269.821265188977122, 4031927.046742609702051 ] } },
{ "type": "Feature", "properties": { "STOPNUM": 15827, "STOPNAME": "Adams / Main", "LAT": 34.024613, "LONG": -118.268384, "LINE_DIR1": "55-S", "LINE_DIR2": null, "LINE_DIR3": 0, "LINE_DIR4": 0, "LINE_DIR5": 0, "LINE_DIR6": 0, "LINE_DIR7": 0, "LINE_DIR8": 0, "LINE_DIR9": 0, "LINE_DIR10": 0, "LINE_DIR11": 0, "LINE_DIR12": 0, "LINE_DIR13": 0, "LINE_DIR14": 0, "layer_id": "bus_stops", "feature_name": "Bus Stop", "heat_layer": 6.995, "index_right": 1823, "socioeconomic_layer": 4.0012046941292949, "heat_socio_layer": 10.996204694129295 }, "geometry": { "type": "Point", "coordinates": [ -13165576.283823342993855, 4032107.429686651099473 ] } },
{ "type": "Feature", "properties": { "STOPNUM": 15823, "STOPNAME": "Adams / Hill", "LAT": 34.025827, "LONG": -118.271081, "LINE_DIR1": "55-S", "LINE_DIR2": null, "LINE_DIR3": 0, "LINE_DIR4": 0, "LINE_DIR5": 0, "LINE_DIR6": 0, "LINE_DIR7": 0, "LINE_DIR8": 0, "LINE_DIR9": 0, "LINE_DIR10": 0, "LINE_DIR11": 0, "LINE_DIR12": 0, "LINE_DIR13": 0, "LINE_DIR14": 0, "layer_id": "bus_stops", "feature_name": "Bus Stop", "heat_layer": 6.995, "index_right": 1823, "socioeconomic_layer": 4.0012046941292949, "heat_socio_layer": 10.996204694129295 }, "geometry": { "type": "Point", "coordinates": [ -13165876.512490011751652, 4032270.488653949461877 ] } },
{ "type": "Feature", "properties": { "STOPNUM": 2272, "STOPNAME": "Grand / Adams", "LAT": 34.026297, "LONG": -118.272212, "LINE_DIR1": "35-N", "LINE_DIR2": null, "LINE_DIR3": 0, "LINE_DIR4": 0, "LINE_DIR5": 0, "LINE_DIR6": 0, "LINE_DIR7": 0, "LINE_DIR8": 0, "LINE_DIR9": 0, "LINE_DIR10": 0, "LINE_DIR11": 0, "LINE_DIR12": 0, "LINE_DIR13": 0, "LINE_DIR14": 0, "layer_id": "bus_stops", "feature_name": "Bus Stop", "heat_layer": 6.995, "index_right": 1823, "socioeconomic_layer": 4.0012046941292949, "heat_socio_layer": 10.996204694129295 }, "geometry": { "type": "Point", "coordinates": [ -13166002.414834098890424, 4032333.617546062916517 ] } },
{ "type": "Feature", "properties": { "STOPNUM": 5108, "STOPNAME": "Grand / 30th", "LAT": 34.023191, "LONG": -118.274191, "LINE_DIR1": "35-N", "LINE_DIR2": null, "LINE_DIR3": 0, "LINE_DIR4": 0, "LINE_DIR5": 0, "LINE_DIR6": 0, "LINE_DIR7": 0, "LINE_DIR8": 0, "LINE_DIR9": 0, "LINE_DIR10": 0, "LINE_DIR11": 0, "LINE_DIR12": 0, "LINE_DIR13": 0, "LINE_DIR14": 0, "layer_id": "bus_stops", "feature_name": "Bus Stop", "heat_layer": 6.995, "index_right": 1823, "socioeconomic_layer": 4.0012046941292949, "heat_socio_layer": 10.996204694129295 }, "geometry": { "type": "Point", "coordinates": [ -13166222.716106379404664, 4031916.436070088297129 ] } },
{ "type": "Feature", "properties": { "STOPNUM": 5110, "STOPNAME": "Grand / Jefferson", "LAT": 34.020455, "LONG": -118.275948, "LINE_DIR1": "35-N", "LINE_DIR2": null, "LINE_DIR3": 0, "LINE_DIR4": 0, "LINE_DIR5": 0, "LINE_DIR6": 0, "LINE_DIR7": 0, "LINE_DIR8": 0, "LINE_DIR9": 0, "LINE_DIR10": 0, "LINE_DIR11": 0, "LINE_DIR12": 0, "LINE_DIR13": 0, "LINE_DIR14": 0, "layer_id": "bus_stops", "feature_name": "Bus Stop", "heat_layer": 6.995, "index_right": 1823, "socioeconomic_layer": 4.0012046941292949, "heat_socio_layer": 10.996204694129295 }, "geometry": { "type": "Point", "coordinates": [ -13166418.304451704025269, 4031548.963682882487774 ] } },
{ "type": "Feature", "properties": { "STOPNUM": 13570, "STOPNAME": "Jefferson / Grand", "LAT": 34.020515, "LONG": -118.276456, "LINE_DIR1": "102-W", "LINE_DIR2": "35-S", "LINE_DIR3": 0, "LINE_DIR4": 0, "LINE_DIR5": 0, "LINE_DIR6": 0, "LINE_DIR7": 0, "LINE_DIR8": 0, "LINE_DIR9": 0, "LINE_DIR10": 0, "LINE_DIR11": 0, "LINE_DIR12": 0, "LINE_DIR13": 0, "LINE_DIR14": 0, "layer_id": "bus_stops", "feature_name": "Bus Stop", "heat_layer": 6.995, "index_right": 1823, "socioeconomic_layer": 4.0012046941292949, "heat_socio_layer": 10.996204694129295 }, "geometry": { "type": "Point", "coordinates": [ -13166474.854753026738763, 4031557.022160828113556 ] } },
{ "type": "Feature", "properties": { "STOPNUM": 7459, "STOPNAME": "Adams / Grand", "LAT": 34.026456, "LONG": -118.272473, "LINE_DIR1": "14-N", "LINE_DIR2": null, "LINE_DIR3": 0, "LINE_DIR4": 0, "LINE_DIR5": 0, "LINE_DIR6": 0, "LINE_DIR7": 0, "LINE_DIR8": 0, "LINE_DIR9": 0, "LINE_DIR10": 0, "LINE_DIR11": 0, "LINE_DIR12": 0, "LINE_DIR13": 0, "LINE_DIR14": 0, "layer_id": "bus_stops", "feature_name": "Bus Stop", "heat_layer": 6.995, "index_right": 1823, "socioeconomic_layer": 4.0012046941292949, "heat_socio_layer": 10.996204694129295 }, "geometry": { "type": "Point", "coordinates": [ -13166031.469221197068691, 4032354.973995096515864 ] } },
{ "type": "Feature", "properties": { "STOPNUM": 13232, "STOPNAME": "Broadway / 30th", "LAT": 34.022446, "LONG": -118.271803, "LINE_DIR1": "40-S", "LINE_DIR2": "45-S", "LINE_DIR3": 0, "LINE_DIR4": 0, "LINE_DIR5": 0, "LINE_DIR6": 0, "LINE_DIR7": 0, "LINE_DIR8": 0, "LINE_DIR9": 0, "LINE_DIR10": 0, "LINE_DIR11": 0, "LINE_DIR12": 0, "LINE_DIR13": 0, "LINE_DIR14": 0, "layer_id": "bus_stops", "feature_name": "Bus Stop", "heat_layer": 6.995, "index_right": 1823, "socioeconomic_layer": 4.0012046941292949, "heat_socio_layer": 10.996204694129295 }, "geometry": { "type": "Point", "coordinates": [ -13165956.885162364691496, 4031816.373884589411318 ] } },
{ "type": "Feature", "properties": { "STOPNUM": 4660, "STOPNAME": "Alvarado / 8th", "LAT": 34.054654, "LONG": -118.277794, "LINE_DIR1": "2-W", "LINE_DIR2": null, "LINE_DIR3": 0, "LINE_DIR4": 0, "LINE_DIR5": 0, "LINE_DIR6": 0, "LINE_DIR7": 0, "LINE_DIR8": 0, "LINE_DIR9": 0, "LINE_DIR10": 0, "LINE_DIR11": 0, "LINE_DIR12": 0, "LINE_DIR13": 0, "LINE_DIR14": 0, "layer_id": "bus_stops", "feature_name": "Bus Stop", "heat_layer": 5.9264, "index_right": 1496, "socioeconomic_layer": 4.8159040043590311, "heat_socio_layer": 10.742304004359031 }, "geometry": { "type": "Point", "coordinates": [ -13166623.800231708213687, 4036143.086034436710179 ] } },
{ "type": "Feature", "properties": { "STOPNUM": 7421, "STOPNAME": "8th / Alvarado", "LAT": 34.054892, "LONG": -118.278095, "LINE_DIR1": "66-E", "LINE_DIR2": null, "LINE_DIR3": 0, "LINE_DIR4": 0, "LINE_DIR5": 0, "LINE_DIR6": 0, "LINE_DIR7": 0, "LINE_DIR8": 0, "LINE_DIR9": 0, "LINE_DIR10": 0, "LINE_DIR11": 0, "LINE_DIR12": 0, "LINE_DIR13": 0, "LINE_DIR14": 0, "layer_id": "bus_stops", "feature_name": "Bus Stop", "heat_layer": 5.9264, "index_right": 1496, "socioeconomic_layer": 4.8159040043590311, "heat_socio_layer": 10.742304004359031 }, "geometry": { "type": "Point", "coordinates": [ -13166657.307398436591029, 4036175.06425404176116 ] } },
{ "type": "Feature", "properties": { "STOPNUM": 13118, "STOPNAME": "Alvarado / James M Wood", "LAT": 34.053566, "LONG": -118.278834, "LINE_DIR1": "2-E", "LINE_DIR2": null, "LINE_DIR3": 0, "LINE_DIR4": 0, "LINE_DIR5": 0, "LINE_DIR6": 0, "LINE_DIR7": 0, "LINE_DIR8": 0, "LINE_DIR9": 0, "LINE_DIR10": 0, "LINE_DIR11": 0, "LINE_DIR12": 0, "LINE_DIR13": 0, "LINE_DIR14": 0, "layer_id": "bus_stops", "feature_name": "Bus Stop", "heat_layer": 5.9264, "index_right": 1496, "socioeconomic_layer": 4.8159040043590311, "heat_socio_layer": 10.742304004359031 }, "geometry": { "type": "Point", "coordinates": [ -13166739.572502134367824, 4035996.901031005196273 ] } },
{ "type": "Feature", "properties": { "STOPNUM": 4800001, "STOPNAME": "23rd / Main", "LAT": 34.027354, "LONG": -118.266898, "LINE_DIR1": "10-W", "LINE_DIR2": null, "LINE_DIR3": 0, "LINE_DIR4": 0, "LINE_DIR5": 0, "LINE_DIR6": 0, "LINE_DIR7": 0, "LINE_DIR8": 0, "LINE_DIR9": 0, "LINE_DIR10": 0, "LINE_DIR11": 0, "LINE_DIR12": 0, "LINE_DIR13": 0, "LINE_DIR14": 0, "layer_id": "bus_stops", "feature_name": "Bus Stop", "heat_layer": 6.5238, "index_right": 1811, "socioeconomic_layer": 4.1759712630451817, "heat_socio_layer": 10.699771263045182 }, "geometry": { "type": "Point", "coordinates": [ -13165410.863060023635626, 4032475.591672285459936 ] } },
{ "type": "Feature", "properties": { "STOPNUM": 4768, "STOPNAME": "Broadway / 21st", "LAT": 34.029233, "LONG": -118.267046, "LINE_DIR1": "40-N", "LINE_DIR2": "45-N", "LINE_DIR3": 0, "LINE_DIR4": 0, "LINE_DIR5": 0, "LINE_DIR6": 0, "LINE_DIR7": 0, "LINE_DIR8": 0, "LINE_DIR9": 0, "LINE_DIR10": 0, "LINE_DIR11": 0, "LINE_DIR12": 0, "LINE_DIR13": 0, "LINE_DIR14": 0, "layer_id": "bus_stops", "feature_name": "Bus Stop", "heat_layer": 6.5238, "index_right": 1811, "socioeconomic_layer": 4.1759712630451817, "heat_socio_layer": 10.699771263045182 }, "geometry": { "type": "Point", "coordinates": [ -13165427.338344661518931, 4032727.979560920037329 ] } },
{ "type": "Feature", "properties": { "STOPNUM": 4800004, "STOPNAME": "23rd / Main", "LAT": 34.02715, "LONG": -118.266957, "LINE_DIR1": "10-E", "LINE_DIR2": null, "LINE_DIR3": 0, "LINE_DIR4": 0, "LINE_DIR5": 0, "LINE_DIR6": 0, "LINE_DIR7": 0, "LINE_DIR8": 0, "LINE_DIR9": 0, "LINE_DIR10": 0, "LINE_DIR11": 0, "LINE_DIR12": 0, "LINE_DIR13": 0, "LINE_DIR14": 0, "layer_id": "bus_stops", "feature_name": "Bus Stop", "heat_layer": 6.5238, "index_right": 1811, "socioeconomic_layer": 4.1759712630451817, "heat_socio_layer": 10.699771263045182 }, "geometry": { "type": "Point", "coordinates": [ -13165417.430909981951118, 4032448.190662524197251 ] } },
{ "type": "Feature", "properties": { "STOPNUM": 4800005, "STOPNAME": "23rd / Maple", "LAT": 34.025815, "LONG": -118.264124, "LINE_DIR1": "10-E", "LINE_DIR2": null, "LINE_DIR3": 0, "LINE_DIR4": 0, "LINE_DIR5": 0, "LINE_DIR6": 0, "LINE_DIR7": 0, "LINE_DIR8": 0, "LINE_DIR9": 0, "LINE_DIR10": 0, "LINE_DIR11": 0, "LINE_DIR12": 0, "LINE_DIR13": 0, "LINE_DIR14": 0, "layer_id": "bus_stops", "feature_name": "Bus Stop", "heat_layer": 6.5238, "index_right": 1811, "socioeconomic_layer": 4.1759712630451817, "heat_socio_layer": 10.699771263045182 }, "geometry": { "type": "Point", "coordinates": [ -13165102.062792563810945, 4032268.876857026014477 ] } },
{ "type": "Feature", "properties": { "STOPNUM": 4800002, "STOPNAME": "Main / Washington", "LAT": 34.030829, "LONG": -118.264612, "LINE_DIR1": "10-W", "LINE_DIR2": null, "LINE_DIR3": 0, "LINE_DIR4": 0, "LINE_DIR5": 0, "LINE_DIR6": 0, "LINE_DIR7": 0, "LINE_DIR8": 0, "LINE_DIR9": 0, "LINE_DIR10": 0, "LINE_DIR11": 0, "LINE_DIR12": 0, "LINE_DIR13": 0, "LINE_DIR14": 0, "layer_id": "bus_stops", "feature_name": "Bus Stop", "heat_layer": 6.5238, "index_right": 1811, "socioeconomic_layer": 4.1759712630451817, "heat_socio_layer": 10.699771263045182 }, "geometry": { "type": "Point", "coordinates": [ -13165156.386704070493579, 4032942.359187690075487 ] } },
{ "type": "Feature", "properties": { "STOPNUM": 5144, "STOPNAME": "Adams / Grand", "LAT": 34.026463, "LONG": -118.271978, "LINE_DIR1": "55-N", "LINE_DIR2": null, "LINE_DIR3": 0, "LINE_DIR4": 0, "LINE_DIR5": 0, "LINE_DIR6": 0, "LINE_DIR7": 0, "LINE_DIR8": 0, "LINE_DIR9": 0, "LINE_DIR10": 0, "LINE_DIR11": 0, "LINE_DIR12": 0, "LINE_DIR13": 0, "LINE_DIR14": 0, "layer_id": "bus_stops", "feature_name": "Bus Stop", "heat_layer": 6.5238, "index_right": 1811, "socioeconomic_layer": 4.1759712630451817, "heat_socio_layer": 10.699771263045182 }, "geometry": { "type": "Point", "coordinates": [ -13165976.366073254495859, 4032355.914217041805387 ] } },
{ "type": "Feature", "properties": { "STOPNUM": 7472, "STOPNAME": "Adams / Hill", "LAT": 34.025809, "LONG": -118.270533, "LINE_DIR1": "55-N", "LINE_DIR2": null, "LINE_DIR3": 0, "LINE_DIR4": 0, "LINE_DIR5": 0, "LINE_DIR6": 0, "LINE_DIR7": 0, "LINE_DIR8": 0, "LINE_DIR9": 0, "LINE_DIR10": 0, "LINE_DIR11": 0, "LINE_DIR12": 0, "LINE_DIR13": 0, "LINE_DIR14": 0, "layer_id": "bus_stops", "feature_name": "Bus Stop", "heat_layer": 6.5238, "index_right": 1811, "socioeconomic_layer": 4.1759712630451817, "heat_socio_layer": 10.699771263045182 }, "geometry": { "type": "Point", "coordinates": [ -13165815.509409056976438, 4032268.070958649739623 ] } },
{ "type": "Feature", "properties": { "STOPNUM": 4800006, "STOPNAME": "23rd / Maple", "LAT": 34.026019, "LONG": -118.264066, "LINE_DIR1": "10-W", "LINE_DIR2": null, "LINE_DIR3": 0, "LINE_DIR4": 0, "LINE_DIR5": 0, "LINE_DIR6": 0, "LINE_DIR7": 0, "LINE_DIR8": 0, "LINE_DIR9": 0, "LINE_DIR10": 0, "LINE_DIR11": 0, "LINE_DIR12": 0, "LINE_DIR13": 0, "LINE_DIR14": 0, "layer_id": "bus_stops", "feature_name": "Bus Stop", "heat_layer": 6.5238, "index_right": 1811, "socioeconomic_layer": 4.1759712630451817, "heat_socio_layer": 10.699771263045182 }, "geometry": { "type": "Point", "coordinates": [ -13165095.606262097135186, 4032296.277435719966888 ] } },
{ "type": "Feature", "properties": { "STOPNUM": 13228, "STOPNAME": "Broadway / 21st", "LAT": 34.029595, "LONG": -118.267153, "LINE_DIR1": "40-S", "LINE_DIR2": "45-S", "LINE_DIR3": 0, "LINE_DIR4": 0, "LINE_DIR5": 0, "LINE_DIR6": 0, "LINE_DIR7": 0, "LINE_DIR8": 0, "LINE_DIR9": 0, "LINE_DIR10": 0, "LINE_DIR11": 0, "LINE_DIR12": 0, "LINE_DIR13": 0, "LINE_DIR14": 0, "layer_id": "bus_stops", "feature_name": "Bus Stop", "heat_layer": 6.5238, "index_right": 1811, "socioeconomic_layer": 4.1759712630451817, "heat_socio_layer": 10.699771263045182 }, "geometry": { "type": "Point", "coordinates": [ -13165439.249530175700784, 4032776.604160272981972 ] } },
{ "type": "Feature", "properties": { "STOPNUM": 4800003, "STOPNAME": "Main / Washington", "LAT": 34.03096, "LONG": -118.264873, "LINE_DIR1": "10-E", "LINE_DIR2": null, "LINE_DIR3": 0, "LINE_DIR4": 0, "LINE_DIR5": 0, "LINE_DIR6": 0, "LINE_DIR7": 0, "LINE_DIR8": 0, "LINE_DIR9": 0, "LINE_DIR10": 0, "LINE_DIR11": 0, "LINE_DIR12": 0, "LINE_DIR13": 0, "LINE_DIR14": 0, "layer_id": "bus_stops", "feature_name": "Bus Stop", "heat_layer": 6.5238, "index_right": 1811, "socioeconomic_layer": 4.1759712630451817, "heat_socio_layer": 10.699771263045182 }, "geometry": { "type": "Point", "coordinates": [ -13165185.441091168671846, 4032959.955689518712461 ] } },
{ "type": "Feature", "properties": { "STOPNUM": 19015, "STOPNAME": "Broadway / Washington", "LAT": 34.031362, "LONG": -118.265987, "LINE_DIR1": "40-S", "LINE_DIR2": "45-S", "LINE_DIR3": 0, "LINE_DIR4": 0, "LINE_DIR5": 0, "LINE_DIR6": 0, "LINE_DIR7": 0, "LINE_DIR8": 0, "LINE_DIR9": 0, "LINE_DIR10": 0, "LINE_DIR11": 0, "LINE_DIR12": 0, "LINE_DIR13": 0, "LINE_DIR14": 0, "layer_id": "bus_stops", "feature_name": "Bus Stop", "heat_layer": 6.5238, "index_right": 1811, "socioeconomic_layer": 4.1759712630451817, "heat_socio_layer": 10.699771263045182 }, "geometry": { "type": "Point", "coordinates": [ -13165309.451003912836313, 4033013.954284586943686 ] } },
{ "type": "Feature", "properties": { "STOPNUM": 16950, "STOPNAME": "Hill / Adams", "LAT": 34.026021, "LONG": -118.270557, "LINE_DIR1": "14-N", "LINE_DIR2": null, "LINE_DIR3": 0, "LINE_DIR4": 0, "LINE_DIR5": 0, "LINE_DIR6": 0, "LINE_DIR7": 0, "LINE_DIR8": 0, "LINE_DIR9": 0, "LINE_DIR10": 0, "LINE_DIR11": 0, "LINE_DIR12": 0, "LINE_DIR13": 0, "LINE_DIR14": 0, "layer_id": "bus_stops", "feature_name": "Bus Stop", "heat_layer": 6.5238, "index_right": 1811, "socioeconomic_layer": 4.1759712630451817, "heat_socio_layer": 10.699771263045182 }, "geometry": { "type": "Point", "coordinates": [ -13165818.181076837703586, 4032296.546069170814008 ] } },
{ "type": "Feature", "properties": { "STOPNUM": 1257, "STOPNAME": "Adams / Main", "LAT": 34.024844, "LONG": -118.268385, "LINE_DIR1": "55-N", "LINE_DIR2": null, "LINE_DIR3": 0, "LINE_DIR4": 0, "LINE_DIR5": 0, "LINE_DIR6": 0, "LINE_DIR7": 0, "LINE_DIR8": 0, "LINE_DIR9": 0, "LINE_DIR10": 0, "LINE_DIR11": 0, "LINE_DIR12": 0, "LINE_DIR13": 0, "LINE_DIR14": 0, "layer_id": "bus_stops", "feature_name": "Bus Stop", "heat_layer": 6.5238, "index_right": 1811, "socioeconomic_layer": 4.1759712630451817, "heat_socio_layer": 10.699771263045182 }, "geometry": { "type": "Point", "coordinates": [ -13165576.395142832770944, 4032138.456377998925745 ] } },
{ "type": "Feature", "properties": { "STOPNUM": 483, "STOPNAME": "Broadway / Washington", "LAT": 34.031195, "LONG": -118.265755, "LINE_DIR1": "40-N", "LINE_DIR2": "45-N", "LINE_DIR3": 0, "LINE_DIR4": 0, "LINE_DIR5": 0, "LINE_DIR6": 0, "LINE_DIR7": 0, "LINE_DIR8": 0, "LINE_DIR9": 0, "LINE_DIR10": 0, "LINE_DIR11": 0, "LINE_DIR12": 0, "LINE_DIR13": 0, "LINE_DIR14": 0, "layer_id": "bus_stops", "feature_name": "Bus Stop", "heat_layer": 6.5238, "index_right": 1811, "socioeconomic_layer": 4.1759712630451817, "heat_socio_layer": 10.699771263045182 }, "geometry": { "type": "Point", "coordinates": [ -13165283.624882047995925, 4032991.522001341916621 ] } },
{ "type": "Feature", "properties": { "STOPNUM": 1255, "STOPNAME": "Adams / Maple", "LAT": 34.023636, "LONG": -118.265675, "LINE_DIR1": "55-N", "LINE_DIR2": null, "LINE_DIR3": 0, "LINE_DIR4": 0, "LINE_DIR5": 0, "LINE_DIR6": 0, "LINE_DIR7": 0, "LINE_DIR8": 0, "LINE_DIR9": 0, "LINE_DIR10": 0, "LINE_DIR11": 0, "LINE_DIR12": 0, "LINE_DIR13": 0, "LINE_DIR14": 0, "layer_id": "bus_stops", "feature_name": "Bus Stop", "heat_layer": 6.5238, "index_right": 1811, "socioeconomic_layer": 4.1759712630451817, "heat_socio_layer": 10.699771263045182 }, "geometry": { "type": "Point", "coordinates": [ -13165274.719322783872485, 4031976.205177091993392 ] } },
{ "type": "Feature", "properties": { "STOPNUM": 13270, "STOPNAME": "Broadway / Adams", "LAT": 34.025575, "LONG": -118.269757, "LINE_DIR1": "45-S", "LINE_DIR2": "40-S", "LINE_DIR3": 0, "LINE_DIR4": 0, "LINE_DIR5": 0, "LINE_DIR6": 0, "LINE_DIR7": 0, "LINE_DIR8": 0, "LINE_DIR9": 0, "LINE_DIR10": 0, "LINE_DIR11": 0, "LINE_DIR12": 0, "LINE_DIR13": 0, "LINE_DIR14": 0, "layer_id": "bus_stops", "feature_name": "Bus Stop", "heat_layer": 6.5238, "index_right": 1811, "socioeconomic_layer": 4.1759712630451817, "heat_socio_layer": 10.699771263045182 }, "geometry": { "type": "Point", "coordinates": [ -13165729.125484202057123, 4032236.64096642145887 ] } },
{ "type": "Feature", "properties": { "STOPNUM": 9788, "STOPNAME": "Adams / San Pedro", "LAT": 34.021575, "LONG": -118.261537, "LINE_DIR1": "55-S", "LINE_DIR2": null, "LINE_DIR3": 0, "LINE_DIR4": 0, "LINE_DIR5": 0, "LINE_DIR6": 0, "LINE_DIR7": 0, "LINE_DIR8": 0, "LINE_DIR9": 0, "LINE_DIR10": 0, "LINE_DIR11": 0, "LINE_DIR12": 0, "LINE_DIR13": 0, "LINE_DIR14": 0, "layer_id": "bus_stops", "feature_name": "Bus Stop", "heat_layer": 6.601, "index_right": 1830, "socioeconomic_layer": 4.0418143881437949, "heat_socio_layer": 10.642814388143794 }, "geometry": { "type": "Point", "coordinates": [ -13164814.07926988042891, 4031699.389543842058629 ] } },
{ "type": "Feature", "properties": { "STOPNUM": 5497, "STOPNAME": "San Pedro / Adams", "LAT": 34.021768, "LONG": -118.261363, "LINE_DIR1": "51-S", "LINE_DIR2": null, "LINE_DIR3": 0, "LINE_DIR4": 0, "LINE_DIR5": 0, "LINE_DIR6": 0, "LINE_DIR7": 0, "LINE_DIR8": 0, "LINE_DIR9": 0, "LINE_DIR10": 0, "LINE_DIR11": 0, "LINE_DIR12": 0, "LINE_DIR13": 0, "LINE_DIR14": 0, "layer_id": "bus_stops", "feature_name": "Bus Stop", "heat_layer": 6.601, "index_right": 1830, "socioeconomic_layer": 4.0418143881437949, "heat_socio_layer": 10.642814388143794 }, "geometry": { "type": "Point", "coordinates": [ -13164794.70967848226428, 4031725.31134359491989 ] } },
{ "type": "Feature", "properties": { "STOPNUM": 1258, "STOPNAME": "Adams / San Pedro", "LAT": 34.021831, "LONG": -118.261597, "LINE_DIR1": "55-N", "LINE_DIR2": null, "LINE_DIR3": 0, "LINE_DIR4": 0, "LINE_DIR5": 0, "LINE_DIR6": 0, "LINE_DIR7": 0, "LINE_DIR8": 0, "LINE_DIR9": 0, "LINE_DIR10": 0, "LINE_DIR11": 0, "LINE_DIR12": 0, "LINE_DIR13": 0, "LINE_DIR14": 0, "layer_id": "bus_stops", "feature_name": "Bus Stop", "heat_layer": 6.601, "index_right": 1830, "socioeconomic_layer": 4.0418143881437949, "heat_socio_layer": 10.642814388143794 }, "geometry": { "type": "Point", "coordinates": [ -13164820.75843932852149, 4031733.772876481059939 ] } },
{ "type": "Feature", "properties": { "STOPNUM": 5484, "STOPNAME": "San Pedro / 23rd", "LAT": 34.024239, "LONG": -118.259783, "LINE_DIR1": "51-S", "LINE_DIR2": null, "LINE_DIR3": 0, "LINE_DIR4": 0, "LINE_DIR5": 0, "LINE_DIR6": 0, "LINE_DIR7": 0, "LINE_DIR8": 0, "LINE_DIR9": 0, "LINE_DIR10": 0, "LINE_DIR11": 0, "LINE_DIR12": 0, "LINE_DIR13": 0, "LINE_DIR14": 0, "layer_id": "bus_stops", "feature_name": "Bus Stop", "heat_layer": 6.601, "index_right": 1830, "socioeconomic_layer": 4.0418143881437949, "heat_socio_layer": 10.642814388143794 }, "geometry": { "type": "Point", "coordinates": [ -13164618.824883030727506, 4032057.196174951270223 ] } },
{ "type": "Feature", "properties": { "STOPNUM": 11643, "STOPNAME": "Maple / 30th", "LAT": 34.020169, "LONG": -118.267413, "LINE_DIR1": "10-W", "LINE_DIR2": null, "LINE_DIR3": 0, "LINE_DIR4": 0, "LINE_DIR5": 0, "LINE_DIR6": 0, "LINE_DIR7": 0, "LINE_DIR8": 0, "LINE_DIR9": 0, "LINE_DIR10": 0, "LINE_DIR11": 0, "LINE_DIR12": 0, "LINE_DIR13": 0, "LINE_DIR14": 0, "layer_id": "bus_stops", "feature_name": "Bus Stop", "heat_layer": 6.7736, "index_right": 1835, "socioeconomic_layer": 3.7644581491415168, "heat_socio_layer": 10.538058149141516 }, "geometry": { "type": "Point", "coordinates": [ -13165468.192597782239318, 4031510.551682963501662 ] } },
{ "type": "Feature", "properties": { "STOPNUM": 1204, "STOPNAME": "5th / Wall", "LAT": 34.044875, "LONG": -118.245544, "LINE_DIR1": "16-W", "LINE_DIR2": "62-N", "LINE_DIR3": 0, "LINE_DIR4": 0, "LINE_DIR5": 0, "LINE_DIR6": 0, "LINE_DIR7": 0, "LINE_DIR8": 0, "LINE_DIR9": 0, "LINE_DIR10": 0, "LINE_DIR11": 0, "LINE_DIR12": 0, "LINE_DIR13": 0, "LINE_DIR14": 0, "layer_id": "bus_stops", "feature_name": "Bus Stop", "heat_layer": 6.4696, "index_right": 1416, "socioeconomic_layer": 3.9230401485131328, "heat_socio_layer": 10.392640148513133 }, "geometry": { "type": "Point", "coordinates": [ -13163033.746653623878956, 4034829.23504217620939 ] } },
{ "type": "Feature", "properties": { "STOPNUM": 6198, "STOPNAME": "5th / San Pedro", "LAT": 34.044397, "LONG": -118.244139, "LINE_DIR1": "18-W", "LINE_DIR2": "720-W", "LINE_DIR3": 0, "LINE_DIR4": 0, "LINE_DIR5": 0, "LINE_DIR6": 0, "LINE_DIR7": 0, "LINE_DIR8": 0, "LINE_DIR9": 0, "LINE_DIR10": 0, "LINE_DIR11": 0, "LINE_DIR12": 0, "LINE_DIR13": 0, "LINE_DIR14": 0, "layer_id": "bus_stops", "feature_name": "Bus Stop", "heat_layer": 6.4696, "index_right": 1416, "socioeconomic_layer": 3.9230401485131328, "heat_socio_layer": 10.392640148513133 }, "geometry": { "type": "Point", "coordinates": [ -13162877.342769060283899, 4034765.017556747421622 ] } },
{ "type": "Feature", "properties": { "STOPNUM": 13873, "STOPNAME": "San Pedro / 21st", "LAT": 34.025619, "LONG": -118.258556, "LINE_DIR1": "51-N", "LINE_DIR2": null, "LINE_DIR3": 0, "LINE_DIR4": 0, "LINE_DIR5": 0, "LINE_DIR6": 0, "LINE_DIR7": 0, "LINE_DIR8": 0, "LINE_DIR9": 0, "LINE_DIR10": 0, "LINE_DIR11": 0, "LINE_DIR12": 0, "LINE_DIR13": 0, "LINE_DIR14": 0, "layer_id": "bus_stops", "feature_name": "Bus Stop", "heat_layer": 6.2056, "index_right": 1831, "socioeconomic_layer": 4.1549558350076268, "heat_socio_layer": 10.360555835007627 }, "geometry": { "type": "Point", "coordinates": [ -13164482.235867828130722, 4032242.550872873514891 ] } },
{ "type": "Feature", "properties": { "STOPNUM": 13888, "STOPNAME": "San Pedro / Adams", "LAT": 34.021406, "LONG": -118.261249, "LINE_DIR1": "51-N", "LINE_DIR2": null, "LINE_DIR3": 0, "LINE_DIR4": 0, "LINE_DIR5": 0, "LINE_DIR6": 0, "LINE_DIR7": 0, "LINE_DIR8": 0, "LINE_DIR9": 0, "LINE_DIR10": 0, "LINE_DIR11": 0, "LINE_DIR12": 0, "LINE_DIR13": 0, "LINE_DIR14": 0, "layer_id": "bus_stops", "feature_name": "Bus Stop", "heat_layer": 6.2056, "index_right": 1831, "socioeconomic_layer": 4.1549558350076268, "heat_socio_layer": 10.360555835007627 }, "geometry": { "type": "Point", "coordinates": [ -13164782.01925653219223, 4031676.691228732932359 ] } },
{ "type": "Feature", "properties": { "STOPNUM": 13874, "STOPNAME": "San Pedro / 23rd", "LAT": 34.024119, "LONG": -118.259519, "LINE_DIR1": "51-N", "LINE_DIR2": null, "LINE_DIR3": 0, "LINE_DIR4": 0, "LINE_DIR5": 0, "LINE_DIR6": 0, "LINE_DIR7": 0, "LINE_DIR8": 0, "LINE_DIR9": 0, "LINE_DIR10": 0, "LINE_DIR11": 0, "LINE_DIR12": 0, "LINE_DIR13": 0, "LINE_DIR14": 0, "layer_id": "bus_stops", "feature_name": "Bus Stop", "heat_layer": 6.2056, "index_right": 1831, "socioeconomic_layer": 4.1549558350076268, "heat_socio_layer": 10.360555835007627 }, "geometry": { "type": "Point", "coordinates": [ -13164589.436537461355329, 4032041.078517572488636 ] } },
{ "type": "Feature", "properties": { "STOPNUM": 14257, "STOPNAME": "San Pedro / 16th", "LAT": 34.029636, "LONG": -118.255942, "LINE_DIR1": "51-N", "LINE_DIR2": null, "LINE_DIR3": 0, "LINE_DIR4": 0, "LINE_DIR5": 0, "LINE_DIR6": 0, "LINE_DIR7": 0, "LINE_DIR8": 0, "LINE_DIR9": 0, "LINE_DIR10": 0, "LINE_DIR11": 0, "LINE_DIR12": 0, "LINE_DIR13": 0, "LINE_DIR14": 0, "layer_id": "bus_stops", "feature_name": "Bus Stop", "heat_layer": 7.4758, "index_right": 1827, "socioeconomic_layer": 2.8409808997107788, "heat_socio_layer": 10.316780899710778 }, "geometry": { "type": "Point", "coordinates": [ -13164191.246718894690275, 4032782.111379355657846 ] } },
{ "type": "Feature", "properties": { "STOPNUM": 13868, "STOPNAME": "San Pedro / 11th", "LAT": 34.035066, "LONG": -118.252119, "LINE_DIR1": "51-N", "LINE_DIR2": null, "LINE_DIR3": 0, "LINE_DIR4": 0, "LINE_DIR5": 0, "LINE_DIR6": 0, "LINE_DIR7": 0, "LINE_DIR8": 0, "LINE_DIR9": 0, "LINE_DIR10": 0, "LINE_DIR11": 0, "LINE_DIR12": 0, "LINE_DIR13": 0, "LINE_DIR14": 0, "layer_id": "bus_stops", "feature_name": "Bus Stop", "heat_layer": 7.4758, "index_right": 1827, "socioeconomic_layer": 2.8409808997107788, "heat_socio_layer": 10.316780899710778 }, "geometry": { "type": "Point", "coordinates": [ -13163765.672305591404438, 4033511.505618227180094 ] } },
{ "type": "Feature", "properties": { "STOPNUM": 5482, "STOPNAME": "San Pedro / 14th", "LAT": 34.03138, "LONG": -118.255105, "LINE_DIR1": "51-S", "LINE_DIR2": null, "LINE_DIR3": 0, "LINE_DIR4": 0, "LINE_DIR5": 0, "LINE_DIR6": 0, "LINE_DIR7": 0, "LINE_DIR8": 0, "LINE_DIR9": 0, "LINE_DIR10": 0, "LINE_DIR11": 0, "LINE_DIR12": 0, "LINE_DIR13": 0, "LINE_DIR14": 0, "layer_id": "bus_stops", "feature_name": "Bus Stop", "heat_layer": 7.4758, "index_right": 1827, "socioeconomic_layer": 2.8409808997107788, "heat_socio_layer": 10.316780899710778 }, "geometry": { "type": "Point", "coordinates": [ -13164098.072305100038648, 4033016.372138112317771 ] } },
{ "type": "Feature", "properties": { "STOPNUM": 13869, "STOPNAME": "San Pedro / 12th", "LAT": 34.033576, "LONG": -118.253551, "LINE_DIR1": "51-S", "LINE_DIR2": null, "LINE_DIR3": 0, "LINE_DIR4": 0, "LINE_DIR5": 0, "LINE_DIR6": 0, "LINE_DIR7": 0, "LINE_DIR8": 0, "LINE_DIR9": 0, "LINE_DIR10": 0, "LINE_DIR11": 0, "LINE_DIR12": 0, "LINE_DIR13": 0, "LINE_DIR14": 0, "layer_id": "bus_stops", "feature_name": "Bus Stop", "heat_layer": 7.4758, "index_right": 1827, "socioeconomic_layer": 2.8409808997107788, "heat_socio_layer": 10.316780899710778 }, "geometry": { "type": "Point", "coordinates": [ -13163925.081816405057907, 4033311.35411698743701 ] } },
{ "type": "Feature", "properties": { "STOPNUM": 5504, "STOPNAME": "San Pedro / Pico", "LAT": 34.032621, "LONG": -118.254228, "LINE_DIR1": "51-S", "LINE_DIR2": null, "LINE_DIR3": 0, "LINE_DIR4": 0, "LINE_DIR5": 0, "LINE_DIR6": 0, "LINE_DIR7": 0, "LINE_DIR8": 0, "LINE_DIR9": 0, "LINE_DIR10": 0, "LINE_DIR11": 0, "LINE_DIR12": 0, "LINE_DIR13": 0, "LINE_DIR14": 0, "layer_id": "bus_stops", "feature_name": "Bus Stop", "heat_layer": 7.4758, "index_right": 1827, "socioeconomic_layer": 2.8409808997107788, "heat_socio_layer": 10.316780899710778 }, "geometry": { "type": "Point", "coordinates": [ -13164000.4451116733253, 4033183.070942962542176 ] } },
{ "type": "Feature", "properties": { "STOPNUM": 5479, "STOPNAME": "San Pedro / 11th", "LAT": 34.035434, "LONG": -118.252206, "LINE_DIR1": "51-S", "LINE_DIR2": null, "LINE_DIR3": 0, "LINE_DIR4": 0, "LINE_DIR5": 0, "LINE_DIR6": 0, "LINE_DIR7": 0, "LINE_DIR8": 0, "LINE_DIR9": 0, "LINE_DIR10": 0, "LINE_DIR11": 0, "LINE_DIR12": 0, "LINE_DIR13": 0, "LINE_DIR14": 0, "layer_id": "bus_stops", "feature_name": "Bus Stop", "heat_layer": 7.4758, "index_right": 1827, "socioeconomic_layer": 2.8409808997107788, "heat_socio_layer": 10.316780899710778 }, "geometry": { "type": "Point", "coordinates": [ -13163775.35710128955543, 4033560.939550477080047 ] } },
{ "type": "Feature", "properties": { "STOPNUM": 13872, "STOPNAME": "San Pedro / 14th", "LAT": 34.031249, "LONG": -118.254841, "LINE_DIR1": "51-N", "LINE_DIR2": null, "LINE_DIR3": 0, "LINE_DIR4": 0, "LINE_DIR5": 0, "LINE_DIR6": 0, "LINE_DIR7": 0, "LINE_DIR8": 0, "LINE_DIR9": 0, "LINE_DIR10": 0, "LINE_DIR11": 0, "LINE_DIR12": 0, "LINE_DIR13": 0, "LINE_DIR14": 0, "layer_id": "bus_stops", "feature_name": "Bus Stop", "heat_layer": 7.4758, "index_right": 1827, "socioeconomic_layer": 2.8409808997107788, "heat_socio_layer": 10.316780899710778 }, "geometry": { "type": "Point", "coordinates": [ -13164068.683959530666471, 4032998.775549178011715 ] } },
{ "type": "Feature", "properties": { "STOPNUM": 8604, "STOPNAME": "San Pedro / 12th", "LAT": 34.033822, "LONG": -118.253017, "LINE_DIR1": "51-N", "LINE_DIR2": null, "LINE_DIR3": 0, "LINE_DIR4": 0, "LINE_DIR5": 0, "LINE_DIR6": 0, "LINE_DIR7": 0, "LINE_DIR8": 0, "LINE_DIR9": 0, "LINE_DIR10": 0, "LINE_DIR11": 0, "LINE_DIR12": 0, "LINE_DIR13": 0, "LINE_DIR14": 0, "layer_id": "bus_stops", "feature_name": "Bus Stop", "heat_layer": 7.4758, "index_right": 1827, "socioeconomic_layer": 2.8409808997107788, "heat_socio_layer": 10.316780899710778 }, "geometry": { "type": "Point", "coordinates": [ -13163865.637208322063088, 4033344.399021890945733 ] } },
{ "type": "Feature", "properties": { "STOPNUM": 9763, "STOPNAME": "7th / San Pedro", "LAT": 34.040707, "LONG": -118.247004, "LINE_DIR1": "51-S", "LINE_DIR2": "60-S", "LINE_DIR3": 0, "LINE_DIR4": 0, "LINE_DIR5": 0, "LINE_DIR6": 0, "LINE_DIR7": 0, "LINE_DIR8": 0, "LINE_DIR9": 0, "LINE_DIR10": 0, "LINE_DIR11": 0, "LINE_DIR12": 0, "LINE_DIR13": 0, "LINE_DIR14": 0, "layer_id": "bus_stops", "feature_name": "Bus Stop", "heat_layer": 7.4758, "index_right": 1827, "socioeconomic_layer": 2.8409808997107788, "heat_socio_layer": 10.316780899710778 }, "geometry": { "type": "Point", "coordinates": [ -13163196.273110182955861, 4034269.292246558703482 ] } },
{ "type": "Feature", "properties": { "STOPNUM": 9751, "STOPNAME": "7th / Maple", "LAT": 34.042167, "LONG": -118.249104, "LINE_DIR1": "51-S", "LINE_DIR2": "60-S", "LINE_DIR3": 0, "LINE_DIR4": 0, "LINE_DIR5": 0, "LINE_DIR6": 0, "LINE_DIR7": 0, "LINE_DIR8": 0, "LINE_DIR9": 0, "LINE_DIR10": 0, "LINE_DIR11": 0, "LINE_DIR12": 0, "LINE_DIR13": 0, "LINE_DIR14": 0, "layer_id": "bus_stops", "feature_name": "Bus Stop", "heat_layer": 7.4758, "index_right": 1827, "socioeconomic_layer": 2.8409808997107788, "heat_socio_layer": 10.316780899710778 }, "geometry": { "type": "Point", "coordinates": [ -13163430.044040847569704, 4034465.430305499583483 ] } },
{ "type": "Feature", "properties": { "STOPNUM": 1251, "STOPNAME": "9th / Stanford", "LAT": 34.03503, "LONG": -118.24804, "LINE_DIR1": "66-E", "LINE_DIR2": null, "LINE_DIR3": 0, "LINE_DIR4": 0, "LINE_DIR5": 0, "LINE_DIR6": 0, "LINE_DIR7": 0, "LINE_DIR8": 0, "LINE_DIR9": 0, "LINE_DIR10": 0, "LINE_DIR11": 0, "LINE_DIR12": 0, "LINE_DIR13": 0, "LINE_DIR14": 0, "layer_id": "bus_stops", "feature_name": "Bus Stop", "heat_layer": 7.4758, "index_right": 1827, "socioeconomic_layer": 2.8409808997107788, "heat_socio_layer": 10.316780899710778 }, "geometry": { "type": "Point", "coordinates": [ -13163311.600102646276355, 4033506.669701587874442 ] } },
{ "type": "Feature", "properties": { "STOPNUM": 13885, "STOPNAME": "San Pedro / 8th", "LAT": 34.038292, "LONG": -118.249089, "LINE_DIR1": "51-N", "LINE_DIR2": null, "LINE_DIR3": 0, "LINE_DIR4": 0, "LINE_DIR5": 0, "LINE_DIR6": 0, "LINE_DIR7": 0, "LINE_DIR8": 0, "LINE_DIR9": 0, "LINE_DIR10": 0, "LINE_DIR11": 0, "LINE_DIR12": 0, "LINE_DIR13": 0, "LINE_DIR14": 0, "layer_id": "bus_stops", "feature_name": "Bus Stop", "heat_layer": 7.4758, "index_right": 1827, "socioeconomic_layer": 2.8409808997107788, "heat_socio_layer": 10.316780899710778 }, "geometry": { "type": "Point", "coordinates": [ -13163428.374248487874866, 4033944.865813671145588 ] } },
{ "type": "Feature", "properties": { "STOPNUM": 13893, "STOPNAME": "San Pedro / Pico", "LAT": 34.032869, "LONG": -118.253697, "LINE_DIR1": "51-N", "LINE_DIR2": null, "LINE_DIR3": 0, "LINE_DIR4": 0, "LINE_DIR5": 0, "LINE_DIR6": 0, "LINE_DIR7": 0, "LINE_DIR8": 0, "LINE_DIR9": 0, "LINE_DIR10": 0, "LINE_DIR11": 0, "LINE_DIR12": 0, "LINE_DIR13": 0, "LINE_DIR14": 0, "layer_id": "bus_stops", "feature_name": "Bus Stop", "heat_layer": 7.4758, "index_right": 1827, "socioeconomic_layer": 2.8409808997107788, "heat_socio_layer": 10.316780899710778 }, "geometry": { "type": "Point", "coordinates": [ -13163941.334462063387036, 4033216.38413102272898 ] } },
{ "type": "Feature", "properties": { "STOPNUM": 1250, "STOPNAME": "9th / San Pedro", "LAT": 34.037352, "LONG": -118.250575, "LINE_DIR1": "66-E", "LINE_DIR2": null, "LINE_DIR3": 0, "LINE_DIR4": 0, "LINE_DIR5": 0, "LINE_DIR6": 0, "LINE_DIR7": 0, "LINE_DIR8": 0, "LINE_DIR9": 0, "LINE_DIR10": 0, "LINE_DIR11": 0, "LINE_DIR12": 0, "LINE_DIR13": 0, "LINE_DIR14": 0, "layer_id": "bus_stops", "feature_name": "Bus Stop", "heat_layer": 7.4758, "index_right": 1827, "socioeconomic_layer": 2.8409808997107788, "heat_socio_layer": 10.316780899710778 }, "geometry": { "type": "Point", "coordinates": [ -13163593.795011807233095, 4033818.590527650434524 ] } },
{ "type": "Feature", "properties": { "STOPNUM": 9775, "STOPNAME": "8th / San Julian", "LAT": 34.039399, "LONG": -118.249419, "LINE_DIR1": "66-W", "LINE_DIR2": null, "LINE_DIR3": 0, "LINE_DIR4": 0, "LINE_DIR5": 0, "LINE_DIR6": 0, "LINE_DIR7": 0, "LINE_DIR8": 0, "LINE_DIR9": 0, "LINE_DIR10": 0, "LINE_DIR11": 0, "LINE_DIR12": 0, "LINE_DIR13": 0, "LINE_DIR14": 0, "layer_id": "bus_stops", "feature_name": "Bus Stop", "heat_layer": 7.4758, "index_right": 1827, "socioeconomic_layer": 2.8409808997107788, "heat_socio_layer": 10.316780899710778 }, "geometry": { "type": "Point", "coordinates": [ -13163465.109680449590087, 4034093.576907678041607 ] } },
{ "type": "Feature", "properties": { "STOPNUM": 5883, "STOPNAME": "San Pedro / 16th", "LAT": 34.030081, "LONG": -118.255996, "LINE_DIR1": "51-S", "LINE_DIR2": null, "LINE_DIR3": 0, "LINE_DIR4": 0, "LINE_DIR5": 0, "LINE_DIR6": 0, "LINE_DIR7": 0, "LINE_DIR8": 0, "LINE_DIR9": 0, "LINE_DIR10": 0, "LINE_DIR11": 0, "LINE_DIR12": 0, "LINE_DIR13": 0, "LINE_DIR14": 0, "layer_id": "bus_stops", "feature_name": "Bus Stop", "heat_layer": 7.4758, "index_right": 1827, "socioeconomic_layer": 2.8409808997107788, "heat_socio_layer": 10.316780899710778 }, "geometry": { "type": "Point", "coordinates": [ -13164197.2579713948071, 4032841.88502594595775 ] } },
{ "type": "Feature", "properties": { "STOPNUM": 9768, "STOPNAME": "8th / Maple", "LAT": 34.040773, "LONG": -118.250938, "LINE_DIR1": "66-W", "LINE_DIR2": null, "LINE_DIR3": 0, "LINE_DIR4": 0, "LINE_DIR5": 0, "LINE_DIR6": 0, "LINE_DIR7": 0, "LINE_DIR8": 0, "LINE_DIR9": 0, "LINE_DIR10": 0, "LINE_DIR11": 0, "LINE_DIR12": 0, "LINE_DIR13": 0, "LINE_DIR14": 0, "layer_id": "bus_stops", "feature_name": "Bus Stop", "heat_layer": 7.4758, "index_right": 1827, "socioeconomic_layer": 2.8409808997107788, "heat_socio_layer": 10.316780899710778 }, "geometry": { "type": "Point", "coordinates": [ -13163634.203986965119839, 4034278.158688687253743 ] } }
]
}
