{
"type": "FeatureCollection",
"name": "optimized_shades_Greedy_DTLA_20",
"crs": { "type": "name", "properties": { "name": "urn:ogc:def:crs:EPSG::3857" } },
"features": [
{ "type": "Feature", "properties": { "OBJECTID": 1484, "stop_id": 20215, "route_count": 3, "route_stop": "MT720, MT053, MT018", "lat": 34.044203443980003, "lon": -118.24391431181, "heat_layer": 2.009, "index_right": 1420, "socioeconomic_layer": 4.2056171163205356, "heat_socio_layer": 6.2146171163205359, "heat_socio_public_layer": 1.6580314046237152 }, "geometry": { "type": "Point", "coordinates": [ -13162852.330594163388014, 4034739.014143196865916 ] } },
{ "type": "Feature", "properties": { "OBJECTID": 1153, "stop_id": 19406, "route_count": 2, "route_stop": "DAPIC, MT016", "lat": 34.058301360493999, "lon": -118.26163510700999, "heat_layer": 0.6536, "index_right": 1485, "socioeconomic_layer": 4.181205680169124, "heat_socio_layer": 4.8348056801691239, "heat_socio_public_layer": 1.4474127238994661 }, "geometry": { "type": "Point", "coordinates": [ -13164825.000492276623845, 4036633.163515490014106 ] } },
{ "type": "Feature", "properties": { "OBJECTID": 1810, "stop_id": 18965, "route_count": 2, "route_stop": "MT051, DA  E", "lat": 34.054928241178999, "lon": -118.27346997431, "heat_layer": 4.5814, "index_right": 1498, "socioeconomic_layer": 4.205270453721929, "heat_socio_layer": 8.7866704537219285, "heat_socio_public_layer": 1.4933007410845001 }, "geometry": { "type": "Point", "coordinates": [ -13166142.451893720775843, 4036179.933708895463496 ] } },
{ "type": "Feature", "properties": { "OBJECTID": 1144, "stop_id": 18815, "route_count": 2, "route_stop": "DAPIC, MT030", "lat": 34.044635145834, "lon": -118.27690897756, "heat_layer": 5.174, "index_right": 1816, "socioeconomic_layer": 4.3236445329102189, "heat_socio_layer": 9.4976445329102184, "heat_socio_public_layer": 1.3740141712416634 }, "geometry": { "type": "Point", "coordinates": [ -13166525.279984347522259, 4034797.011500256601721 ] } },
{ "type": "Feature", "properties": { "OBJECTID": 1145, "stop_id": 18925, "route_count": 2, "route_stop": "DAPIC, MT028", "lat": 34.049213795207002, "lon": -118.27419075956, "heat_layer": 2.8174, "index_right": 1502, "socioeconomic_layer": 4.3621861962603683, "heat_socio_layer": 7.1795861962603684, "heat_socio_public_layer": 1.2122868403761216 }, "geometry": { "type": "Point", "coordinates": [ -13166222.689340719953179, 4035412.152263194322586 ] } },
{ "type": "Feature", "properties": { "OBJECTID": 1170, "stop_id": 18973, "route_count": 3, "route_stop": "MT603, MT910, MT950", "lat": 34.030181932578003, "lon": -118.27304916654001, "heat_layer": 2.8998, "index_right": 1810, "socioeconomic_layer": 3.7749837642375321, "heat_socio_layer": 6.6747837642375316, "heat_socio_public_layer": 1.1766401267611164 }, "geometry": { "type": "Point", "coordinates": [ -13166095.607787042856216, 4032855.442616184707731 ] } },
{ "type": "Feature", "properties": { "OBJECTID": 1138, "stop_id": 19103, "route_count": 5, "route_stop": "DAPIC, MT603, MT035, DA  D, MT055", "lat": 34.032632605640998, "lon": -118.26833412038999, "heat_layer": 2.8998, "index_right": 1810, "socioeconomic_layer": 3.7749837642375321, "heat_socio_layer": 6.6747837642375316, "heat_socio_public_layer": 1.0599924015405282 }, "geometry": { "type": "Point", "coordinates": [ -13165570.731250556185842, 4033184.629896038211882 ] } },
{ "type": "Feature", "properties": { "OBJECTID": 1043, "stop_id": 19354, "route_count": 6, "route_stop": "MT040, MT035, MT004, MT033, DA  D, MT045", "lat": 34.034151669769003, "lon": -118.26357295643, "heat_layer": 5.397, "index_right": 1808, "socioeconomic_layer": 3.5578625043066285, "heat_socio_layer": 8.9548625043066288, "heat_socio_public_layer": 1.192507441291921 }, "geometry": { "type": "Point", "coordinates": [ -13165040.720902945846319, 4033388.683343546465039 ] } },
{ "type": "Feature", "properties": { "OBJECTID": 1819, "stop_id": 19798, "route_count": 2, "route_stop": "MT051, DA  E", "lat": 34.032767989219998, "lon": -118.25402018547, "heat_layer": 7.4758, "index_right": 1827, "socioeconomic_layer": 2.8409808997107788, "heat_socio_layer": 10.316780899710778, "heat_socio_public_layer": 1.3279081631703851 }, "geometry": { "type": "Point", "coordinates": [ -13163977.31130401417613, 4033202.815606727730483 ] } },
{ "type": "Feature", "properties": { "OBJECTID": 1741, "stop_id": 20346, "route_count": 2, "route_stop": "MT018, MT720", "lat": 34.039341029018999, "lon": -118.24052674039, "heat_layer": 7.2614, "index_right": 1422, "socioeconomic_layer": 4.5922241777298698, "heat_socio_layer": 11.85362417772987, "heat_socio_public_layer": 1.14031191852522 }, "geometry": { "type": "Point", "coordinates": [ -13162475.227868661284447, 4034085.789210012648255 ] } },
{ "type": "Feature", "properties": { "OBJECTID": 1820, "stop_id": 19572, "route_count": 2, "route_stop": "MT051, DA  E", "lat": 34.027627705863999, "lon": -118.25745671823999, "heat_layer": 7.4568, "index_right": 1826, "socioeconomic_layer": 4.4925893809188828, "heat_socio_layer": 11.949389380918884, "heat_socio_public_layer": 1.1571037384396821 }, "geometry": { "type": "Point", "coordinates": [ -13164359.86438206396997, 4032512.355584840290248 ] } },
{ "type": "Feature", "properties": { "OBJECTID": 1549, "stop_id": 19485, "route_count": 2, "route_stop": "FZ707, MT066", "lat": 34.044424193292997, "lon": -118.25929753216001, "heat_layer": 2.222, "index_right": 1447, "socioeconomic_layer": 2.8582636218966657, "heat_socio_layer": 5.0802636218966661, "heat_socio_public_layer": 1.0116643430106971 }, "geometry": { "type": "Point", "coordinates": [ -13164564.782850287854671, 4034768.670862720813602 ] } },
{ "type": "Feature", "properties": { "OBJECTID": 1141, "stop_id": 18803, "route_count": 2, "route_stop": "DAPIC, MT035", "lat": 34.036903750706003, "lon": -118.27762934909001, "heat_layer": 1.2426, "index_right": 1818, "socioeconomic_layer": 3.3345767925953593, "heat_socio_layer": 4.5771767925953597, "heat_socio_public_layer": 0.92467049496480458 }, "geometry": { "type": "Point", "coordinates": [ -13166605.471376249566674, 4033758.375267410185188 ] } },
{ "type": "Feature", "properties": { "OBJECTID": 1039, "stop_id": 18997, "route_count": 2, "route_stop": "MT040, MT045", "lat": 34.022265491713, "lon": -118.27176599806, "heat_layer": 6.995, "index_right": 1823, "socioeconomic_layer": 4.0012046941292949, "heat_socio_layer": 10.996204694129295, "heat_socio_public_layer": 1.1450094103895756 }, "geometry": { "type": "Point", "coordinates": [ -13165952.766125245019794, 4031792.129649397451431 ] } },
{ "type": "Feature", "properties": { "OBJECTID": 1125, "stop_id": 20468, "route_count": 4, "route_stop": "MT081, MT090, MT094, DA  B", "lat": 34.064440876143998, "lon": -118.23870369244, "heat_layer": 3.9106, "index_right": 1427, "socioeconomic_layer": 4.2601086467671427, "heat_socio_layer": 8.1707086467671424, "heat_socio_public_layer": 0.94660419450638544 }, "geometry": { "type": "Point", "coordinates": [ -13162272.287099175155163, 4037458.146977577358484 ] } },
{ "type": "Feature", "properties": { "OBJECTID": 1816, "stop_id": 19546, "route_count": 3, "route_stop": "MT051, DA  E, DA  B", "lat": 34.047977878715997, "lon": -118.25768769381, "heat_layer": -5.6296, "index_right": 1443, "socioeconomic_layer": 3.2489288387736637, "heat_socio_layer": -2.3806711612263363, "heat_socio_public_layer": 0.54501213700554363 }, "geometry": { "type": "Point", "coordinates": [ -13164385.576464902609587, 4035246.103820327203721 ] } },
{ "type": "Feature", "properties": { "OBJECTID": 991, "stop_id": 20354, "route_count": 2, "route_stop": "MT078, MT070", "lat": 34.057609632750001, "lon": -118.24011705292, "heat_layer": 1.9144, "index_right": 1425, "socioeconomic_layer": 4.2907955447235571, "heat_socio_layer": 6.2051955447235567, "heat_socio_public_layer": 0.82490271019531258 }, "geometry": { "type": "Point", "coordinates": [ -13162429.621668117120862, 4036540.217917898669839 ] } },
{ "type": "Feature", "properties": { "OBJECTID": 1628, "stop_id": 20217, "route_count": 3, "route_stop": "MT004, MT055, MT060", "lat": 34.060611030920001, "lon": -118.24386640317999, "heat_layer": 2.6026, "index_right": 1423, "socioeconomic_layer": 3.6099212279158577, "heat_socio_layer": 6.2125212279158575, "heat_socio_public_layer": 0.86869681370938734 }, "geometry": { "type": "Point", "coordinates": [ -13162846.997429866343737, 4036943.513217226136476 ] } },
{ "type": "Feature", "properties": { "OBJECTID": 1159, "stop_id": 19033, "route_count": 3, "route_stop": "DAPIC, MT014, MT002", "lat": 34.066679737180003, "lon": -118.27030888737001, "heat_layer": 2.0244, "index_right": 1464, "socioeconomic_layer": 3.7952664553950282, "heat_socio_layer": 5.8196664553950281, "heat_socio_public_layer": 0.82091963199147333 }, "geometry": { "type": "Point", "coordinates": [ -13165790.561305208131671, 4037759.003713150043041 ] } },
{ "type": "Feature", "properties": { "OBJECTID": 1160, "stop_id": 19200, "route_count": 2, "route_stop": "DAPIC, MT014", "lat": 34.064612534508001, "lon": -118.26571933676, "heat_layer": 3.5222, "index_right": 1453, "socioeconomic_layer": 3.3851919913826283, "heat_socio_layer": 6.907391991382628, "heat_socio_public_layer": 0.9179586584357976 }, "geometry": { "type": "Point", "coordinates": [ -13165279.654868330806494, 4037481.214039018377662 ] } }
]
}
