{
"type": "FeatureCollection",
"name": "optimized_shades_MILP_LAC_10",
"crs": { "type": "name", "properties": { "name": "urn:ogc:def:crs:EPSG::3857" } },
"features": [
{ "type": "Feature", "properties": { "id": "862", "STOPNUM": 1494, "STOPNAME": "Hyde Park / Marlborough", "LAT": 33.976495, "LONG": -118.346414, "LINE_DIR1": "110-E", "LINE_DIR2": null, "LINE_DIR3": 0, "LINE_DIR4": 0, "LINE_DIR5": 0, "LINE_DIR6": 0, "LINE_DIR7": 0, "LINE_DIR8": 0, "LINE_DIR9": 0, "LINE_DIR10": 0, "LINE_DIR11": 0, "LINE_DIR12": 0, "LINE_DIR13": 0, "LINE_DIR14": 0, "layer_id": "bus_stops", "feature_name": "Bus Stop", "heat_layer": 1.4354, "index_right": 5506, "socioeconomic_layer": 3.7860659030652521, "heat_socio_layer": 5.2214659030652522 }, "geometry": { "type": "Point", "coordinates": [ -13174262.54368994012475, 4025646.31541288131848 ] } },
{ "type": "Feature", "properties": { "id": "876", "STOPNUM": 1520, "STOPNAME": "La Brea / Market", "LAT": 33.957338, "LONG": -118.352418, "LINE_DIR1": "40-N", "LINE_DIR2": "111-E", "LINE_DIR3": 0, "LINE_DIR4": 0, "LINE_DIR5": 0, "LINE_DIR6": 0, "LINE_DIR7": 0, "LINE_DIR8": 0, "LINE_DIR9": 0, "LINE_DIR10": 0, "LINE_DIR11": 0, "LINE_DIR12": 0, "LINE_DIR13": 0, "LINE_DIR14": 0, "layer_id": "bus_stops", "feature_name": "Bus Stop", "heat_layer": 2.594, "index_right": 5516, "socioeconomic_layer": 4.1973871381090593, "heat_socio_layer": 6.7913871381090587 }, "geometry": { "type": "Point", "coordinates": [ -13174930.905912665650249, 4023074.999364355579019 ] } },
{ "type": "Feature", "properties": { "id": "4697", "STOPNUM": 7563, "STOPNAME": "Century / La Cienega", "LAT": 33.945292, "LONG": -118.36972, "LINE_DIR1": "117-E", "LINE_DIR2": null, "LINE_DIR3": 0, "LINE_DIR4": 0, "LINE_DIR5": 0, "LINE_DIR6": 0, "LINE_DIR7": 0, "LINE_DIR8": 0, "LINE_DIR9": 0, "LINE_DIR10": 0, "LINE_DIR11": 0, "LINE_DIR12": 0, "LINE_DIR13": 0, "LINE_DIR14": 0, "layer_id": "bus_stops", "feature_name": "Bus Stop", "heat_layer": 1.8296, "index_right": 5549, "socioeconomic_layer": 4.1307137070309619, "heat_socio_layer": 5.960313707030962 }, "geometry": { "type": "Point", "coordinates": [ -13176856.955742370337248, 4021458.44179732631892 ] } },
{ "type": "Feature", "properties": { "id": "5956", "STOPNUM": 9805, "STOPNAME": "Arbor Vitae / Grevillea", "LAT": 33.952807, "LONG": -118.355288, "LINE_DIR1": "111-W", "LINE_DIR2": null, "LINE_DIR3": 0, "LINE_DIR4": 0, "LINE_DIR5": 0, "LINE_DIR6": 0, "LINE_DIR7": 0, "LINE_DIR8": 0, "LINE_DIR9": 0, "LINE_DIR10": 0, "LINE_DIR11": 0, "LINE_DIR12": 0, "LINE_DIR13": 0, "LINE_DIR14": 0, "layer_id": "bus_stops", "feature_name": "Bus Stop", "heat_layer": 6.2296, "index_right": 5530, "socioeconomic_layer": 3.6295974640226141, "heat_socio_layer": 9.8591974640226141 }, "geometry": { "type": "Point", "coordinates": [ -13175250.392851242795587, 4022466.91819603042677 ] } },
{ "type": "Feature", "properties": { "id": "6029", "STOPNUM": 9939, "STOPNAME": "Florence / Centinela", "LAT": 33.96969, "LONG": -118.347672, "LINE_DIR1": "40-S", "LINE_DIR2": "111-W", "LINE_DIR3": 0, "LINE_DIR4": 0, "LINE_DIR5": 0, "LINE_DIR6": 0, "LINE_DIR7": 0, "LINE_DIR8": 0, "LINE_DIR9": 0, "LINE_DIR10": 0, "LINE_DIR11": 0, "LINE_DIR12": 0, "LINE_DIR13": 0, "LINE_DIR14": 0, "layer_id": "bus_stops", "feature_name": "Bus Stop", "heat_layer": 0.568, "index_right": 5515, "socioeconomic_layer": 3.1041650197974633, "heat_socio_layer": 3.6721650197974633 }, "geometry": { "type": "Point", "coordinates": [ -13174402.58360935933888, 4024732.859423676505685 ] } },
{ "type": "Feature", "properties": { "id": "6108", "STOPNUM": 10102, "STOPNAME": "Manchester / Grevillea", "LAT": 33.96188, "LONG": -118.355366, "LINE_DIR1": "211-N", "LINE_DIR2": "115-W", "LINE_DIR3": 0, "LINE_DIR4": 0, "LINE_DIR5": 0, "LINE_DIR6": 0, "LINE_DIR7": 0, "LINE_DIR8": 0, "LINE_DIR9": 0, "LINE_DIR10": 0, "LINE_DIR11": 0, "LINE_DIR12": 0, "LINE_DIR13": 0, "LINE_DIR14": 0, "layer_id": "bus_stops", "feature_name": "Bus Stop", "heat_layer": 1.0606, "index_right": 5526, "socioeconomic_layer": 3.5260084255488744, "heat_socio_layer": 4.5866084255488744 }, "geometry": { "type": "Point", "coordinates": [ -13175259.075771525502205, 4023684.589285897091031 ] } },
{ "type": "Feature", "properties": { "id": "8182", "STOPNUM": 13987, "STOPNAME": "Van Ness / Cullivan", "LAT": 33.935545, "LONG": -118.317886, "LINE_DIR1": "209-S", "LINE_DIR2": null, "LINE_DIR3": 0, "LINE_DIR4": 0, "LINE_DIR5": 0, "LINE_DIR6": 0, "LINE_DIR7": 0, "LINE_DIR8": 0, "LINE_DIR9": 0, "LINE_DIR10": 0, "LINE_DIR11": 0, "LINE_DIR12": 0, "LINE_DIR13": 0, "LINE_DIR14": 0, "layer_id": "bus_stops", "feature_name": "Bus Stop", "heat_layer": 2.7008, "index_right": 5488, "socioeconomic_layer": 3.5590496682831607, "heat_socio_layer": 6.2598496682831613 }, "geometry": { "type": "Point", "coordinates": [ -13171086.821256592869759, 4020150.574487787205726 ] } },
{ "type": "Feature", "properties": { "id": "9520", "STOPNUM": 16118, "STOPNAME": "Manchester / Eucalyptus", "LAT": 33.961823, "LONG": -118.359864, "LINE_DIR1": "115-W", "LINE_DIR2": null, "LINE_DIR3": 0, "LINE_DIR4": 0, "LINE_DIR5": 0, "LINE_DIR6": 0, "LINE_DIR7": 0, "LINE_DIR8": 0, "LINE_DIR9": 0, "LINE_DIR10": 0, "LINE_DIR11": 0, "LINE_DIR12": 0, "LINE_DIR13": 0, "LINE_DIR14": 0, "layer_id": "bus_stops", "feature_name": "Bus Stop", "heat_layer": 3.3404, "index_right": 5527, "socioeconomic_layer": 3.7653596543338672, "heat_socio_layer": 7.105759654333867 }, "geometry": { "type": "Point", "coordinates": [ -13175759.790841113775969, 4023676.93901256704703 ] } },
{ "type": "Feature", "properties": { "id": "11370", "STOPNUM": 140974, "STOPNAME": "La Brea / Plymouth", "LAT": 33.974401, "LONG": -118.357487, "LINE_DIR1": "212-N", "LINE_DIR2": null, "LINE_DIR3": 0, "LINE_DIR4": 0, "LINE_DIR5": 0, "LINE_DIR6": 0, "LINE_DIR7": 0, "LINE_DIR8": 0, "LINE_DIR9": 0, "LINE_DIR10": 0, "LINE_DIR11": 0, "LINE_DIR12": 0, "LINE_DIR13": 0, "LINE_DIR14": 0, "layer_id": "bus_stops", "feature_name": "Bus Stop", "heat_layer": 4.281, "index_right": 5509, "socioeconomic_layer": 3.9128556664994685, "heat_socio_layer": 8.1938556664994682 }, "geometry": { "type": "Point", "coordinates": [ -13175495.184411495923996, 4025365.22359364759177 ] } },
{ "type": "Feature", "properties": { "id": "11414", "STOPNUM": 141076, "STOPNAME": "Eucalyptus / Spruce", "LAT": 33.955111, "LONG": -118.35936, "LINE_DIR1": "211-S", "LINE_DIR2": null, "LINE_DIR3": 0, "LINE_DIR4": 0, "LINE_DIR5": 0, "LINE_DIR6": 0, "LINE_DIR7": 0, "LINE_DIR8": 0, "LINE_DIR9": 0, "LINE_DIR10": 0, "LINE_DIR11": 0, "LINE_DIR12": 0, "LINE_DIR13": 0, "LINE_DIR14": 0, "layer_id": "bus_stops", "feature_name": "Bus Stop", "heat_layer": 4.3842, "index_right": 5529, "socioeconomic_layer": 3.6964521629114233, "heat_socio_layer": 8.0806521629114236 }, "geometry": { "type": "Point", "coordinates": [ -13175703.685817752033472, 4022776.121611945796758 ] } }
]
}
