{
"type": "FeatureCollection",
"name": "optimized_shades_MILP_DTLA_50_200",
"crs": { "type": "name", "properties": { "name": "urn:ogc:def:crs:EPSG::3857" } },
"features": [
{ "type": "Feature", "properties": { "OBJECTID": 1016, "stop_id": 19304, "route_count": 5, "route_stop": "MT078, MT014, MT076, MT030, MT070", "lat": 34.038881904618997, "lon": -118.26429752009, "heat_layer": 5.397, "index_right": 1808, "socioeconomic_layer": 3.5578625043066285, "heat_socio_layer": 8.9548625043066288, "heat_socio_public_layer": 0.86650831885244894 }, "geometry": { "type": "Point", "coordinates": [ -13165121.378960624337196, 4034024.111607572529465 ] } },
{ "type": "Feature", "properties": { "OBJECTID": 1018, "stop_id": 19173, "route_count": 5, "route_stop": "MT078, MT014, MT076, MT033, MT070", "lat": 34.035742133122, "lon": -118.26632739967, "heat_layer": 5.397, "index_right": 1808, "socioeconomic_layer": 3.5578625043066285, "heat_socio_layer": 8.9548625043066288, "heat_socio_public_layer": 1.0304579870889674 }, "geometry": { "type": "Point", "coordinates": [ -13165347.344121843576431, 4033602.33164987899363 ] } },
{ "type": "Feature", "properties": { "OBJECTID": 1039, "stop_id": 18997, "route_count": 2, "route_stop": "MT040, MT045", "lat": 34.022265491713, "lon": -118.27176599806, "heat_layer": 6.995, "index_right": 1823, "socioeconomic_layer": 4.0012046941292949, "heat_socio_layer": 10.996204694129295, "heat_socio_public_layer": 1.1450094103895756 }, "geometry": { "type": "Point", "coordinates": [ -13165952.766125245019794, 4031792.129649397451431 ] } },
{ "type": "Feature", "properties": { "OBJECTID": 1040, "stop_id": 19059, "route_count": 2, "route_stop": "MT040, MT045", "lat": 34.025342107740002, "lon": -118.26975624693, "heat_layer": 6.5238, "index_right": 1811, "socioeconomic_layer": 4.1759712630451817, "heat_socio_layer": 10.699771263045182, "heat_socio_public_layer": 0.9358447370435139 }, "geometry": { "type": "Point", "coordinates": [ -13165729.041652832180262, 4032205.359847676474601 ] } },
{ "type": "Feature", "properties": { "OBJECTID": 1041, "stop_id": 19133, "route_count": 2, "route_stop": "MT040, MT045", "lat": 34.029412087349002, "lon": -118.26710594991, "heat_layer": 6.5238, "index_right": 1811, "socioeconomic_layer": 4.1759712630451817, "heat_socio_layer": 10.699771263045182, "heat_socio_public_layer": 0.9358447370435139 }, "geometry": { "type": "Point", "coordinates": [ -13165434.011938117444515, 4032752.034923374187201 ] } },
{ "type": "Feature", "properties": { "OBJECTID": 1052, "stop_id": 20535, "route_count": 4, "route_stop": "MT040, MT076, MT106, DA  B", "lat": 34.056469067523999, "lon": -118.23743959973, "heat_layer": 1.9144, "index_right": 1425, "socioeconomic_layer": 4.2907955447235571, "heat_socio_layer": 6.2051955447235567, "heat_socio_public_layer": 0.81205529802645116 }, "geometry": { "type": "Point", "coordinates": [ -13162131.568942382931709, 4036386.964890785049647 ] } },
{ "type": "Feature", "properties": { "OBJECTID": 1110, "stop_id": 18793, "route_count": 2, "route_stop": "MT081, DA  F", "lat": 34.025048598205998, "lon": -118.27800915077999, "heat_layer": 0.8752, "index_right": 1825, "socioeconomic_layer": 3.700850923195929, "heat_socio_layer": 4.576050923195929, "heat_socio_public_layer": 0.58826425089330991 }, "geometry": { "type": "Point", "coordinates": [ -13166647.750706981867552, 4032165.936991329304874 ] } },
{ "type": "Feature", "properties": { "OBJECTID": 1112, "stop_id": 18907, "route_count": 4, "route_stop": "MT081, MT603, MT910, DA  F", "lat": 34.030750490658001, "lon": -118.27437119947, "heat_layer": -1.5528, "index_right": 1821, "socioeconomic_layer": 4.3877959607664865, "heat_socio_layer": 2.8349959607664865, "heat_socio_public_layer": 0.78725183136562293 }, "geometry": { "type": "Point", "coordinates": [ -13166242.775819620117545, 4032931.813477199990302 ] } },
{ "type": "Feature", "properties": { "OBJECTID": 1113, "stop_id": 18993, "route_count": 5, "route_stop": "MT081, DAPIC, MT035, MT910, DA  F", "lat": 34.034363680243999, "lon": -118.27205283137, "heat_layer": 2.8998, "index_right": 1810, "socioeconomic_layer": 3.7749837642375321, "heat_socio_layer": 6.6747837642375316, "heat_socio_public_layer": 0.71284582017768172 }, "geometry": { "type": "Point", "coordinates": [ -13165984.696263259276748, 4033417.162661110982299 ] } },
{ "type": "Feature", "properties": { "OBJECTID": 1125, "stop_id": 20468, "route_count": 4, "route_stop": "MT081, MT090, MT094, DA  B", "lat": 34.064440876143998, "lon": -118.23870369244, "heat_layer": 3.9106, "index_right": 1427, "socioeconomic_layer": 4.2601086467671427, "heat_socio_layer": 8.1707086467671424, "heat_socio_public_layer": 0.94660419450638544 }, "geometry": { "type": "Point", "coordinates": [ -13162272.287099175155163, 4037458.146977577358484 ] } },
{ "type": "Feature", "properties": { "OBJECTID": 1138, "stop_id": 19103, "route_count": 5, "route_stop": "DAPIC, MT603, MT035, DA  D, MT055", "lat": 34.032632605640998, "lon": -118.26833412038999, "heat_layer": 2.8998, "index_right": 1810, "socioeconomic_layer": 3.7749837642375321, "heat_socio_layer": 6.6747837642375316, "heat_socio_public_layer": 1.0599924015405282 }, "geometry": { "type": "Point", "coordinates": [ -13165570.731250556185842, 4033184.629896038211882 ] } },
{ "type": "Feature", "properties": { "OBJECTID": 1140, "stop_id": 18861, "route_count": 2, "route_stop": "DAPIC, MT035", "lat": 34.036105450876001, "lon": -118.27585094758, "heat_layer": 1.58, "index_right": 1820, "socioeconomic_layer": 4.6002973851431905, "heat_socio_layer": 6.1802973851431906, "heat_socio_public_layer": 0.63163335591732717 }, "geometry": { "type": "Point", "coordinates": [ -13166407.500625729560852, 4033651.136997409164906 ] } },
{ "type": "Feature", "properties": { "OBJECTID": 1143, "stop_id": 18734, "route_count": 2, "route_stop": "DAPIC, MT033", "lat": 34.041544164891, "lon": -118.27913673907, "heat_layer": 2.4842, "index_right": 1813, "socioeconomic_layer": 3.7824015688104566, "heat_socio_layer": 6.2666015688104562, "heat_socio_public_layer": 0.68727232408236172 }, "geometry": { "type": "Point", "coordinates": [ -13166773.273261249065399, 4034381.757516295649111 ] } },
{ "type": "Feature", "properties": { "OBJECTID": 1144, "stop_id": 18815, "route_count": 2, "route_stop": "DAPIC, MT030", "lat": 34.044635145834, "lon": -118.27690897756, "heat_layer": 5.174, "index_right": 1816, "socioeconomic_layer": 4.3236445329102189, "heat_socio_layer": 9.4976445329102184, "heat_socio_public_layer": 1.3740141712416634 }, "geometry": { "type": "Point", "coordinates": [ -13166525.279984347522259, 4034797.011500256601721 ] } },
{ "type": "Feature", "properties": { "OBJECTID": 1145, "stop_id": 18925, "route_count": 2, "route_stop": "DAPIC, MT028", "lat": 34.049213795207002, "lon": -118.27419075956, "heat_layer": 2.8174, "index_right": 1502, "socioeconomic_layer": 4.3621861962603683, "heat_socio_layer": 7.1795861962603684, "heat_socio_public_layer": 1.2122868403761216 }, "geometry": { "type": "Point", "coordinates": [ -13166222.689340719953179, 4035412.152263194322586 ] } },
{ "type": "Feature", "properties": { "OBJECTID": 1146, "stop_id": 18991, "route_count": 2, "route_stop": "DAPIC, MT066", "lat": 34.052315186561003, "lon": -118.27218053071999, "heat_layer": 4.5312, "index_right": 1499, "socioeconomic_layer": 4.4017347385864394, "heat_socio_layer": 8.9329347385864395, "heat_socio_public_layer": 0.97974864925417593 }, "geometry": { "type": "Point", "coordinates": [ -13165998.911689873784781, 4035828.842534158378839 ] } },
{ "type": "Feature", "properties": { "OBJECTID": 1148, "stop_id": 18987, "route_count": 2, "route_stop": "DAPIC, MT018", "lat": 34.058477933428001, "lon": -118.27249771919, "heat_layer": 3.797, "index_right": 1478, "socioeconomic_layer": 4.5109568252363301, "heat_socio_layer": 8.3079568252363298, "heat_socio_public_layer": 0.76805405092051426 }, "geometry": { "type": "Point", "coordinates": [ -13166034.220948839560151, 4036656.889267528429627 ] } },
{ "type": "Feature", "properties": { "OBJECTID": 1150, "stop_id": 19129, "route_count": 2, "route_stop": "DAPIC, MT018", "lat": 34.056222574027998, "lon": -118.26729389211999, "heat_layer": 2.823, "index_right": 1487, "socioeconomic_layer": 4.7619211667069266, "heat_socio_layer": 7.584921166706927, "heat_socio_public_layer": 0.7081200153169489 }, "geometry": { "type": "Point", "coordinates": [ -13165454.933569232001901, 4036353.844851277302951 ] } },
{ "type": "Feature", "properties": { "OBJECTID": 1153, "stop_id": 19406, "route_count": 2, "route_stop": "DAPIC, MT016", "lat": 34.058301360493999, "lon": -118.26163510700999, "heat_layer": 0.6536, "index_right": 1485, "socioeconomic_layer": 4.181205680169124, "heat_socio_layer": 4.8348056801691239, "heat_socio_public_layer": 1.4474127238994661 }, "geometry": { "type": "Point", "coordinates": [ -13164825.000492276623845, 4036633.163515490014106 ] } },
{ "type": "Feature", "properties": { "OBJECTID": 1155, "stop_id": 19221, "route_count": 2, "route_stop": "DAPIC, MT016", "lat": 34.059889341990001, "lon": -118.26554255668, "heat_layer": 2.9368, "index_right": 1452, "socioeconomic_layer": 4.2227950844664406, "heat_socio_layer": 7.1595950844664404, "heat_socio_public_layer": 0.88194956690489412 }, "geometry": { "type": "Point", "coordinates": [ -13165259.975799841806293, 4036846.539190154522657 ] } },
{ "type": "Feature", "properties": { "OBJECTID": 1156, "stop_id": 19034, "route_count": 2, "route_stop": "DAPIC, MT016", "lat": 34.061868472157002, "lon": -118.27019759282, "heat_layer": 6.719, "index_right": 1483, "socioeconomic_layer": 4.4870798736572794, "heat_socio_layer": 11.206079873657281, "heat_socio_public_layer": 0.94785615773121001 }, "geometry": { "type": "Point", "coordinates": [ -13165778.172052573412657, 4037112.478763583116233 ] } },
{ "type": "Feature", "properties": { "OBJECTID": 1158, "stop_id": 19004, "route_count": 2, "route_stop": "DAPIC, MT002", "lat": 34.064811283255999, "lon": -118.27149149362999, "heat_layer": 2.4106, "index_right": 1457, "socioeconomic_layer": 4.1232843841669702, "heat_socio_layer": 6.5338843841669707, "heat_socio_public_layer": 0.68274342775749275 }, "geometry": { "type": "Point", "coordinates": [ -13165922.208431877195835, 4037507.92150316061452 ] } },
{ "type": "Feature", "properties": { "OBJECTID": 1160, "stop_id": 19200, "route_count": 2, "route_stop": "DAPIC, MT014", "lat": 34.064612534508001, "lon": -118.26571933676, "heat_layer": 3.5222, "index_right": 1453, "socioeconomic_layer": 3.3851919913826283, "heat_socio_layer": 6.907391991382628, "heat_socio_public_layer": 0.9179586584357976 }, "geometry": { "type": "Point", "coordinates": [ -13165279.654868330806494, 4037481.214039018377662 ] } },
{ "type": "Feature", "properties": { "OBJECTID": 1164, "stop_id": 19764, "route_count": 2, "route_stop": "DAPIC, MT010", "lat": 34.066675342202998, "lon": -118.25462833471001, "heat_layer": -0.7708, "index_right": 1451, "socioeconomic_layer": 3.8650799580144048, "heat_socio_layer": 3.0942799580144049, "heat_socio_public_layer": 0.65634564859588929 }, "geometry": { "type": "Point", "coordinates": [ -13164045.010167738422751, 4037758.413111120928079 ] } },
{ "type": "Feature", "properties": { "OBJECTID": 1169, "stop_id": 19022, "route_count": 4, "route_stop": "MT603, MT014, DA  D, MT055", "lat": 34.029184558042999, "lon": -118.27056402459, "heat_layer": 2.8998, "index_right": 1810, "socioeconomic_layer": 3.7749837642375321, "heat_socio_layer": 6.6747837642375316, "heat_socio_public_layer": 0.89155796411414823 }, "geometry": { "type": "Point", "coordinates": [ -13165818.963050618767738, 4032721.472751379944384 ] } },
{ "type": "Feature", "properties": { "OBJECTID": 1177, "stop_id": 18818, "route_count": 2, "route_stop": "MT603, MT002", "lat": 34.056459430087003, "lon": -118.27681275448001, "heat_layer": 3.0338, "index_right": 1481, "socioeconomic_layer": 4.3185886164257381, "heat_socio_layer": 7.3523886164257384, "heat_socio_public_layer": 0.72109136511698124 }, "geometry": { "type": "Point", "coordinates": [ -13166514.56848007813096, 4036385.669957063626498 ] } },
{ "type": "Feature", "properties": { "OBJECTID": 1181, "stop_id": 18785, "route_count": 2, "route_stop": "MT603, MT018", "lat": 34.061154351539003, "lon": -118.27852203315, "heat_layer": -0.9882, "index_right": 1474, "socioeconomic_layer": 3.8429294959525881, "heat_socio_layer": 2.8547294959525882, "heat_socio_public_layer": 0.64374891455913363 }, "geometry": { "type": "Point", "coordinates": [ -13166704.844511248171329, 4037016.520269768312573 ] } },
{ "type": "Feature", "properties": { "OBJECTID": 1183, "stop_id": 18742, "route_count": 2, "route_stop": "MT603, MT016", "lat": 34.066250828428998, "lon": -118.27887579030001, "heat_layer": 4.6246, "index_right": 1469, "socioeconomic_layer": 3.3595049139848268, "heat_socio_layer": 7.9841049139848268, "heat_socio_public_layer": 0.81897952100830751 }, "geometry": { "type": "Point", "coordinates": [ -13166744.224577048793435, 4037701.366609828080982 ] } },
{ "type": "Feature", "properties": { "OBJECTID": 1259, "stop_id": 19921, "route_count": 2, "route_stop": "MT802, MT805", "lat": 34.049612659192, "lon": -118.25126201626, "heat_layer": -4.0374, "index_right": 1440, "socioeconomic_layer": 4.6396840073877597, "heat_socio_layer": 0.60228400738775978, "heat_socio_public_layer": 0.28597272799179585 }, "geometry": { "type": "Point", "coordinates": [ -13163670.273312037810683, 4035465.741144480649382 ] } },
{ "type": "Feature", "properties": { "OBJECTID": 1484, "stop_id": 20215, "route_count": 3, "route_stop": "MT720, MT053, MT018", "lat": 34.044203443980003, "lon": -118.24391431181, "heat_layer": 2.009, "index_right": 1420, "socioeconomic_layer": 4.2056171163205356, "heat_socio_layer": 6.2146171163205359, "heat_socio_public_layer": 1.6580314046237152 }, "geometry": { "type": "Point", "coordinates": [ -13162852.330594163388014, 4034739.014143196865916 ] } },
{ "type": "Feature", "properties": { "OBJECTID": 1552, "stop_id": 20453, "route_count": 3, "route_stop": "MT076, MT030, DA  A", "lat": 34.049214091567997, "lon": -118.23914552319999, "heat_layer": 3.886, "index_right": 1418, "socioeconomic_layer": 4.0514704839207818, "heat_socio_layer": 7.9374704839207819, "heat_socio_public_layer": 0.77353056957422806 }, "geometry": { "type": "Point", "coordinates": [ -13162321.471474396064878, 4035412.192080318927765 ] } },
{ "type": "Feature", "properties": { "OBJECTID": 1628, "stop_id": 20217, "route_count": 3, "route_stop": "MT004, MT055, MT060", "lat": 34.060611030920001, "lon": -118.24386640317999, "heat_layer": 2.6026, "index_right": 1423, "socioeconomic_layer": 3.6099212279158577, "heat_socio_layer": 6.2125212279158575, "heat_socio_public_layer": 0.86869681370938734 }, "geometry": { "type": "Point", "coordinates": [ -13162846.997429866343737, 4036943.513217226136476 ] } },
{ "type": "Feature", "properties": { "OBJECTID": 1635, "stop_id": 20286, "route_count": 3, "route_stop": "MT004, MT028, MT045", "lat": 34.057143741706, "lon": -118.24224517240999, "heat_layer": 1.9144, "index_right": 1425, "socioeconomic_layer": 4.2907955447235571, "heat_socio_layer": 6.2051955447235567, "heat_socio_public_layer": 0.65221029791510154 }, "geometry": { "type": "Point", "coordinates": [ -13162666.522846091538668, 4036477.617818118538707 ] } },
{ "type": "Feature", "properties": { "OBJECTID": 1662, "stop_id": 18884, "route_count": 2, "route_stop": "MT910, MT950", "lat": 34.027679815296999, "lon": -118.27494859017, "heat_layer": -1.5528, "index_right": 1821, "socioeconomic_layer": 4.3877959607664865, "heat_socio_layer": 2.8349959607664865, "heat_socio_public_layer": 0.43885989930659897 }, "geometry": { "type": "Point", "coordinates": [ -13166307.050658334046602, 4032519.354887989815325 ] } },
{ "type": "Feature", "properties": { "OBJECTID": 1695, "stop_id": 18723, "route_count": 2, "route_stop": "MT002, MT028", "lat": 34.051726106794, "lon": -118.27984747001, "heat_layer": 5.0372, "index_right": 1500, "socioeconomic_layer": 4.5491144189991699, "heat_socio_layer": 9.5863144189991694, "heat_socio_public_layer": 0.84436841535125506 }, "geometry": { "type": "Point", "coordinates": [ -13166852.391467580571771, 4035749.695010797586292 ] } },
{ "type": "Feature", "properties": { "OBJECTID": 1708, "stop_id": 19381, "route_count": 2, "route_stop": "MT010, MT055", "lat": 34.033601474980003, "lon": -118.26259755945, "heat_layer": 5.397, "index_right": 1808, "socioeconomic_layer": 3.5578625043066285, "heat_socio_layer": 8.9548625043066288, "heat_socio_public_layer": 1.0254666877356389 }, "geometry": { "type": "Point", "coordinates": [ -13164932.140207812190056, 4033314.776138116139919 ] } },
{ "type": "Feature", "properties": { "OBJECTID": 1709, "stop_id": 19446, "route_count": 3, "route_stop": "MT010, MT033, MT055", "lat": 34.036351445328997, "lon": -118.26035513578, "heat_layer": 5.397, "index_right": 1808, "socioeconomic_layer": 3.5578625043066285, "heat_socio_layer": 8.9548625043066288, "heat_socio_public_layer": 1.0211832961705269 }, "geometry": { "type": "Point", "coordinates": [ -13164682.514746723696589, 4033684.182142477016896 ] } },
{ "type": "Feature", "properties": { "OBJECTID": 1719, "stop_id": 20102, "route_count": 3, "route_stop": "MT016, MT053, MT018", "lat": 34.046042559546002, "lon": -118.24757393045, "heat_layer": 3.047, "index_right": 1419, "socioeconomic_layer": 4.2611475813781556, "heat_socio_layer": 7.3081475813781562, "heat_socio_public_layer": 0.87448719452121415 }, "geometry": { "type": "Point", "coordinates": [ -13163259.717477664351463, 4034986.093756841029972 ] } },
{ "type": "Feature", "properties": { "OBJECTID": 1724, "stop_id": 19950, "route_count": 2, "route_stop": "MT066, MT051", "lat": 34.037276685477998, "lon": -118.250333787, "heat_layer": 7.4758, "index_right": 1827, "socioeconomic_layer": 2.8409808997107788, "heat_socio_layer": 10.316780899710778, "heat_socio_public_layer": 0.99442502646301512 }, "geometry": { "type": "Point", "coordinates": [ -13163566.943303473293781, 4033808.473180959001184 ] } },
{ "type": "Feature", "properties": { "OBJECTID": 1725, "stop_id": 20212, "route_count": 2, "route_stop": "MT066, MT053", "lat": 34.032029917416999, "lon": -118.24416267286, "heat_layer": 7.5664, "index_right": 1828, "socioeconomic_layer": 3.8850682986319809, "heat_socio_layer": 11.45146829863198, "heat_socio_public_layer": 0.99999999938466078 }, "geometry": { "type": "Point", "coordinates": [ -13162879.978019781410694, 4033103.672766049392521 ] } },
{ "type": "Feature", "properties": { "OBJECTID": 1740, "stop_id": 20227, "route_count": 2, "route_stop": "MT018, MT053", "lat": 34.041252817627999, "lon": -118.24362843895, "heat_layer": 7.2614, "index_right": 1422, "socioeconomic_layer": 4.5922241777298698, "heat_socio_layer": 11.85362417772987, "heat_socio_public_layer": 1.4540101895923998 }, "geometry": { "type": "Point", "coordinates": [ -13162820.50737295486033, 4034342.617611710913479 ] } },
{ "type": "Feature", "properties": { "OBJECTID": 1763, "stop_id": 20359, "route_count": 2, "route_stop": "MT053, MT018", "lat": 34.041724809575001, "lon": -118.23983050619999, "heat_layer": 3.886, "index_right": 1418, "socioeconomic_layer": 4.0514704839207818, "heat_socio_layer": 7.9374704839207819, "heat_socio_public_layer": 0.92420548853035767 }, "geometry": { "type": "Point", "coordinates": [ -13162397.723433157429099, 4034406.025584911927581 ] } },
{ "type": "Feature", "properties": { "OBJECTID": 1773, "stop_id": 20476, "route_count": 2, "route_stop": "MT018, MT720", "lat": 34.038163599628, "lon": -118.23843399127, "heat_layer": 7.2614, "index_right": 1422, "socioeconomic_layer": 4.5922241777298698, "heat_socio_layer": 11.85362417772987, "heat_socio_public_layer": 0.98123215456013579 }, "geometry": { "type": "Point", "coordinates": [ -13162242.264102265238762, 4033927.617014450952411 ] } },
{ "type": "Feature", "properties": { "OBJECTID": 1810, "stop_id": 18965, "route_count": 2, "route_stop": "MT051, DA  E", "lat": 34.054928241178999, "lon": -118.27346997431, "heat_layer": 4.5814, "index_right": 1498, "socioeconomic_layer": 4.205270453721929, "heat_socio_layer": 8.7866704537219285, "heat_socio_public_layer": 1.4933007410845001 }, "geometry": { "type": "Point", "coordinates": [ -13166142.451893720775843, 4036179.933708895463496 ] } },
{ "type": "Feature", "properties": { "OBJECTID": 1812, "stop_id": 19116, "route_count": 3, "route_stop": "MT051, DA  E, DA  A", "lat": 34.052330674182002, "lon": -118.26771062678, "heat_layer": 4.6404, "index_right": 1491, "socioeconomic_layer": 3.868397258440555, "heat_socio_layer": 8.5087972584405556, "heat_socio_public_layer": 0.81995175690413524 }, "geometry": { "type": "Point", "coordinates": [ -13165501.32425937987864, 4035830.923425888177007 ] } },
{ "type": "Feature", "properties": { "OBJECTID": 1817, "stop_id": 19993, "route_count": 2, "route_stop": "MT051, MT060", "lat": 34.042442091550001, "lon": -118.24928304847001, "heat_layer": 7.4758, "index_right": 1827, "socioeconomic_layer": 2.8409808997107788, "heat_socio_layer": 10.316780899710778, "heat_socio_public_layer": 0.99442502646301512 }, "geometry": { "type": "Point", "coordinates": [ -13163449.975625358521938, 4034502.386794934049249 ] } },
{ "type": "Feature", "properties": { "OBJECTID": 1819, "stop_id": 19798, "route_count": 2, "route_stop": "MT051, DA  E", "lat": 34.032767989219998, "lon": -118.25402018547, "heat_layer": 7.4758, "index_right": 1827, "socioeconomic_layer": 2.8409808997107788, "heat_socio_layer": 10.316780899710778, "heat_socio_public_layer": 1.3279081631703851 }, "geometry": { "type": "Point", "coordinates": [ -13163977.31130401417613, 4033202.815606727730483 ] } },
{ "type": "Feature", "properties": { "OBJECTID": 1820, "stop_id": 19572, "route_count": 2, "route_stop": "MT051, DA  E", "lat": 34.027627705863999, "lon": -118.25745671823999, "heat_layer": 7.4568, "index_right": 1826, "socioeconomic_layer": 4.4925893809188828, "heat_socio_layer": 11.949389380918884, "heat_socio_public_layer": 1.1571037384396821 }, "geometry": { "type": "Point", "coordinates": [ -13164359.86438206396997, 4032512.355584840290248 ] } },
{ "type": "Feature", "properties": { "OBJECTID": 1822, "stop_id": 19412, "route_count": 2, "route_stop": "MT051, MT055", "lat": 34.021571381373001, "lon": -118.26131238422001, "heat_layer": 6.601, "index_right": 1830, "socioeconomic_layer": 4.0418143881437949, "heat_socio_layer": 10.642814388143794, "heat_socio_public_layer": 0.94059515547122974 }, "geometry": { "type": "Point", "coordinates": [ -13164789.075155628845096, 4031698.90352718019858 ] } },
{ "type": "Feature", "properties": { "OBJECTID": 1967, "stop_id": 20440, "route_count": 2, "route_stop": "MT045, DA  B", "lat": 34.060326092468003, "lon": -118.23932586047, "heat_layer": 1.9144, "index_right": 1425, "socioeconomic_layer": 4.2907955447235571, "heat_socio_layer": 6.2051955447235567, "heat_socio_public_layer": 0.65221029791510154 }, "geometry": { "type": "Point", "coordinates": [ -13162341.546527465805411, 4036905.225668109022081 ] } }
]
}
