{
"type": "FeatureCollection",
"name": "optimized_shades_MILP_Inglewood_20_150",
"crs": { "type": "name", "properties": { "name": "urn:ogc:def:crs:EPSG::3857" } },
"features": [
{ "type": "Feature", "properties": { "id": "371", "STOPNUM": 617, "STOPNAME": "Centinela / Edgewood", "LAT": 33.975842, "LONG": -118.354594, "LINE_DIR1": "110-E", "LINE_DIR2": null, "LINE_DIR3": 0, "LINE_DIR4": 0, "LINE_DIR5": 0, "LINE_DIR6": 0, "LINE_DIR7": 0, "LINE_DIR8": 0, "LINE_DIR9": 0, "LINE_DIR10": 0, "LINE_DIR11": 0, "LINE_DIR12": 0, "LINE_DIR13": 0, "LINE_DIR14": 0, "layer_id": "bus_stops", "feature_name": "Bus Stop", "heat_layer": 4.281, "index_right": 5509, "socioeconomic_layer": 3.9128556664994685, "heat_socio_layer": 8.1938556664994682, "heat_socio_public_layer": 0.87679876528363032 }, "geometry": { "type": "Point", "coordinates": [ -13175173.137124633416533, 4025558.658052122220397 ] } },
{ "type": "Feature", "properties": { "id": "377", "STOPNUM": 624, "STOPNAME": "La Brea / Centinela", "LAT": 33.976061, "LONG": -118.357448, "LINE_DIR1": "212-N", "LINE_DIR2": null, "LINE_DIR3": 0, "LINE_DIR4": 0, "LINE_DIR5": 0, "LINE_DIR6": 0, "LINE_DIR7": 0, "LINE_DIR8": 0, "LINE_DIR9": 0, "LINE_DIR10": 0, "LINE_DIR11": 0, "LINE_DIR12": 0, "LINE_DIR13": 0, "LINE_DIR14": 0, "layer_id": "bus_stops", "feature_name": "Bus Stop", "heat_layer": 4.281, "index_right": 5509, "socioeconomic_layer": 3.9128556664994685, "heat_socio_layer": 8.1938556664994682, "heat_socio_public_layer": 1.3678792647498181 }, "geometry": { "type": "Point", "coordinates": [ -13175490.842951355502009, 4025588.056081234011799 ] } },
{ "type": "Feature", "properties": { "id": "823", "STOPNUM": 1422, "STOPNAME": "Florence / Hillcrest", "LAT": 33.968814, "LONG": -118.348925, "LINE_DIR1": "40-N", "LINE_DIR2": "111-E", "LINE_DIR3": 0, "LINE_DIR4": 0, "LINE_DIR5": 0, "LINE_DIR6": 0, "LINE_DIR7": 0, "LINE_DIR8": 0, "LINE_DIR9": 0, "LINE_DIR10": 0, "LINE_DIR11": 0, "LINE_DIR12": 0, "LINE_DIR13": 0, "LINE_DIR14": 0, "layer_id": "bus_stops", "feature_name": "Bus Stop", "heat_layer": 0.568, "index_right": 5515, "socioeconomic_layer": 3.1041650197974633, "heat_socio_layer": 3.6721650197974633, "heat_socio_public_layer": 1.1677358617847395 }, "geometry": { "type": "Point", "coordinates": [ -13174542.066931322216988, 4024615.276571693364531 ] } },
{ "type": "Feature", "properties": { "id": "876", "STOPNUM": 1520, "STOPNAME": "La Brea / Market", "LAT": 33.957338, "LONG": -118.352418, "LINE_DIR1": "40-N", "LINE_DIR2": "111-E", "LINE_DIR3": 0, "LINE_DIR4": 0, "LINE_DIR5": 0, "LINE_DIR6": 0, "LINE_DIR7": 0, "LINE_DIR8": 0, "LINE_DIR9": 0, "LINE_DIR10": 0, "LINE_DIR11": 0, "LINE_DIR12": 0, "LINE_DIR13": 0, "LINE_DIR14": 0, "layer_id": "bus_stops", "feature_name": "Bus Stop", "heat_layer": 2.594, "index_right": 5516, "socioeconomic_layer": 4.1973871381090593, "heat_socio_layer": 6.7913871381090587, "heat_socio_public_layer": 1.004704221423846 }, "geometry": { "type": "Point", "coordinates": [ -13174930.905912665650249, 4023074.999364355579019 ] } },
{ "type": "Feature", "properties": { "id": "902", "STOPNUM": 1559, "STOPNAME": "Manchester / Hillcrest", "LAT": 33.961673, "LONG": -118.349083, "LINE_DIR1": "115-E", "LINE_DIR2": "212-S", "LINE_DIR3": 0, "LINE_DIR4": 0, "LINE_DIR5": 0, "LINE_DIR6": 0, "LINE_DIR7": 0, "LINE_DIR8": 0, "LINE_DIR9": 0, "LINE_DIR10": 0, "LINE_DIR11": 0, "LINE_DIR12": 0, "LINE_DIR13": 0, "LINE_DIR14": 0, "layer_id": "bus_stops", "feature_name": "Bus Stop", "heat_layer": 2.594, "index_right": 5516, "socioeconomic_layer": 4.1973871381090593, "heat_socio_layer": 6.7913871381090587, "heat_socio_public_layer": 0.77013732532678902 }, "geometry": { "type": "Point", "coordinates": [ -13174559.655410869047046, 4023656.806738825514913 ] } },
{ "type": "Feature", "properties": { "id": "905", "STOPNUM": 1562, "STOPNAME": "Manchester / Market", "LAT": 33.961924, "LONG": -118.351755, "LINE_DIR1": "115-W", "LINE_DIR2": "212-N", "LINE_DIR3": 0, "LINE_DIR4": 0, "LINE_DIR5": 0, "LINE_DIR6": 0, "LINE_DIR7": 0, "LINE_DIR8": 0, "LINE_DIR9": 0, "LINE_DIR10": 0, "LINE_DIR11": 0, "LINE_DIR12": 0, "LINE_DIR13": 0, "LINE_DIR14": 0, "layer_id": "bus_stops", "feature_name": "Bus Stop", "heat_layer": 2.594, "index_right": 5516, "socioeconomic_layer": 4.1973871381090593, "heat_socio_layer": 6.7913871381090587, "heat_socio_public_layer": 1.0268888785273271 }, "geometry": { "type": "Point", "coordinates": [ -13174857.101090271025896, 4023690.494763553142548 ] } },
{ "type": "Feature", "properties": { "id": "2180", "STOPNUM": 3650, "STOPNAME": "La Brea / Hyde Park", "LAT": 33.971585, "LONG": -118.35735, "LINE_DIR1": "212-N", "LINE_DIR2": null, "LINE_DIR3": 0, "LINE_DIR4": 0, "LINE_DIR5": 0, "LINE_DIR6": 0, "LINE_DIR7": 0, "LINE_DIR8": 0, "LINE_DIR9": 0, "LINE_DIR10": 0, "LINE_DIR11": 0, "LINE_DIR12": 0, "LINE_DIR13": 0, "LINE_DIR14": 0, "layer_id": "bus_stops", "feature_name": "Bus Stop", "heat_layer": 4.281, "index_right": 5509, "socioeconomic_layer": 3.9128556664994685, "heat_socio_layer": 8.1938556664994682, "heat_socio_public_layer": 0.87679876528363032 }, "geometry": { "type": "Point", "coordinates": [ -13175479.933641256764531, 4024987.223732779733837 ] } },
{ "type": "Feature", "properties": { "id": "2937", "STOPNUM": 4883, "STOPNAME": "Century / Prairie", "LAT": 33.945596, "LONG": -118.344248, "LINE_DIR1": "117-W", "LINE_DIR2": null, "LINE_DIR3": 0, "LINE_DIR4": 0, "LINE_DIR5": 0, "LINE_DIR6": 0, "LINE_DIR7": 0, "LINE_DIR8": 0, "LINE_DIR9": 0, "LINE_DIR10": 0, "LINE_DIR11": 0, "LINE_DIR12": 0, "LINE_DIR13": 0, "LINE_DIR14": 0, "layer_id": "bus_stops", "feature_name": "Bus Stop", "heat_layer": 5.633, "index_right": 5521, "socioeconomic_layer": 3.9572010707835341, "heat_socio_layer": 9.5902010707835341, "heat_socio_public_layer": 0.96227965847962893 }, "geometry": { "type": "Point", "coordinates": [ -13174021.425672883167863, 4021499.23538856068626 ] } },
{ "type": "Feature", "properties": { "id": "2979", "STOPNUM": 4953, "STOPNAME": "Eucalyptus / Manchester", "LAT": 33.961425, "LONG": -118.359615, "LINE_DIR1": "211-N", "LINE_DIR2": null, "LINE_DIR3": 0, "LINE_DIR4": 0, "LINE_DIR5": 0, "LINE_DIR6": 0, "LINE_DIR7": 0, "LINE_DIR8": 0, "LINE_DIR9": 0, "LINE_DIR10": 0, "LINE_DIR11": 0, "LINE_DIR12": 0, "LINE_DIR13": 0, "LINE_DIR14": 0, "layer_id": "bus_stops", "feature_name": "Bus Stop", "heat_layer": 3.3404, "index_right": 5527, "socioeconomic_layer": 3.7653596543338672, "heat_socio_layer": 7.105759654333867, "heat_socio_public_layer": 1.0889350306087677 }, "geometry": { "type": "Point", "coordinates": [ -13175732.07228790409863, 4023623.521457437891513 ] } },
{ "type": "Feature", "properties": { "id": "3136", "STOPNUM": 5176, "STOPNAME": "La Brea / Hardy", "LAT": 33.948952, "LONG": -118.352489, "LINE_DIR1": "40-N", "LINE_DIR2": null, "LINE_DIR3": 0, "LINE_DIR4": 0, "LINE_DIR5": 0, "LINE_DIR6": 0, "LINE_DIR7": 0, "LINE_DIR8": 0, "LINE_DIR9": 0, "LINE_DIR10": 0, "LINE_DIR11": 0, "LINE_DIR12": 0, "LINE_DIR13": 0, "LINE_DIR14": 0, "layer_id": "bus_stops", "feature_name": "Bus Stop", "heat_layer": 5.5528, "index_right": 5522, "socioeconomic_layer": 3.9292461880244498, "heat_socio_layer": 9.4820461880244498, "heat_socio_public_layer": 0.95720897235957048 }, "geometry": { "type": "Point", "coordinates": [ -13174938.809596512466669, 4021949.584848005790263 ] } },
{ "type": "Feature", "properties": { "id": "3137", "STOPNUM": 5180, "STOPNAME": "La Brea / Queen", "LAT": 33.962763, "LONG": -118.353196, "LINE_DIR1": "212-N", "LINE_DIR2": null, "LINE_DIR3": 0, "LINE_DIR4": 0, "LINE_DIR5": 0, "LINE_DIR6": 0, "LINE_DIR7": 0, "LINE_DIR8": 0, "LINE_DIR9": 0, "LINE_DIR10": 0, "LINE_DIR11": 0, "LINE_DIR12": 0, "LINE_DIR13": 0, "LINE_DIR14": 0, "layer_id": "bus_stops", "feature_name": "Bus Stop", "heat_layer": 2.594, "index_right": 5516, "socioeconomic_layer": 4.1973871381090593, "heat_socio_layer": 6.7913871381090587, "heat_socio_public_layer": 1.0526745658737662 }, "geometry": { "type": "Point", "coordinates": [ -13175017.51247650384903, 4023803.102069647051394 ] } },
{ "type": "Feature", "properties": { "id": "3157", "STOPNUM": 5201, "STOPNAME": "La Brea / Century", "LAT": 33.945734, "LONG": -118.352491, "LINE_DIR1": "40-N", "LINE_DIR2": null, "LINE_DIR3": 0, "LINE_DIR4": 0, "LINE_DIR5": 0, "LINE_DIR6": 0, "LINE_DIR7": 0, "LINE_DIR8": 0, "LINE_DIR9": 0, "LINE_DIR10": 0, "LINE_DIR11": 0, "LINE_DIR12": 0, "LINE_DIR13": 0, "LINE_DIR14": 0, "layer_id": "bus_stops", "feature_name": "Bus Stop", "heat_layer": 5.5528, "index_right": 5522, "socioeconomic_layer": 3.9292461880244498, "heat_socio_layer": 9.4820461880244498, "heat_socio_public_layer": 0.95720897235957048 }, "geometry": { "type": "Point", "coordinates": [ -13174939.032235492020845, 4021517.75358002865687 ] } },
{ "type": "Feature", "properties": { "id": "4697", "STOPNUM": 7563, "STOPNAME": "Century / La Cienega", "LAT": 33.945292, "LONG": -118.36972, "LINE_DIR1": "117-E", "LINE_DIR2": null, "LINE_DIR3": 0, "LINE_DIR4": 0, "LINE_DIR5": 0, "LINE_DIR6": 0, "LINE_DIR7": 0, "LINE_DIR8": 0, "LINE_DIR9": 0, "LINE_DIR10": 0, "LINE_DIR11": 0, "LINE_DIR12": 0, "LINE_DIR13": 0, "LINE_DIR14": 0, "layer_id": "bus_stops", "feature_name": "Bus Stop", "heat_layer": 1.8296, "index_right": 5549, "socioeconomic_layer": 4.1307137070309619, "heat_socio_layer": 5.960313707030962, "heat_socio_public_layer": 0.95918305795594883 }, "geometry": { "type": "Point", "coordinates": [ -13176856.955742370337248, 4021458.44179732631892 ] } },
{ "type": "Feature", "properties": { "id": "4860", "STOPNUM": 7835, "STOPNAME": "Manchester / Inglewood", "LAT": 33.961552, "LONG": -118.361396, "LINE_DIR1": "115-E", "LINE_DIR2": null, "LINE_DIR3": 0, "LINE_DIR4": 0, "LINE_DIR5": 0, "LINE_DIR6": 0, "LINE_DIR7": 0, "LINE_DIR8": 0, "LINE_DIR9": 0, "LINE_DIR10": 0, "LINE_DIR11": 0, "LINE_DIR12": 0, "LINE_DIR13": 0, "LINE_DIR14": 0, "layer_id": "bus_stops", "feature_name": "Bus Stop", "heat_layer": 3.3404, "index_right": 5527, "socioeconomic_layer": 3.7653596543338672, "heat_socio_layer": 7.105759654333867, "heat_socio_public_layer": 1.0830658214051621 }, "geometry": { "type": "Point", "coordinates": [ -13175930.332301005721092, 4023640.566730542108417 ] } },
{ "type": "Feature", "properties": { "id": "7249", "STOPNUM": 12316, "STOPNAME": "Grace / Prairie", "LAT": 33.968568, "LONG": -118.345068, "LINE_DIR1": "211-N", "LINE_DIR2": null, "LINE_DIR3": 0, "LINE_DIR4": 0, "LINE_DIR5": 0, "LINE_DIR6": 0, "LINE_DIR7": 0, "LINE_DIR8": 0, "LINE_DIR9": 0, "LINE_DIR10": 0, "LINE_DIR11": 0, "LINE_DIR12": 0, "LINE_DIR13": 0, "LINE_DIR14": 0, "layer_id": "bus_stops", "feature_name": "Bus Stop", "heat_layer": 0.568, "index_right": 5515, "socioeconomic_layer": 3.1041650197974633, "heat_socio_layer": 3.6721650197974633, "heat_socio_public_layer": 1.1804655000012656 }, "geometry": { "type": "Point", "coordinates": [ -13174112.707655334845185, 4024582.256947516463697 ] } },
{ "type": "Feature", "properties": { "id": "9398", "STOPNUM": 15907, "STOPNAME": "Century / Freeman", "LAT": 33.945595, "LONG": -118.348102, "LINE_DIR1": "117-W", "LINE_DIR2": null, "LINE_DIR3": 0, "LINE_DIR4": 0, "LINE_DIR5": 0, "LINE_DIR6": 0, "LINE_DIR7": 0, "LINE_DIR8": 0, "LINE_DIR9": 0, "LINE_DIR10": 0, "LINE_DIR11": 0, "LINE_DIR12": 0, "LINE_DIR13": 0, "LINE_DIR14": 0, "layer_id": "bus_stops", "feature_name": "Bus Stop", "heat_layer": 5.633, "index_right": 5521, "socioeconomic_layer": 3.9572010707835341, "heat_socio_layer": 9.5902010707835341, "heat_socio_public_layer": 0.96227965847962893 }, "geometry": { "type": "Point", "coordinates": [ -13174450.450990401208401, 4021499.10119887534529 ] } },
{ "type": "Feature", "properties": { "id": "11087", "STOPNUM": 30004, "STOPNAME": "Inglewood Transit Center", "LAT": 33.959841, "LONG": -118.352686, "LINE_DIR1": "111-W", "LINE_DIR2": "111-E", "LINE_DIR3": 0, "LINE_DIR4": 0, "LINE_DIR5": 0, "LINE_DIR6": 0, "LINE_DIR7": 0, "LINE_DIR8": 0, "LINE_DIR9": 0, "LINE_DIR10": 0, "LINE_DIR11": 0, "LINE_DIR12": 0, "LINE_DIR13": 0, "LINE_DIR14": 0, "layer_id": "bus_stops", "feature_name": "Bus Stop", "heat_layer": 2.594, "index_right": 5516, "socioeconomic_layer": 4.1973871381090593, "heat_socio_layer": 6.7913871381090587, "heat_socio_public_layer": 0.77013732532678902 }, "geometry": { "type": "Point", "coordinates": [ -13174960.739536197856069, 4023410.927433213219047 ] } },
{ "type": "Feature", "properties": { "id": "11370", "STOPNUM": 140974, "STOPNAME": "La Brea / Plymouth", "LAT": 33.974401, "LONG": -118.357487, "LINE_DIR1": "212-N", "LINE_DIR2": null, "LINE_DIR3": 0, "LINE_DIR4": 0, "LINE_DIR5": 0, "LINE_DIR6": 0, "LINE_DIR7": 0, "LINE_DIR8": 0, "LINE_DIR9": 0, "LINE_DIR10": 0, "LINE_DIR11": 0, "LINE_DIR12": 0, "LINE_DIR13": 0, "LINE_DIR14": 0, "layer_id": "bus_stops", "feature_name": "Bus Stop", "heat_layer": 4.281, "index_right": 5509, "socioeconomic_layer": 3.9128556664994685, "heat_socio_layer": 8.1938556664994682, "heat_socio_public_layer": 1.4502605523883068 }, "geometry": { "type": "Point", "coordinates": [ -13175495.184411495923996, 4025365.22359364759177 ] } },
{ "type": "Feature", "properties": { "id": "11395", "STOPNUM": 141034, "STOPNAME": "Locust / Regent", "LAT": 33.964205, "LONG": -118.350488, "LINE_DIR1": "211-N", "LINE_DIR2": null, "LINE_DIR3": 0, "LINE_DIR4": 0, "LINE_DIR5": 0, "LINE_DIR6": 0, "LINE_DIR7": 0, "LINE_DIR8": 0, "LINE_DIR9": 0, "LINE_DIR10": 0, "LINE_DIR11": 0, "LINE_DIR12": 0, "LINE_DIR13": 0, "LINE_DIR14": 0, "layer_id": "bus_stops", "feature_name": "Bus Stop", "heat_layer": 2.594, "index_right": 5516, "socioeconomic_layer": 4.1973871381090593, "heat_socio_layer": 6.7913871381090587, "heat_socio_public_layer": 0.77013732532678902 }, "geometry": { "type": "Point", "coordinates": [ -13174716.059295436367393, 4023996.644277684390545 ] } },
{ "type": "Feature", "properties": { "id": "11793", "STOPNUM": 25400168, "STOPNAME": "Hillcrest / Nutwood", "LAT": 33.960582, "LONG": -118.349972, "LINE_DIR1": "212-N", "LINE_DIR2": "212-S", "LINE_DIR3": 0, "LINE_DIR4": 0, "LINE_DIR5": 0, "LINE_DIR6": 0, "LINE_DIR7": 0, "LINE_DIR8": 0, "LINE_DIR9": 0, "LINE_DIR10": 0, "LINE_DIR11": 0, "LINE_DIR12": 0, "LINE_DIR13": 0, "LINE_DIR14": 0, "layer_id": "bus_stops", "feature_name": "Bus Stop", "heat_layer": 2.594, "index_right": 5516, "socioeconomic_layer": 4.1973871381090593, "heat_socio_layer": 6.7913871381090587, "heat_socio_public_layer": 0.77013732532678902 }, "geometry": { "type": "Point", "coordinates": [ -13174658.618438186123967, 4023510.379069214686751 ] } }
]
}
