{
"type": "FeatureCollection",
"name": "optimized_shades_MILP_DTLA_20_150",
"crs": { "type": "name", "properties": { "name": "urn:ogc:def:crs:EPSG::3857" } },
"features": [
{ "type": "Feature", "properties": { "OBJECTID": 1039, "stop_id": 18997, "route_count": 2, "route_stop": "MT040, MT045", "lat": 34.022265491713, "lon": -118.27176599806, "heat_layer": 6.995, "index_right": 1823, "socioeconomic_layer": 4.0012046941292949, "heat_socio_layer": 10.996204694129295, "heat_socio_public_layer": 1.1450094103895756 }, "geometry": { "type": "Point", "coordinates": [ -13165952.766125245019794, 4031792.129649397451431 ] } },
{ "type": "Feature", "properties": { "OBJECTID": 1040, "stop_id": 19059, "route_count": 2, "route_stop": "MT040, MT045", "lat": 34.025342107740002, "lon": -118.26975624693, "heat_layer": 6.5238, "index_right": 1811, "socioeconomic_layer": 4.1759712630451817, "heat_socio_layer": 10.699771263045182, "heat_socio_public_layer": 0.9358447370435139 }, "geometry": { "type": "Point", "coordinates": [ -13165729.041652832180262, 4032205.359847676474601 ] } },
{ "type": "Feature", "properties": { "OBJECTID": 1041, "stop_id": 19133, "route_count": 2, "route_stop": "MT040, MT045", "lat": 34.029412087349002, "lon": -118.26710594991, "heat_layer": 6.5238, "index_right": 1811, "socioeconomic_layer": 4.1759712630451817, "heat_socio_layer": 10.699771263045182, "heat_socio_public_layer": 0.9358447370435139 }, "geometry": { "type": "Point", "coordinates": [ -13165434.011938117444515, 4032752.034923374187201 ] } },
{ "type": "Feature", "properties": { "OBJECTID": 1042, "stop_id": 19187, "route_count": 3, "route_stop": "MT040, MT035, MT045", "lat": 34.031456756674999, "lon": -118.26574278011, "heat_layer": 6.5238, "index_right": 1811, "socioeconomic_layer": 4.1759712630451817, "heat_socio_layer": 10.699771263045182, "heat_socio_public_layer": 0.9358447370435139 }, "geometry": { "type": "Point", "coordinates": [ -13165282.26457011513412, 4033026.682499269489199 ] } },
{ "type": "Feature", "properties": { "OBJECTID": 1125, "stop_id": 20468, "route_count": 4, "route_stop": "MT081, MT090, MT094, DA  B", "lat": 34.064440876143998, "lon": -118.23870369244, "heat_layer": 3.9106, "index_right": 1427, "socioeconomic_layer": 4.2601086467671427, "heat_socio_layer": 8.1707086467671424, "heat_socio_public_layer": 0.94660419450638544 }, "geometry": { "type": "Point", "coordinates": [ -13162272.287099175155163, 4037458.146977577358484 ] } },
{ "type": "Feature", "properties": { "OBJECTID": 1138, "stop_id": 19103, "route_count": 5, "route_stop": "DAPIC, MT603, MT035, DA  D, MT055", "lat": 34.032632605640998, "lon": -118.26833412038999, "heat_layer": 2.8998, "index_right": 1810, "socioeconomic_layer": 3.7749837642375321, "heat_socio_layer": 6.6747837642375316, "heat_socio_public_layer": 1.0599924015405282 }, "geometry": { "type": "Point", "coordinates": [ -13165570.731250556185842, 4033184.629896038211882 ] } },
{ "type": "Feature", "properties": { "OBJECTID": 1144, "stop_id": 18815, "route_count": 2, "route_stop": "DAPIC, MT030", "lat": 34.044635145834, "lon": -118.27690897756, "heat_layer": 5.174, "index_right": 1816, "socioeconomic_layer": 4.3236445329102189, "heat_socio_layer": 9.4976445329102184, "heat_socio_public_layer": 1.3740141712416634 }, "geometry": { "type": "Point", "coordinates": [ -13166525.279984347522259, 4034797.011500256601721 ] } },
{ "type": "Feature", "properties": { "OBJECTID": 1145, "stop_id": 18925, "route_count": 2, "route_stop": "DAPIC, MT028", "lat": 34.049213795207002, "lon": -118.27419075956, "heat_layer": 2.8174, "index_right": 1502, "socioeconomic_layer": 4.3621861962603683, "heat_socio_layer": 7.1795861962603684, "heat_socio_public_layer": 1.2122868403761216 }, "geometry": { "type": "Point", "coordinates": [ -13166222.689340719953179, 4035412.152263194322586 ] } },
{ "type": "Feature", "properties": { "OBJECTID": 1153, "stop_id": 19406, "route_count": 2, "route_stop": "DAPIC, MT016", "lat": 34.058301360493999, "lon": -118.26163510700999, "heat_layer": 0.6536, "index_right": 1485, "socioeconomic_layer": 4.181205680169124, "heat_socio_layer": 4.8348056801691239, "heat_socio_public_layer": 1.4474127238994661 }, "geometry": { "type": "Point", "coordinates": [ -13164825.000492276623845, 4036633.163515490014106 ] } },
{ "type": "Feature", "properties": { "OBJECTID": 1156, "stop_id": 19034, "route_count": 2, "route_stop": "DAPIC, MT016", "lat": 34.061868472157002, "lon": -118.27019759282, "heat_layer": 6.719, "index_right": 1483, "socioeconomic_layer": 4.4870798736572794, "heat_socio_layer": 11.206079873657281, "heat_socio_public_layer": 0.94785615773121001 }, "geometry": { "type": "Point", "coordinates": [ -13165778.172052573412657, 4037112.478763583116233 ] } },
{ "type": "Feature", "properties": { "OBJECTID": 1178, "stop_id": 18867, "route_count": 2, "route_stop": "MT603, DA  E", "lat": 34.055926228243997, "lon": -118.27566208983001, "heat_layer": 6.6648, "index_right": 1497, "socioeconomic_layer": 4.6636642360117104, "heat_socio_layer": 11.32846423601171, "heat_socio_public_layer": 1.1034624870863305 }, "geometry": { "type": "Point", "coordinates": [ -13166386.477077167481184, 4036314.026548541150987 ] } },
{ "type": "Feature", "properties": { "OBJECTID": 1484, "stop_id": 20215, "route_count": 3, "route_stop": "MT720, MT053, MT018", "lat": 34.044203443980003, "lon": -118.24391431181, "heat_layer": 2.009, "index_right": 1420, "socioeconomic_layer": 4.2056171163205356, "heat_socio_layer": 6.2146171163205359, "heat_socio_public_layer": 1.6580314046237152 }, "geometry": { "type": "Point", "coordinates": [ -13162852.330594163388014, 4034739.014143196865916 ] } },
{ "type": "Feature", "properties": { "OBJECTID": 1695, "stop_id": 18723, "route_count": 2, "route_stop": "MT002, MT028", "lat": 34.051726106794, "lon": -118.27984747001, "heat_layer": 5.0372, "index_right": 1500, "socioeconomic_layer": 4.5491144189991699, "heat_socio_layer": 9.5863144189991694, "heat_socio_public_layer": 0.84436841535125506 }, "geometry": { "type": "Point", "coordinates": [ -13166852.391467580571771, 4035749.695010797586292 ] } },
{ "type": "Feature", "properties": { "OBJECTID": 1718, "stop_id": 20167, "route_count": 3, "route_stop": "MT016, MT053, MT018", "lat": 34.044897494036, "lon": -118.24584081819, "heat_layer": 3.047, "index_right": 1419, "socioeconomic_layer": 4.2611475813781556, "heat_socio_layer": 7.3081475813781562, "heat_socio_public_layer": 1.3873330095912619 }, "geometry": { "type": "Point", "coordinates": [ -13163066.788303393870592, 4034832.257039438933134 ] } },
{ "type": "Feature", "properties": { "OBJECTID": 1740, "stop_id": 20227, "route_count": 2, "route_stop": "MT018, MT053", "lat": 34.041252817627999, "lon": -118.24362843895, "heat_layer": 7.2614, "index_right": 1422, "socioeconomic_layer": 4.5922241777298698, "heat_socio_layer": 11.85362417772987, "heat_socio_public_layer": 1.4540101895923998 }, "geometry": { "type": "Point", "coordinates": [ -13162820.50737295486033, 4034342.617611710913479 ] } },
{ "type": "Feature", "properties": { "OBJECTID": 1741, "stop_id": 20346, "route_count": 2, "route_stop": "MT018, MT720", "lat": 34.039341029018999, "lon": -118.24052674039, "heat_layer": 7.2614, "index_right": 1422, "socioeconomic_layer": 4.5922241777298698, "heat_socio_layer": 11.85362417772987, "heat_socio_public_layer": 1.14031191852522 }, "geometry": { "type": "Point", "coordinates": [ -13162475.227868661284447, 4034085.789210012648255 ] } },
{ "type": "Feature", "properties": { "OBJECTID": 1764, "stop_id": 20290, "route_count": 2, "route_stop": "MT053, MT018", "lat": 34.043033939588, "lon": -118.24200956897, "heat_layer": 7.2614, "index_right": 1422, "socioeconomic_layer": 4.5922241777298698, "heat_socio_layer": 11.85362417772987, "heat_socio_public_layer": 1.4899963277644854 }, "geometry": { "type": "Point", "coordinates": [ -13162640.295591123402119, 4034581.897552561946213 ] } },
{ "type": "Feature", "properties": { "OBJECTID": 1773, "stop_id": 20476, "route_count": 2, "route_stop": "MT018, MT720", "lat": 34.038163599628, "lon": -118.23843399127, "heat_layer": 7.2614, "index_right": 1422, "socioeconomic_layer": 4.5922241777298698, "heat_socio_layer": 11.85362417772987, "heat_socio_public_layer": 0.98123215456013579 }, "geometry": { "type": "Point", "coordinates": [ -13162242.264102265238762, 4033927.617014450952411 ] } },
{ "type": "Feature", "properties": { "OBJECTID": 1810, "stop_id": 18965, "route_count": 2, "route_stop": "MT051, DA  E", "lat": 34.054928241178999, "lon": -118.27346997431, "heat_layer": 4.5814, "index_right": 1498, "socioeconomic_layer": 4.205270453721929, "heat_socio_layer": 8.7866704537219285, "heat_socio_public_layer": 1.4933007410845001 }, "geometry": { "type": "Point", "coordinates": [ -13166142.451893720775843, 4036179.933708895463496 ] } },
{ "type": "Feature", "properties": { "OBJECTID": 1820, "stop_id": 19572, "route_count": 2, "route_stop": "MT051, DA  E", "lat": 34.027627705863999, "lon": -118.25745671823999, "heat_layer": 7.4568, "index_right": 1826, "socioeconomic_layer": 4.4925893809188828, "heat_socio_layer": 11.949389380918884, "heat_socio_public_layer": 1.1571037384396821 }, "geometry": { "type": "Point", "coordinates": [ -13164359.86438206396997, 4032512.355584840290248 ] } }
]
}
